PUBLIC	STATE	NAME	PROVIDER_NO	STREET_ADDRESS	SUBURB	POSTCODE																																												
PRIVATE	WA	ABBOTSFORD PRIVATE HOSPITAL	0075130L	61-69 CAMBRIDGE STREET	WEST LEEDERVILLE	6007																																												
PRIVATE	ACT	ACT ENDOSCOPY	0097040K	2/70 KENT STREET	DEAKIN	2600																																												
PRIVATE	SA	ADELAIDE AMBULATORY DAY SURGERY	0067240H	"SUITES 10A, 50 HUTT STREET"	ADELAIDE	5000																																												
PRIVATE	SA	ADELAIDE CITY EAST DAY HOSPITAL	0067180B	309 WAKEFIELD ST	ADELAIDE	5000																																												
PRIVATE	SA	ADELAIDE DAY SURGERY	0658181F	18 NORTH TERRACE	ADELAIDE	5000																																												
PRIVATE	SA	ADELAIDE SURGICENTRE	0999771L	89 KING WILLIAM ST	KENT TOWN	5067																																												
PUBLIC	NSW	ADOLESCENT AND YOUNG ADULT HOSPICE  (AYAH)	0012920T	150 DARLEY ROAD 	MANLY	2095																																												
PUBLIC	VIC	ADULT PREVENTION & RECOVERY CARE (A-PARC)	0032140K	1 BEACH STREET	FRANKSTON	3199																																												
PRIVATE	SA	ADVANCED ORAL AND MAXILLOFACIAL SURGERY	0067310J	238 ANGAS STREET 	ADELAIDE	5000																																												
PRIVATE	NSW	AESTHETIC DAY SURGERY	0896271A	14 KENSINGTON STREET	KOGARAH	2217																																												
PRIVATE	WA	ALBANY COMMUNITY HOSPICE	0075520Y	30 WARDEN AVE	ALBANY	6330																																												
PRIVATE	WA	ALBANY DAY HOSPITAL	0077290B	6 LUBICH WAY	MIRA MAR	6330																																												
PUBLIC	WA	ALBANY HOSPITAL	0070050J	WARDEN AVENUE	ALBANY	6330																																												
PRIVATE	NSW	ALBURY DAY SURGERY	0657791J	4 BAKER COURT	ALBURY	2640																																												
PUBLIC	NSW	ALBURY WODONGA HEALTH - ALBURY CAMPUS	0010560W	201 BORELLA ROAD	ALBURY	2640																																												
PUBLIC	VIC	ALBURY WODONGA HEALTH - WODONGA CAMPUS	0031390A	69 VERMONT STREET	WODONGA	3690																																												
PRIVATE	NSW	ALBURY WODONGA PRIVATE HOSPITAL	0016960X	1125 PEMBERTON STREET	ALBURY	2640																																												
PUBLIC	TAS	ALCOHOL AND DRUG SERVICES	0080470W	"CARRUTHERS BUILDING, ST JOHNS AVENUE"	NEWTOWN 	7008																																												
PUBLIC	VIC	ALEXANDRA DISTRICT HOSPITAL	0030010T	20 COOPER STREET	ALEXANDRA	3714																																												
PRIVATE	NSW	ALEXANDRIA SPECIALIST DAY HOSPITAL	0027000Y	15 BOWDEN STREET	ALEXANDRIA	2015																																												
PUBLIC	NT	ALICE SPRINGS HOSPITAL	0095020J	6 GAP ROAD	ALICE SPRINGS	0870																																												
PRIVATE	NSW	ALLOWAH PRESBYTERIAN CHILDREN'S HOSPITAL	0015030B	8 PERRY STREET	DUNDAS	2117																																												
PUBLIC	QLD	ALPHA HOSPITAL	0050010F	1 BURNS  STREET	ALPHA	4724																																												
PUBLIC	VIC	ALPINE HEALTH (BRIGHT)	0031740W	36-42 COBDEN STREET	BRIGHT	3741																																												
PUBLIC	VIC	ALPINE HEALTH (MOUNT BEAUTY)	0031190J	10 HOLLONDS STREET	MT BEAUTY	3699																																												
PUBLIC	VIC	ALPINE HEALTH (MYRTLEFORD)	0030790T	30 O'DONNELL AVENUE	MYRTLEFORD	3736																																												
PRIVATE	NSW	ALWYN REHABILITATION HOSPITAL	0015040A	1 EMU STREET	STRATHFIELD	2135																																												
PRIVATE	VIC	ANAM CARA HOUSE GEELONG	0037080K	"NICOL DRIVE SOUTH, DEAKIN UNIVERSITY"	WAURN PONDS	3216																																												
PUBLIC	SA	ANGASTON HOSPITAL	0060050B	29 NORTH STREET	ANGASTON	5353																																												
PUBLIC	VIC	ANGLISS HOSPITAL	0031330L	ALBERT STREET	UPPER FERNTREE GULLY	3156																																												
PRIVATE	NSW	ARCADIA PITTWATER PRIVATE HOSPITAL	0017560F	4 DAYDREAM STREET	WARRIEWOOD	2102																																												
PRIVATE	SA	ARCHER ST DAY HOSPITAL	0067290X	163 ARCHER STREET	NORTH ADELAIDE	5006																																												
PRIVATE	SA	ARDROSSAN COMMUNITY HOSPITAL INC	0065390J	37 FIFTH STREET	ARDROSSAN	5571																																												
PUBLIC	WA	ARMADALE KELMSCOTT MEMORIAL HOSPITAL	0070040K	3056 ALBANY HIGHWAY	ARMADALE	6112																																												
PRIVATE	NSW	ARMIDALE PRIVATE HOSPITAL	0017190T	RUSDEN STREET	ARMIDALE	2350																																												
PUBLIC	NSW	ARMIDALE RURAL REFERRAL HOSPITAL	0010570T	226 RUSDEN STREET	ARMIDALE	2350																																												
PRIVATE	VIC	ARROW HEALTH	0037010B	8 CARLISLE STREET	WOODEND	3442																																												
PRIVATE	NSW	ARTARMON DAY SURGERY	0027520X	"SUITE 4, 448 PACIFIC HIGHWAY"	ARTARMON	2064																																												
PRIVATE	SA	ASHFORD HOSPITAL	0065020L	55 ANZAC HIGHWAY	ASHFORD	5035																																												
PUBLIC	QLD	ATHERTON HOSPITAL	0050030A	CNR LOUISE & JACK STREETS	ATHERTON	4883																																												
PRIVATE	WA	ATTADALE REHABILITATION HOSPITAL	0075360Y	21 HISLOP ROAD	ATTADALE	6156																																												
PUBLIC	NSW	AUBURN HOSPITAL & COMMUNITY HEALTH SERVICES	0010020A	18-20 HARGRAVE ROAD	AUBURN	2144																																												
PUBLIC	QLD	AUGATHELLA HOSPITAL	0050040Y	CAVANAGH STREET	AUGATHELLA	4477																																												
PUBLIC	WA	AUGUSTA HOSPITAL	0071110F	DONOVAN STREET	AUGUSTA	6290																																												
PUBLIC	VIC	AUSTIN HEALTH - AUSTIN HOSPITAL	0030060F	145 STUDLEY ROAD	HEIDELBERG	3084																																												
PUBLIC	VIC	AUSTIN HEALTH - HEIDELBERG REPATRIATION HOSPITAL	0031620B	300 WATERDALE ROAD	HEIDELBERG WEST	3081																																												
PRIVATE	QLD	AVIVE CLINIC BRISBANE	0056290Y	16 BRYDEN STREET 	WINDSOR	4030																																												
PRIVATE	VIC	AVIVE CLINIC MORNINGTON PENINSULA 	0037110Y	1 ST JOHNS LANE 	MOUNT ELIZA 	3930																																												
PUBLIC	QLD	AYR HOSPITAL	0050050X	2 CHIPPENDALE STREET	AYR	4807																																												
PRIVATE	QLD	B.BRAUN MORAYFIELD RENAL CARE CENTRE	0056220L	19-31 DICKSON ROAD 	MORAYFIELD 	4506																																												
PUBLIC	QLD	BABINDA HOSPITAL	0050060W	128 MUNRO STREET	BABINDA	4861																																												
PUBLIC	VIC	BAIRNSDALE REGIONAL HEALTH SERVICE	0030080A	122 DAY STREET	BAIRNSDALE	3875																																												
PUBLIC	SA	BALAKLAVA HOSPITAL	0060060A	16 WAR MEMORIAL DRIVE	BALAKLAVA	5461																																												
PRIVATE	VIC	BALLARAT DAY PROCEDURE CENTRE	0043620T	1119-1123 HOWITT STREET	WENDOUREE	3355																																												
PUBLIC	VIC	BALLARAT HEALTH SERVICES - QUEEN ELIZABETH CENTRE	0034220W	102 ASCOT STREET	BALLARAT	3350																																												
PUBLIC	VIC	BALLARAT HEALTH SERVICES (BASE HOSPITAL)	0030090Y	1 DUMMOND STREET NORTH	BALLARAT CENTRAL	3350																																												
PRIVATE	VIC	BALLARAT SURGICENTRE	0044080X	5-9 WOOD STREET	SOLDIERS HILL	3350																																												
PRIVATE	NSW	BALLINA DAY SURGERY	0027050K	"SUITE 6, 46 TAMAR STREET"	BALLINA	2478																																												
PUBLIC	NSW	BALLINA DISTRICT HOSPITAL	0010580L	78-92 CHERRY STREET	BALLINA	2478																																												
PUBLIC	NSW	BALMAIN HOSPITAL	0010030Y	29 BOOTH STREET	BALMAIN	2041																																												
PUBLIC	NSW	BALRANALD MULTI PURPOSE SERVICE	0010590K	41-43 COURT STREET	BALRANALD	2715																																												
PUBLIC	QLD	BAMAGA HOSPITAL	0051460T	238 SAGAUKAZ STREET	BAMAGA	4876																																												
PUBLIC	NSW	BANKSTOWN-LIDCOMBE HOSPITAL	0010040X	68 ELDRIDGE ROAD	BANKSTOWN	2200																																												
PUBLIC	NSW	BARADINE MULTI PURPOSE SERVICE	0011030L	5-9 MACQUARIE STREET	BARADINE	2396																																												
PUBLIC	QLD	BARALABA HOSPITAL	0050070T	STOPFORD STREET	BARALABA	4702																																												
PUBLIC	QLD	BARCALDINE HOSPITAL	0050080L	OAK STREET	BARCALDINE	4725																																												
PUBLIC	NSW	BARHAM KOONDROOK SOLDIERS MEMORIAL HOSPITAL	0010610A	70 PUNT ROAD	BARHAM	2732																																												
PRIVATE	NSW	BARINGA PRIVATE HOSPITAL	0016920F	31 MACKAYS ROAD	COFFS HARBOUR	2450																																												
PUBLIC	SA	BARMERA HEALTH SERVICES	0060670X	HAWDON STREET	BARMERA	5345																																												
PUBLIC	NSW	BARRABA MULTI PURPOSE SERVICE	0010620Y	EDWARD STREET	BARRABA	2347																																												
PRIVATE	ACT	BARTON PRIVATE HOSPITAL	0097000X	"2/9 SYDNEY AVENUE &
18 NATIONAL CIRCUIT, (BARTON WARD AT HOTEL REALM)"	BARTON	2600																																												
PUBLIC	VIC	BARWON HEALTH - ASHLEY MANOR CAMPUS	0032040T	1 SUMMIT AVENUE	BELMONT	3216																																												
PUBLIC	VIC	BARWON HEALTH - GEELONG HOSPITAL CAMPUS	0030470J	BELLERINE STREET	GEELONG	3220																																												
PUBLIC	VIC	BARWON HEALTH - MCKELLAR CENTRE CAMPUS	0034090K	45-95 BALLARAT ROAD	NORTH GEELONG	3215																																												
PUBLIC	VIC	BARWON HEALTH - NEWCOMB RENAL UNIT CAMPUS	0032060K	104 BELLARINE HIGHWAY	NEWCOMB	3219																																												
PUBLIC	VIC	BARWON HEALTH - SOUTH GEELONG RENAL UNIT CAMPUS	0032070J	40 LT FYANS STREET	SOUTH GEELONG	3220																																												
PUBLIC	VIC	BARWON HEALTH NORTH	0032170F	155 PRINCESS HIGHWAY	NORLANE	3214																																												
PUBLIC	VIC	BASS COAST REGIONAL HEALTH	0031400T	235 GRAHAM STREET	WONTHAGGI	3995																																												
PUBLIC	NSW	BATEMANS BAY HOSPITAL	0010640W	7 PACIFIC STREET	BATEMANS BAY	2536																																												
PUBLIC	NSW	BATHURST BASE HOSPITAL	0010650T	361-365 HOWICK STREET	BATHURST	2795																																												
PRIVATE	NSW	BATHURST PRIVATE HOSPITAL	0017100K	GORMAN'S HILL ROAD	BATHURST	2795																																												
PUBLIC	NSW	BATLOW/ADELONG MULTI PURPOSE SERVICE	0010660L	61-81 PIONEER STREET	BATLOW	2730																																												
PRIVATE	VIC	BAYSIDE DAY PROCEDURE AND SPECIALIST CENTRE	0043570J	141 CRANBOURNE ROAD	FRANKSTON	3199																																												
PRIVATE	VIC	BAYSIDE ENDOSCOPY DAY HOSPITAL	0895011H	441 SOUTH ROAD	BENTLEIGH	3204																																												
PUBLIC	TAS	BEACONSFIELD DISTRICT HEALTH SERVICE	0080080J	13 BOLTON STREET	BEACONSFIELD	7270																																												
PUBLIC	QLD	BEAUDESERT HOSPITAL	0050090K	64 TINA STREET	BEAUDESERT	4285																																												
PUBLIC	VIC	BEAUFORT & SKIPTON HEALTH SERVICES - BEAUFORT CAMPUS	0030990H	28 HAVELOCK STREET	BEAUFORT	3373																																												
PUBLIC	VIC	BEAUFORT & SKIPTON HEALTH SERVICES - SKIPTON CAMPUS	0030990H	BLAKE STREET	SKIPTON	3361																																												
PRIVATE	SA	BEDFORD DAY SURGERY	0067120T	1284 SOUTH ROAD	TONSLEY	5042																																												
PUBLIC	VIC	BEECHWORTH HEALTH SERVICE	0031690K	52 SYDNEY ROAD	BEECHWORTH	3747																																												
PRIVATE	VIC	BELEURA PRIVATE HOSPITAL	0036200F	925 NEPEAN HIGHWAY	MORNINGTON	3931																																												
PRIVATE	NSW	BELLA VISTA DAY HOSPITAL	0027330B	"SUITE 102, 9 NORBRIK DRIVE"	BELLA VISTA	2153																																												
PUBLIC	NSW	BELLINGER RIVER DISTRICT HOSPITAL	0010680J	43 CHURCH STREET	BELLINGEN	2454																																												
PUBLIC	NSW	BELMONT HOSPITAL	0012550B	16 CROUDACE BAY ROAD	BELMONT	2280																																												
PRIVATE	QLD	BELMONT PRIVATE HOSPITAL	0055630B	1220 CREEK ROAD	CARINA	4152																																												
PUBLIC	VIC	BENALLA HEALTH	0030110K	45-53 COSTER STREET	BENALLA	3672																																												
PRIVATE	VIC	BENDIGO DAY SURGERY	0043950X	1 CHUM STREET	BENDIGO	3554																																												
PUBLIC	VIC	BENDIGO HEALTH - THE BENDIGO HOSPITAL 	0030120J	100 BARNARD STREET	BENDIGO	3550																																												
PRIVATE	VIC	BENTLEIGH SURGICENTRE	0043850A	157 JASPER ROAD	BENTLEIGH	3204																																												
PUBLIC	WA	BENTLEY HEALTH SERVICE	0071150X	18-56 MILLS STREET	BENTLEY	6102																																												
PRIVATE	NSW	BERKELEY VALE PRIVATE HOSPITAL	0017020K	11 LORRAINE AVENUE	BERKELEY VALE	2261																																												
PUBLIC	NSW	BERRIGAN WAR MEMORIAL HOSPITAL/MULTI PURPOSE SERVICE	0010700Y	47-49 DAVIS STREET	BERRIGAN	2712																																												
PRIVATE	VIC	BERWICK SURGICENTRE	0043540T	22 LANGMORE LANE	BERWICK	3806																																												
PRIVATE	WA	BETHESDA CLINIC	0075760F	1 HONOUR WAY	COCKBURN	6164																																												
PRIVATE	WA	BETHESDA HOSPITAL	0075020X	25 QUEENSLEA DRIVE	CLAREMONT	6010																																												
PUBLIC	WA	BEVERLEY HOSPITAL	0070060H	SEWELL STREET	BEVERLEY	6304																																												
PUBLIC	QLD	BIGGENDEN MULTIPURPOSE HEALTH SERVICE	0050100B	57 ALICE STREET	BIGGENDEN	4621																																												
PUBLIC	QLD	BILOELA HOSPITAL	0050110A	2 HOSPITAL ROAD	BILOELA	4715																																												
PUBLIC	NSW	BINGARA MULTIPURPOSE SERVICE	0010710X	KEERA STREET	BINGARA	2404																																												
PUBLIC	QLD	BLACKALL HOSPITAL	0050130X	SHAMROCK STREET	BLACKALL	4472																																												
PUBLIC	NSW	BLACKTOWN HOSPITAL	0012490Y	BLACKTOWN ROAD	BLACKTOWN	2148																																												
PUBLIC	QLD	BLACKWATER HOSPITAL	0051570J	41 MACKENZIE STREET	BLACKWATER	4717																																												
PUBLIC	NSW	BLAYNEY MULTIPURPOSE SERVICE	0010720W	3 OSMAN STREET	BLAYNEY	2799																																												
PUBLIC	NSW	BLUE MOUNTAINS DISTRICT ANZAC MEMORIAL HOSPITAL	0010730T	CNR WOODLANDS AND GREAT WESTERN HIGHWAY	KATOOMBA	2780																																												
PUBLIC	WA	BODDINGTON HOSPITAL	0070070F	46-53 HOTHAM AVENUE	BODDINGTON	6390																																												
PUBLIC	NSW	BOGGABRI MULTI PURPOSE SERVICE	0010740L	3 WEE WAA STREET	BOGGABRI	2382																																												
PUBLIC	NSW	BOMBALA MULTI PURPOSE SERVICE	0010750K	126-128 WELLINGTON STREET	BOMBALA	2632																																												
PUBLIC	NSW	BONALBO HOSPITAL	0010760J	CLARENCE WAY	BONALBO	2469																																												
PRIVATE	NSW	BOND DAY HOSPITAL 	0027680B	"SUITE 2.01, 8 ELIZABETH MACARTHUR DRIVE"	BELLA VISTA	2153																																												
PRIVATE	NSW	BONDI JUNCTION ENDOSCOPY CENTRE	0836101F	56 GROSVENOR STREET	WOOLLAHRA	2025																																												
PRIVATE	NSW	BONDI JUNCTION PRIVATE HOSPITAL	0017220B	"LEVEL 1 & 2,  21 SPRING STREET"	BONDI JUNCTION	2022																																												
PUBLIC	SA	BOOLEROO CAMPUS	0060100J	5-9 STEPHENS STREET	BOOLEROO CENTRE	5482																																												
PUBLIC	QLD	BOONAH HOSPITAL	0050150T	11-17 LEONARD STREET	BOONAH	4310																																												
PUBLIC	NSW	BOOROWA MULTI PURPOSE SERVICE HOSPITAL	0010770H	62-80 DRY STREET	BOOROWA	2586																																												
PUBLIC	VIC	BOORT DISTRICT HEALTH	0030140F	31 KINIRY STREET	BOORT	3537																																												
PUBLIC	SA	BORDERTOWN MEMORIAL HOSPITAL	0060110H	23 SOUTH TERRACE	BORDERTOWN	5268																																												
PRIVATE	VIC	BOROONDARA DAY SURGERY 	0032220K	110 CHURCH STREET 	HAWTHORN	3122																																												
PUBLIC	NSW	BOURKE MULTI PURPOSE SERVICE	0010780F	26 TARCOON STREET	BOURKE	2840																																												
PUBLIC	NSW	BOURKE STREET HEALTH SERVICE GOULBURN	0012020H	234 BOURKE STREET	GOULBURN	2580																																												
PUBLIC	QLD	BOWEN HOSPITAL	0050170K	GREGORY STREET	BOWEN	4805																																												
PUBLIC	NSW	BOWRAL HOSPITAL	0010690H	150 MONA ROAD	BOWRAL	2576																																												
PUBLIC	VIC	BOX HILL HOSPITAL	0030150B	51 NELSON ROAD	BOX HILL	3128																																												
PUBLIC	WA	BOYUP BROOK SOLDIERS MEMORIAL HOSPITAL	0070080B	HOSPITAL ROAD	BOYUP BROOK	6244																																												
PUBLIC	NSW	BRAESIDE HOSPITAL	0012830W	340 PRAIRIE VALE ROAD	PRAIRIEWOOD	2176																																												
PUBLIC	NSW	BRAIDWOOD MULTI PURPOSE SERVICE	0010790B	77 MONKITTEE STREET	BRAIDWOOD	2622																																												
PUBLIC	NSW	BREWARRINA MULTI PURPOSE SERVICE	0010820L	56 DOYLE STREET	BREWARRINA	2839																																												
PUBLIC	WA	BRIDGETOWN HOSPITAL	0070090A	16-18 PENINSULA ROAD	BRIDGETOWN	6255																																												
PRIVATE	SA	BRIGHTON DAY SURGERY	0931151B	1 JETTY ROAD	BRIGHTON	5048																																												
PRIVATE	SA	BRIGHTON DIALYSIS CLINIC	0930971X	361-365 BRIGHTON RD	HOVE	5048																																												
PRIVATE	ACT	BRINDABELLA ENDOSCOPY CENTRE	0999781K	SUITE 7/5 DANN CLOSE	GARRAN	2605																																												
PRIVATE	QLD	BRISBANE DAY SURGERY	0923141F	55 LITTLE EDWARD STREET	SPRING HILL	4004																																												
PRIVATE	QLD	BRISBANE ENDOSCOPY SERVICE	0656651H	"SUITES 16 & 17 MCCULLOUGH CENTRE, 259 MCCULLOUGH STREET"	SUNNYBANK	4109																																												
PRIVATE	QLD	BRISBANE PRIVATE HOSPITAL	0055080W	259 WICKHAM TERRACE	BRISBANE	4000																																												
PRIVATE	QLD	BRISBANE PROCEDURE CENTRE 	0057550J	42 DOGGETT STREET 	NEWSTEAD	4006																																												
PRIVATE	QLD	BRISBANE SOUTH PRIVATE HOSPITAL	0057630J	4 PAXTON STREET	SPRINGWOOD	4127																																												
PRIVATE	NSW	BRISBANE WATERS PRIVATE HOSPITAL	0016930B	21 VIDLER AVENUE	WOY WOY	2256																																												
PUBLIC	VIC	BROADMEADOWS HEALTH SERVICE	0031920L	35 JOHNSTONE STREET	BROADMEADOWS	3047																																												
PRIVATE	QLD	BROADWATER PRIVATE DAY HOSPITAL	0057580B	7-11 SHORT STREET 	SOUTHPORT	4215																																												
PUBLIC	NSW	BROKEN HILL BASE HOSPITAL	0010830K	176 THOMAS STREET	BROKEN HILL	2880																																												
PUBLIC	WA	BROOME HOSPITAL	0070110L	ROBINSON STREET	BROOME	6725																																												
PUBLIC	WA	BRUCE ROCK MEMORIAL HOSPITAL	0070120K	35 DUNSTALL STREET	BRUCE ROCK	6418																																												
PRIVATE	VIC	BRUNSWICK PRIVATE HOSPITAL	0035970T	82 MORELAND ROAD	BRUNSWICK	3056																																												
PRIVATE	QLD	BUDERIM GASTROENTEROLOGY CENTRE 	0057110K	"SUITE 5, 102 WISES ROAD"	MAROOCHYDORE	4558																																												
PRIVATE	QLD	BUDERIM PRIVATE HOSPITAL	0055740X	12 ELSA WILSON DRIVE	BUDERIM	4556																																												
PUBLIC	NSW	BULAHDELAH COMMUNITY HOSPITAL	0010840J	RICHMOND STREET	BULAHDELAH	2423																																												
PUBLIC	NSW	BULLI HOSPITAL	0010850H	29 HOSPITAL ROAD	BULLI	2516																																												
PRIVATE	WA	BUNBURY DAY HOSPITAL	0077130X	140 SPENCER ST	BUNBURY	6230																																												
PUBLIC	WA	BUNBURY HOSPITAL	0071120B	CNR ROBERTSON DRIVE & BUSSELL HIGHWAY	BUNBURY	6230																																												
PUBLIC	QLD	BUNDABERG HOSPITAL	0050210X	271 -275 BOURBONG STREET	BUNDABERG	4670																																												
PRIVATE	QLD	BUNDABERG PRIVATE DAY HOSPITAL	0057530L	51 COMMERCIAL STREET	KENSINGTON	4670																																												
PUBLIC	VIC	BUNDOORA EXTENDED CARE CENTRE	0031760L	1231 PLENTY ROAD	BUNDOORA	3083																																												
PRIVATE 	SA	BURNSIDE DAY SURGERY	0067340B	"SUITE 1, 535-537 GLYNBURN ROAD"	HAZELWOOD PARK	5066																																												
PRIVATE	SA	BURNSIDE HOSPITAL STEPNEY	0065880L	32 PAYNEHAM ROAD	STEPNEY	5069																																												
PRIVATE	SA	BURNSIDE HOSPITAL TOORAK GARDENS	0065050H	120 KENSINGTON ROAD	TOORAK GARDENS	5065																																												
PUBLIC	SA	BURRA HOSPITAL	0060120F	46 COMMERCIAL STREET	BURRA	5417																																												
PUBLIC	WA	BUSSELTON HOSPITAL	0070150F	MILL ROAD	BUSSELTON	6280																																												
PUBLIC	NSW	BYRON CENTRAL HOSPITAL	0012900X	54 EWINGSDALE ROAD	EWINGSDALE	2481																																												
PUBLIC	QLD	CABOOLTURE HOSPITAL	0051830F	20 DUNCAN STREET	CABOOLTURE	4510																																												
PRIVATE	QLD	CABOOLTURE PRIVATE HOSPITAL	0055900X	MCKEAN STREET	CABOOLTURE	4510																																												
PRIVATE	NSW	CABRAMATTA DAY SURGERY	0027650J	2A CHURCH STREET	CABRAMATTA	2166																																												
PRIVATE	VIC	CABRINI BRIGHTON	0036620H	243 NEW STREET	BRIGHTON	3186																																												
PRIVATE	VIC	CABRINI MALVERN	0035790X	"181-183 WATTLETREE ROAD (MAIN CAMPUS) &
2-6 HOPETOUN ROAD, ELSTERNWICK 3185 (ELSTERNWICK CAMPUS)"	MALVERN	3144																																												
PRIVATE	VIC	CABRINI PRAHRAN	0035790X	646 HIGH STREET	PRAHRAN EAST	3181																																												
PUBLIC	QLD	CAIRNS BASE HOSPITAL	0050230T	165 THE ESPLANADE	CAIRNS	4870																																												
PRIVATE	QLD	CAIRNS PRIVATE HOSPITAL	0055220Y	1 UPWARD STREET	CAIRNS	4870																																												
PUBLIC	QLD	CALOUNDRA HOSPITAL	0051500A	WEST TERRACE	CALOUNDRA	4551																																												
PRIVATE	TAS	CALVARY - LENAH VALLEY HOSPITAL	0085010F	49 AUGUSTA ROAD	LENAH VALLEY	7008																																												
PRIVATE	TAS	CALVARY - ST JOHN'S HOSPITAL	0085010F	30 CASCADE ROAD	SOUTH HOBART	7004																																												
PRIVATE	TAS	CALVARY - ST LUKE'S HOSPITAL	0085080L	24 LYTTLETON STREET	LAUNCESTON	7250																																												
PRIVATE	TAS	CALVARY - ST VINCENT'S HOSPITAL	0085080L	5 FREDERICK STREET	LAUNCESTON	7250																																												
PRIVATE	SA	CALVARY ADELAIDE HOSPITAL	0065360T & 0065070B	120 ANGAS STREET	ADELAIDE	5000																																												
PRIVATE	ACT	CALVARY BRUCE PRIVATE HOSPITAL	0015000J	30 MARY POTTER CIRCUIT 	BRUCE	2617																																												
PRIVATE	SA	CALVARY CENTRAL DISTRICTS HOSPITAL	0065810F	25-37 JARVIS ROAD	ELIZABETH VALE	5112																																												
PRIVATE	SA	CALVARY CONNERY CENTRE	0065810F	46 JOHN RICE AVENUE	ELIZABETH VALE	5112																																												
PUBLIC	VIC	CALVARY HEALTH CARE BETHLEHEM	0031480Y	476 KOOYONG ROAD	CAULFIELD	3162																																												
PUBLIC	NSW	CALVARY HEALTH CARE SYDNEY LTD	0012520J	91-101 ROCKY POINT ROAD	KOGARAH	2217																																												
PRIVATE	ACT	CALVARY JOHN JAMES HOSPITAL	0091010Y	173 STRICKLAND CRESCENT 	DEAKIN	2600																																												
PUBLIC	NSW	CALVARY MATER NEWCASTLE	0011870W	20 EDITH STREET	WARATAH	2298																																												
PRIVATE	SA	CALVARY NORTH ADELAIDE HOSPITAL	0065060F	89 STRANGWAYS TERRACE	NORTH ADELAIDE	5006																																												
PRIVATE	NSW	CALVARY RIVERINA HOSPITAL	0016860A	HARDY AVENUE	WAGGA WAGGA	2650																																												
PRIVATE	NSW	CALVARY RIVERINA SURGICENTRE	0988261T	"329, 331, 333 EDWARD STREET"	WAGGA WAGGA	2650																																												
PRIVATE	VIC	CAMBERWELL DAY SURGERY	0656581F	27 DENMARK HILL ROAD	HAWTHORN EAST	3123																																												
PRIVATE	WA	CAMBRIDGE DAY SURGERY	0075650K	"SUITE 12, 178 CAMBRIDGE STREET"	WEMBLEY	6014																																												
PUBLIC	NSW	CAMDEN HOSPITAL	0010870B	65 MENANGLE ROAD	CAMDEN	2570																																												
PRIVATE	NSW	CAMDEN SURGICAL HOSPITAL	0017690W	35 HILDER STREET	ELDERSLIE	2570																																												
PUBLIC	TAS	CAMPBELL TOWN HEALTH AND COMMUNITY SERVICE	0080100Y	70 HIGH STREET	CAMPBELL TOWN	7210																																												
PUBLIC	NSW	CAMPBELLTOWN HOSPITAL	0012750W	THERRY ROAD	CAMPBELLTOWN	2560																																												
PRIVATE	NSW	CAMPBELLTOWN PRIVATE HOSPITAL	0017290K	42 PARKSIDE CRESCENT	CAMPBELLTOWN	2560																																												
PRIVATE	NSW	CAMPSIE DAY SURGERY	0027390L	56 CAMPSIE STREET	CAMPSIE	2194																																												
PRIVATE	ACT	CANBERRA IMAGING GROUP	0097030L	173 STRICKLAND CRESCENT	DEAKIN	2600																																												
PRIVATE	ACT	CANBERRA MICROSURGERY	0097050J	16 WILBOW STREET	PHILLIP	2606																																												
PRIVATE	ACT	CANBERRA PRIVATE HOSPITAL	0095130B	"EQUINOX BUSINESS PARK, BUILDING 2 LEVEL 2/3, 70 KENT STREET"	DEAKIN	2600																																												
PRIVATE	ACT	CANBERRA REGION NEUROLOGY AND PAIN CENTRE	0097070F	"UNITS 2-4 CORINNA CHAMBERS, 36-38 CORINNA STREET"	PHILLIP	2606																																												
PRIVATE	ACT	CANBERRA SURGICENTRE	0988281K	"SUITE 2, SCALA HOUSE TORRENS, 11 TORRENS STREET"	BRADDON	2612																																												
PRIVATE 	NSW	CANCER CARE GRIFFITH 	0017710H	115-119 BINYA STREET	GRIFFITH	2680																																												
PRIVATE	NSW	CANCER CARE MACARTHUR	0017740A	218 QUEEN STREET	CAMPBELLTOWN	2560																																												
PRIVATE	NSW	CANCER CARE WOLLONGONG	0936951X	410 CROWN STREET	WOLLONGONG	2500																																												
PRIVATE	WA	CANNINGTON DIALYSIS CLINIC 	0077240L	13-15 LEILA STREET	CANNINGTON	6107																																												
PRIVATE	QLD	CANOSSA PRIVATE HOSPITAL	0055580X	169 SEVENTEEN MILE ROCKS ROAD	OXLEY	4075																																												
PUBLIC	NSW	CANOWINDRA SOLDIERS MEMORIAL HOSPITAL	0010890Y	BROWNS AVENUE	CANOWINDRA	2804																																												
PUBLIC	NSW	CANTERBURY HOSPITAL	0010090J	575 CANTERBURY ROAD	CAMPSIE	2194																																												
PUBLIC	QLD	CAPRICORN COAST HOSPITAL AND HEALTH SERVICE	0051390L	8 HOSKYN DRIVE	YEPPOON	4703																																												
PUBLIC	VIC	CARITAS CHRISTI HOSPICE	0030210H	104 STUDLEY PARK ROAD	KEW	3101																																												
PUBLIC	WA	CARNARVON HOSPITAL	0070160B	CLEAVER STREET	CARNARVON	6701																																												
PRIVATE	VIC	CASEY DAY HOSPITAL	0044040F	1A/30-32 VERDUN DRIVE	NARRE WARREN	3805																																												
PUBLIC	VIC	CASEY EARLY PARENTING CENTRE	0032230J	114 NEWGRANGE BOULEVARD 	CLYDE NORTH	3978																																												
PUBLIC	VIC	CASEY HOSPITAL	0031960F	62-70 KANGAN DRIVE	BERWICK	3806																																												
PUBLIC	NSW	CASINO AND DISTRICT MEMORIAL HOSPITAL	0010920J	41 HOTHAM STREET	CASINO	2470																																												
PUBLIC	VIC	CASTERTON MEMORIAL HOSPITAL	0030200J	63-69 RUSSELL STREET	CASTERTON	3311																																												
PRIVATE	NSW	CASTLECRAG PRIVATE HOSPITAL	0015200A	150 EDINBURGH ROAD	CASTLECRAG	2068																																												
PUBLIC	VIC	CASTLEMAINE HEALTH	0031780J	142 CORNISH STREET	CASTLEMAINE	3450																																												
PUBLIC	VIC	CAULFIELD HOSPITAL	0031570X	260-294 KOOYONG ROAD	CAULFIELD	3162																																												
PUBLIC	SA	CEDUNA HOSPITAL	0060630F	3 EYRE HIGHWAY	CEDUNA	5690																																												
PRIVATE	NSW	CENTRAL COAST DAY HOSPITAL - ERINA	0017370K	"SUITE 1, 2 ILYA AVENUE"	ERINA	2250																																												
PRIVATE	SA	CENTRAL DAY SURGERY	0067220K	235 GREENHILL ROAD	DULWICH	5065																																												
PUBLIC	VIC	CENTRAL GIPPSLAND HEALTH SERVICE (MAFFRA)	0034620A	48 KENT STREET	MAFFRA	3860																																												
PUBLIC	VIC	CENTRAL GIPPSLAND HEALTH SERVICE (SALE)	0030480H	155 GUTHRIDGE PARADE	SALE	3850																																												
PUBLIC	VIC	CENTRAL HIGHLANDS RURAL HEALTH - CRESWICK	0030300F	1 NAPIER STREET	CRESWICK	3363																																												
PUBLIC	VIC	CENTRAL HIGHLANDS RURAL HEALTH - DAYLESFORD	0030320A	13 HOSPITAL STREET	DAYLESFORD	3460																																												
PUBLIC	VIC	CENTRAL HIGHLANDS RURAL HEALTH - KYNETON	0030600T	7-25 CAROLINE CHISHOLM DRIVE	KYNETON	3444																																												
PRIVATE	NSW	CENTRAL SYDNEY PRIVATE HOSPITAL	0999801A	"LEVEL 5, 401 SUSSEX STREET"	SYDNEY	2000																																												
PRIVATE	NSW	CENTRE FOR DIGESTIVE DISEASES	0656741F	"LEVEL 1, 229 GREAT NORTH ROAD"	FIVE DOCK	2046																																												
PUBLIC	NSW	CESSNOCK DISTRICT HOSPITAL	0010940F	24 VIEW STREET	CESSNOCK	2325																																												
PRIVATE	NSW	CHARLESTOWN PRIVATE HOSPITAL	0017400Y	"LEVEL 3, 250 PACIFIC HWY"	CHARLESTOWN	2290																																												
PUBLIC	QLD	CHARLEVILLE HOSPITAL	0050250K	72 KING STREET	CHARLEVILLE	4470																																												
PUBLIC	QLD	CHARTERS TOWERS HOSPITAL	0050260J	137-139 GILL STREET	CHARTERS TOWERS	4820																																												
PRIVATE	NSW	CHATSWOOD DAY SURGERY	0026880B	"LEVELS 3 & 4, 270 VICTORIA STREET"	CHATSWOOD	2067																																												
PRIVATE	NSW	CHATSWOOD PRIVATE HOSPITAL	0017520L	SUITE 1/38B ALBERT AVENUE	CHATSWOOD	2067																																												
PRIVATE	VIC	CHELSEA HEIGHTS DAY SURGERY AND ENDOSCOPY	0044090W	93 WELLS ROAD	CHELSEA HEIGHTS	3196																																												
PUBLIC	QLD	CHERBOURG HOSPITAL	0050270H	FISHER STREET	CHERBOURG	4605																																												
PRIVATE	QLD	CHERMSIDE DAY HOSPITAL	0057330Y	"SUITE 9, CHERMSIDE MEDICAL COMPLEX, 956 GYMPIE ROAD"	CHERMSIDE	4032																																												
PRIVATE	QLD	CHERMSIDE DIALYSIS CLINIC	0057290L	671 GYMPIE ROAD	CHERMSIDE	4032																																												
PRIVATE	VIC	CHESTERVILLE DAY HOSPITAL	0656851Y	28 CHESTERVILLE ROAD	CHELTENHAM	3192																																												
PUBLIC	QLD	CHILDERS MULTIPURPOSE HEALTH SERVICE	0050280F	44 BROADHURST STREET	CHILDERS	4660																																												
PUBLIC	QLD	CHINCHILLA HOSPITAL	0050300W	59 SLESSAR STREET	CHINCHILLA	4413																																												
PRIVATE	NSW	CHRIS O'BRIEN LIFEHOUSE	0027350Y	119-143 MISSENDEN ROAD	CAMPERDOWN	2050																																												
PRIVATE	NSW	CITY WEST SPECIALIST DAY HOSPITAL	0894301F	30 MONS ROAD	WESTMEAD	2145																																												
PUBLIC	SA	CLARE HOSPITAL	0060130B	47 FARRELL FLAT ROAD	CLARE	5453																																												
PUBLIC	QLD	CLERMONT MULTI-PURPOSE HEALTH SERVICE	0050310T	24 FRANCIS STREET	CLERMONT	4721																																												
PRIVATE	QLD	CLIFTON CO-OP HOSPITAL LTD	0055230X	24 NORMAN STREET	CLIFTON	4361																																												
PUBLIC	QLD	CLONCURRY MULTI-PURPOSE HEALTH SERVICE	0050320L	1 MUSGRAVE STREET	CLONCURRY	4824																																												
PUBLIC	NSW	COBAR DISTRICT HOSPITAL	0010950B	LERIDA ROAD	COBAR	2835																																												
PUBLIC	VIC	COBRAM DISTRICT HEALTH	0030250Y	24-32 BROADWAY STREET	COBRAM	3644																																												
PRIVATE	VIC	COBURG ENDOSCOPY CENTRE	0043640K	15 MUNRO STREET	COBURG	3058																																												
PRIVATE	NSW	COFFS DAY HOSPITAL	0027610W	201 ROSE AVENUE	COFFS HARBOUR	2450																																												
PUBLIC	NSW	COFFS HARBOUR BASE HOSPITAL	0010960A	345 PACIFIC HIGHWAY	COFFS HARBOUR	2450																																												
PUBLIC	VIC	COHUNA DISTRICT HOSPITAL	0030260X	144-158 KING GEORGE STREET	COHUNA	3568																																												
PUBLIC	VIC	COLAC AREA HEALTH	0030270W	2-28 CONNOR STREET	COLAC	3250																																												
PUBLIC	NSW	COLEDALE HOSPITAL	0010970Y	638 LAWRENCE HARGRAVE DRIVE	COLEDALE	2515																																												
PUBLIC	NSW	COLLARENEBRI MULTI PURPOSE SERVICE	0010980X	WALGETT STREET	COLLARENEBRI	2833																																												
PUBLIC	WA	COLLIE DISTRICT HOSPITAL	0070170A	CNR STEERE & DEAKIN STREETS	COLLIE	6225																																												
PUBLIC	QLD	COLLINSVILLE MULTI-PURPOSE HEALTH SERVICE	0050340J	81-91 GARRICK STREET	COLLINSVILLE	4804																																												
PRIVATE	WA	CONCEPT DAY HOSPITAL	0075630T	218 NICHOLSON ROAD	SUBIACO	6008																																												
PUBLIC	NSW	CONCORD REPATRIATION HOSPITAL	0012720A	2 HOSPITAL ROAD	CONCORD	2139																																												
PUBLIC	NSW	CONDOBOLIN DISTRICT HOSPITAL	0010990W	MADLINE STREET	CONDOBOLIN	2877																																												
PUBLIC	NSW	CONDOBOLIN RETIREMENT VILLAGE	0026480X	MADLINE STREET	CONDOBOLIN	2877																																												
PUBLIC	QLD	COOKTOWN HOSPITAL	0050350H	48 HOPE STREET	COOKTOWN	4895																																												
PUBLIC	NSW	COOLAH MULTI PURPOSE SERVICE	0011000X	111-135 MARTIN STREET	COOLAH	2843																																												
PUBLIC	NSW	COOLAMON-GANMAIN MULTI PURPOSE SERVICE HOSPITAL	0011520W	DR BUCHANAN DRIVE	COOLAMON	2701																																												
PRIVATE	NSW	COOLENBERG DAY SURGERY	0027180A	60 LAKE ROAD	PORT MACQUARIE	2444																																												
PUBLIC	NSW	COOMA HOSPITAL & HEALTH SERVICE	0011010W	2 BENT STREET	COOMA	2630																																												
PUBLIC	NSW	COONABARABRAN DISTRICT HOSPITAL	0011020T	101-103 EDWARDS STREET	COONABARABRAN	2357																																												
PUBLIC	NSW	COONAMBLE HEALTH SERVICE	0011050J	150 CASTLEREAGH STREET	COONAMBLE	2829																																												
PUBLIC	NSW	COOTAMUNDRA DISTRICT HOSPITAL	0011070F	120 MACKAY STREET	COOTAMUNDRA	2590																																												
PUBLIC	NSW	COROWA HEALTH SERVICE	0011080B	74 GUY STREET	COROWA	2646																																												
PUBLIC	WA	CORRIGIN HOSPITAL	0070190X	49 KIRKWOOD STREET	CORRIGIN	6375																																												
PRIVATE	VIC	CORYMBIA DAY HOSPITAL	0043940Y	92 DAVID STREET	DANDENONG	3175																																												
PUBLIC	NSW	COWRA DISTRICT HOSPITAL	0011090A	64 LIVERPOOL STREET	COWRA	2794																																												
PRIVATE	WA	CRAIGIE DAY SURGERY	0077220W	"SUITE 2, 9 PERILYA ROAD"	CRAIGIE	6025																																												
PUBLIC	VIC	CRAIGIEBURN HEALTH SERVICE	0031980A	274-304 CRAIGIEBURN ROAD	CRAIGIEBURN	3064																																												
PUBLIC	VIC	CRANBOURNE INTEGRATED CARE CENTRE	0032030W	140-154 SLADEN STREET	CRANBOURNE	3977																																												
PRIVATE	VIC	CREMORNE PRIVATE DAY SURGERY	0044320X	"LEVEL 1, 510 CHURCH STREET"	CREMORNE	3121																																												
PUBLIC	NSW	CROOKWELL DISTRICT HOSPITAL	0011100T	17 KIALLA ROAD	CROOKWELL	2583																																												
PRIVATE	NSW	CROWS NEST DAY HOSPITAL	0027270Y	"LEVEL 1, 22-26 CLARKE STREET"	CROWS NEST	2065																																												
PUBLIC	SA	CRYSTAL BROOK CAMPUS	0060160X	EDMUND TERRACE	CRYSTAL BROOK	5523																																												
PUBLIC	NSW	CULCAIRN MULTI PURPOSE SERVICE HOSPITAL	0011120K	51-55 BALFOUR STREET	CULCAIRN	2660																																												
PUBLIC	NSW	CUMBERLAND HOSPITAL	0012880H	1-11 HAINSWORTH STREET	WESTMEAD	2145																																												
PUBLIC	SA	CUMMINS HOSPITAL	0060170W	19-21 TUMBY BAY ROAD	CUMMINS	5631																																												
PUBLIC	WA	CUNDERDIN HEALTH SERVICE	0070220H	55 LUNDY AVENUE 	CUNDERDIN	6407																																												
PUBLIC	QLD	CUNNAMULLA HOSPITAL	0050390Y	56 WICKS STREET	CUNNAMULLA	4490																																												
PRIVATE	QLD	CURRUMBIN CLINIC	0055760T	37 BILINGA STREET	CURRUMBIN	4223																																												
PUBLIC	QLD	DALBY HOSPITAL HEALTH SERVICE	0050400L	HOSPITAL ROAD	DALBY	4405																																												
PUBLIC	WA	DALWALLINU HOSPITAL	0070230F	MYERS STREET	DALWALLINU	6609																																												
PUBLIC	VIC	DANDENONG HOSPITAL	0030310B	105-135 DAVID STREET	DANDENONG	3175																																												
PRIVATE	NT	DARWIN DAY SURGERY	0098010J	LEVEL 1/7B GSELL STREET	WANGURI	0810																																												
PRIVATE	NT	DARWIN PRIVATE HOSPITAL	0097660F	ROCKLANDS DRIVE	TIWI	0810																																												
PUBLIC	NSW	DAVID BERRY HOSPITAL	0011130J	85 TANNERY ROAD	BERRY	2535																																												
PRIVATE	NSW	DEE WHY ENDOSCOPY UNIT	0666401J	LEVEL 4 SUITE 4402 DEE WHY GRAND 834 PITTWATER ROAD	DEE WHY	2099																																												
PUBLIC	NSW	DELEGATE MULTI PURPOSE SERVICE	0011140H	15 CRAIGIE STREET	DELEGATE	2633																																												
PRIVATE	NSW	DELMAR PRIVATE HOSPITAL	0015380B	58 QUIRK STREET	DEE WHY	2099																																												
PRIVATE	VIC	DELMONT PRIVATE HOSPITAL	0036210B	298 WARRIGAL ROAD	GLEN IRIS	3146																																												
PUBLIC	TAS	DELORAINE DISTRICT HOSPITAL AND COMMUNITY HEALTH SERVICES	0077630Y	EAST BARRACK STREET	DELORAINE	7304																																												
PUBLIC	NSW	DENILIQUIN HOSPITAL	0011150F	411 CHARLOTTE STREET	DENILIQUIN	2710																																												
PUBLIC	NSW	DENMAN MULTI PURPOSE SERVICE	0010810T	51-53 OGILVIE STREET	DENMAN	2328																																												
PUBLIC	WA	DENMARK HOSPITAL	0070240B	STRICKLAND STREET	DENMARK	6333																																												
PUBLIC	VIC	DENTAL HEALTH SERVICES VICTORIA	0031530F	720 SWANSTON STREET	CARLTON	3053																																												
PUBLIC	WA	DERBY HOSPITAL	0070250A	CLARENDON STREET	DERBY	6728																																												
PRIVATE	TAS	DEVONPORT EYE HOSPITAL	0087040F	62 OLDAKER STREET	DEVONPORT	7310																																												
PRIVATE	SA	DEXTRA SURGICAL	0067100X	83 KENSINGTON ROAD	NORWOOD	5067																																												
PRIVATE	NSW	DIAGNOSTIC ENDOSCOPY CENTRE	0657131A	601/438 VICTORIA STREET	DARLINGHURST	2010																																												
PRIVATE	VIC	DIAMOND VALLEY RENAL CARE CENTRE	0035140J	15 GRIMSHAW STREET	GREENSBOROUGH	3088																																												
PUBLIC	QLD	DIRRANBANDI HOSPITAL	0050410K	CNR JANE & COWILDI STREETS	DIRRANBANDI	4486																																												
PRIVATE	VIC	DONCASTER PRIVATE HOSPITAL	0044310Y	720 DONCASTER ROAD	DONCASTER	3108																																												
PUBLIC	WA	DONGARA MULTI-PURPOSE HEALTH CENTRE	0071570Y	48 BLENHEIM ROAD	DONGARA	6525																																												
PUBLIC	WA	DONNYBROOK HOSPITAL	0070260Y	BENTLEY STREET	DONNYBROOK	6239																																												
PRIVATE	VIC	DONVALE REHABILITATION HOSPITAL	0036190L	1119-1121 DONCASTER ROAD	DONVALE	3111																																												
PUBLIC	QLD	DOOMADGEE HOSPITAL	0050000H	SHARPE STREET	DOOMADGEE	4830																																												
PUBLIC	NSW	DORRIGO MULTI PURPOSE SERVICE	0011160B	14 BEECH STREET	DORRIGO	2453																																												
PRIVATE	VIC	DORSET REHABILITATION CENTRE	0036220A	146 DERBY STREET	PASCOE VALE	3044																																												
PRIVATE	NSW	DOUBLE BAY DAY HOSPITAL	0027480K	"LEVEL 2, 451 NEW SOUTH HEAD RD"	DOUBLE BAY	2028																																												
PRIVATE	VIC	DR SCOPE	0044110H	493 BALLARAT ROAD	SUNSHINE	3020																																												
PUBLIC	NSW	DUBBO BASE HOSPITAL	0011170A	MYALL STREET	DUBBO	2830																																												
PRIVATE	NSW	DUBBO PRIVATE HOSPITAL	0017060B	RIVER STREET	DUBBO	2830																																												
PRIVATE	NSW	DUDLEY PRIVATE HOSPITAL	0015400T	261 MARCH STREET	ORANGE	2800																																												
PUBLIC	WA	DUMBLEYUNG MEMORIAL HOSPITAL	0070270X	186 MCINTYRE STREET	DUMBLEYUNG	6350																																												
PUBLIC	NSW	DUNEDOO MULTI PURPOSE SERVICE	0011180Y	70 DIGILAH STREET	DUNEDOO	2844																																												
PUBLIC	NSW	DUNGOG COMMUNITY HOSPITAL	0011190X	58 HOSPITAL ROAD	DUNGOG	2420																																												
PUBLIC	VIC	DUNMUNKLE HEALTH SERVICES	0031810X	89 CROMIE STREET	RUPANYUP	3388																																												
PUBLIC	QLD	DYSART HOSPITAL	0051660H	QUEEN ELIZABETH DRIVE	DYSART	4745																																												
PRIVATE	QLD	EAST BRISBANE DAY HOSPITAL	0057520T	"GROUND FLOOR, 45 WELLINGTON ROAD"	EAST BRISBANE	4169																																												
PUBLIC	VIC	EAST GRAMPIANS HEALTH SERVICE - ARARAT	0031890B	LOT 5B GIRDLESTONE STREET	ARARAT	3377																																												
PUBLIC	VIC	EAST GRAMPIANS HEALTH SERVICE - WILLAURA CAMPUS	0031890B	DELACOMBE WAY	WILLAURA	3379																																												
PRIVATE	VIC	EAST MELBOURNE SPECIALIST DAY HOSPITAL	0044010K	"GROUND FLOOR, 23 CLARENDON ST"	EAST MELBOURNE	3002																																												
PRIVATE	VIC	EAST SIDE RECOVERY	0037070L	272B DORSET ROAD	BORONIA	3155																																												
PRIVATE	NSW	EAST SYDNEY PRIVATE HOSPITAL	0017500W	75-85 CROWN STREET	EAST SYDNEY	2010																																												
PUBLIC	VIC	EAST WIMMERA HEALTH SERVICE - BIRCHIP	0031950H	26 DUNCAN STREET	BIRCHIP	3483																																												
PUBLIC	VIC	EAST WIMMERA HEALTH SERVICE - CHARLTON	0031940J	4 MENZIES STREET	CHARLTON	3525																																												
PUBLIC	VIC	EAST WIMMERA HEALTH SERVICE - DONALD	0030350W	7 AITKEN AVENUE	DONALD	3480																																												
PUBLIC	VIC	EAST WIMMERA HEALTH SERVICE - ST ARNAUD	0034770J	52 NORTH WESTERN ROAD	ST ARNAUD	3478																																												
PUBLIC	VIC	EAST WIMMERA HEALTH SERVICE - WYCHEPROOF	0031420K	19 GRANDVIEW STREET	WYCHEPROOF	3527																																												
PRIVATE	QLD	EASTERN ENDOSCOPY CENTRE	0057060F	120 BIRKDALE ROAD	BIRKDALE	4159																																												
PUBLIC	SA	EASTERN EYRE HEALTH AND AGED CARE - CLEVE CAMPUS	0060140A	NORTH TERRACE	CLEVE	5640																																												
PUBLIC	SA	EASTERN EYRE HEALTH AND AGED CARE - COWELL CAMPUS	0060150Y	17 SOUTH TERRACE	COWELL	5602																																												
PUBLIC	SA	EASTERN EYRE HEALTH AND AGED CARE - KIMBA CAMPUS	0060260T	15 MARTIN TERRACE	KIMBA	5641																																												
PUBLIC	VIC	EASTERN HEALTH BLACKBURN PUBLIC SURGICAL CENTRE 	0032200T	188 - 198 CANTERBURY ROAD	BLACKBURN	3130																																												
PRIVATE	NSW	EASTERN HEART CLINIC	0657471B	"LEVEL 3, CAMPUS CENTRE BUILDING, PRINCE OF WALES CAMPUS, BARKER STREET"	RANDWICK	2031																																												
PRIVATE	NSW	EASTERN SUBURBS PRIVATE HOSPITAL	0015860J	8 CHAPEL STREET	RANDWICK	2031																																												
PRIVATE	VIC	EASTSIDE ENDOSCOPY CENTRE	0043610W	33 WANTIRNA ROAD	RINGWOOD	3134																																												
PUBLIC	VIC	ECHUCA REGIONAL HEALTH	0030380K	9-27 FRANCIS STREET	ECHUCA	3564																																												
PRIVATE	QLD	EDEN PRIVATE HOSPITAL	0056010A	50 MAPLE STREET	COOROY	4563																																												
PUBLIC	VIC	EDENHOPE AND DISTRICT MEMORIAL HOSPITAL	0030390J	128-134 ELIZABETH STREET	EDENHOPE	3318																																												
PUBLIC	QLD	EIDSVOLD MULTIPURPOSE HEALTH SERVICE	0050420J	CRACOW ROAD	EIDSVOLD	4627																																												
PUBLIC	SA	ELLISTON HOSPITAL	0060180T	4-6 MEMORIAL DRIVE	ELLISTON	5670																																												
PUBLIC	QLD	EMERALD HOSPITAL	0050430H	69 HOSPITAL ROAD	EMERALD	4720																																												
PUBLIC	NSW	EMMAVILLE - VEGETABLE CREEK RESIDENTIAL AGED CARE	0012240W	13-33 GLEN INNES ROAD	EMMAVILLE	2371																																												
PRIVATE	NSW	EPPING SURGERY CENTRE	0027190Y	34 BORONIA AVENUE	EPPING	2121																																												
PRIVATE	VIC	EPWORTH CAMBERWELL	0036310Y	888 TOORAK ROAD	CAMBERWELL	3124																																												
PRIVATE	VIC	EPWORTH EASTERN	0036850T	"1 ARNOLD STREET, BOX HILL (MAIN CAMPUS)  & 116-118 THAMES  STREET, BOX HILL NORTH (EKERA CAMPUS)"	BOX HILL	3128																																												
PRIVATE	VIC	EPWORTH FREEMASONS	0035290W	109 ALBERT STREET & 320 VICTORIA PARADE	EAST MELBOURNE	3002																																												
PRIVATE	VIC	EPWORTH GEELONG	0036950K	1 EPWORTH PLACE	WAURN PONDS	3216																																												
PRIVATE	VIC	EPWORTH HAWTHORN	0036900Y	46-52 BURWOOD ROAD	HAWTHORN	3122																																												
PRIVATE	VIC	EPWORTH REHABILITATION BRIGHTON	0036270L	85-91 WILSON STREET	BRIGHTON	3186																																												
PRIVATE	VIC	EPWORTH RICHMOND	0035260A	89 BRIDGE ROAD	RICHMOND	3121																																												
PUBLIC	QLD	ESK HOSPITAL	0050440F	30 HIGHLAND STREET	ESK	4312																																												
PUBLIC	WA	ESPERANCE HOSPITAL	0070280W	HICKS STREET	ESPERANCE	6450																																												
PUBLIC	TAS	ESPERANCE MULTI PURPOSE CENTRE	0085160L	15 CHAPMAN AVENUE	DOVER	7117																																												
PRIVATE	VIC	ESSENDON DAY PROCEDURE CENTRE	0043700T	"LEVEL 1, 665 MOUNT ALEXANDER ROAD"	MOONEE PONDS	3039																																												
PRIVATE	VIC	ESSENDON PRIVATE CLINIC	0036140A	35 ROSEHILL ROAD	ESSENDON WEST	3040																																												
PRIVATE	WA	ESUS CENTRE	0075770B	588 HAY STREET 	SUBIACO	6008																																												
PUBLIC	SA	EUDUNDA HOSPITAL	0060190L	40 WARD STREET	EUDUNDA	5374																																												
PUBLIC	NSW	EUGOWRA MEMORIAL MULTI PURPOSE SERVICE	0011200K	COOPER STREET	EUGOWRA	2806																																												
PRIVATE	VIC	EUROA HEALTH	0035270Y	36 KENNEDY STREET	EUROA	3666																																												
PRIVATE	NSW	EXCEL ENDOSCOPY CENTRE	0658051T	490 CANTERBURY ROAD	CAMPSIE	2194																																												
PUBLIC	WA	EXMOUTH HOSPITAL	0071100H	LYONS STREET	EXMOUTH	6707																																												
PRIVATE	QLD	EYE-TECH DAY SURGERIES	0899091B	"LEVELS 3 & 5, ST ANDREW'S PLACE, 33 NORTH STREET"	SPRING HILL	4000																																												
PRIVATE	QLD	EYE-TECH DAY SURGERIES SOUTHSIDE	0057260X	22-26 SANDERS STREET	UPPER MOUNT GRAVATT	4122																																												
PUBLIC	NSW	FAIRFIELD HOSPITAL	0010110Y	340 PRAIRIE VALE ROAD	PRAIRIEWOOD	2176																																												
PRIVATE	NSW	FAMILY PLANNING NSW	0027660H	8 HOLKER STREET	NEWINGTON	2127																																												
PRIVATE	QLD	FAR NORTH DAY HOSPITAL	0056090H	"GROUND LEVELS 2,3 & 4, 58-60 McLEOD STREET"	CAIRNS	4870																																												
PUBLIC	SA	FAR NORTH HEALTH SERVICES	0060740Y	LOT 89 HOSPITAL ROAD	COOBER PEDY	5723																																												
PRIVATE	VIC	FERTILITY CONTROL CLINIC	0043510Y	116-118 WELLINGTON PARADE	EAST MELBOURNE	3002																																												
PRIVATE	NSW	FIGTREE PRIVATE HOSPITAL	0016950Y	1 SUTTOR PLACE	FIGTREE	2525																																												
PUBLIC	NSW	FINLEY HOSPITAL & COMMUNITY HEALTH CARE	0011210J	20-22 DAWE STREET	FINLEY	2713																																												
PUBLIC	WA	FIONA STANLEY HOSPITAL	0071610H	"102-118 MURDOCH DRIVE (1 HONOUR WAY, COCKBURN CENTRAL WA 6164)"	MURDOCH	6150																																												
PRIVATE	QLD	FITZROY COMMUNITY HOSPICE	0056300L	38 AGNES STREET	THE RANGE	4700																																												
PUBLIC	WA	FITZROY CROSSING HOSPITAL	0070290T	FALLON ROAD	FITZROY CROSSING	6765																																												
PUBLIC	TAS	FLINDERS ISLAND MULTI PURPOSE CENTRE	0080270B	4 JAMES STREET	WHITEMARK	7255																																												
PUBLIC	SA	FLINDERS MEDICAL CENTRE	0060760W	"FLINDERS DRIVE & 216 DAWS ROAD, DAW PARK 5041 & GLENSIDE CAMPUS EUCALYPTUS LANE "	BEDFORD PARK	5042																																												
PRIVATE	SA	FLINDERS PRIVATE HOSPITAL	0065930X	1 FLINDERS DRIVE	BEDFORD PARK	5042																																												
PRIVATE	QLD	FMC DIALYSIS CLINIC NORTH LAKES	0057500X	"T301-T305, SPECIALIST MEDICAL CENTRE, 6 NORTH LAKES DRIVE"	NORTH LAKES	4509																																												
PRIVATE	NSW	FOCUS EYE CENTRE	0657031F	2 MIDDLE STREET	KINGSFORD	2032																																												
PRIVATE	VIC	FOOTSCRAY DAY SURGERY	0656351X	89 PAISLEY STREET	FOOTSCRAY	3011																																												
PUBLIC	NSW	FORBES DISTRICT HOSPITAL	0011220H	12-14 ELGIN STREET	FORBES	2871																																												
PRIVATE	VIC	FOREST HILL DIALYSIS CLINIC	0043630L	"SHOPS 26 & 27 FOREST HILL CHASE, 69 MAHONEYS ROAD"	FOREST HILL	3131																																												
PRIVATE	NSW	FOREST ROAD DAY SURGERY	0657381F	99A FOREST ROAD	HURSTVILLE	2220																																												
PRIVATE	NSW	FORSTER PRIVATE HOSPITAL	0015250L	5A SOUTH STREET	FORSTER	2428																																												
PRIVATE	VIC	FRANCES PERRY HOUSE	0036740Y	"LEVELS 6 AND 7, CORNER GRATTAN STREET AND FLEMINGTON ROAD"	PARKVILLE	3052																																												
PRIVATE	NSW	FRANCIS STREET OPHTHALMIC DAY PROCEDURE CENTRE	0834411H	112 FRANCIS STREET	RICHMOND	2753																																												
PUBLIC	VIC	FRANKSTON HOSPITAL	0030460K	2 HASTINGS ROAD	FRANKSTON	3199																																												
PUBLIC	VIC	FRANKSTON PUBLIC SURGICAL CENTRE	0032190A	5 SUSONO WAY	FRANKSTON	3199																																												
PRIVATE	QLD	FRASER COAST HOSPICE	0056250H	222 URRAWEEN ROAD	URRAWEEN	4655																																												
PUBLIC	WA	FREMANTLE HOSPITAL AND HEALTH SERVICE	0070010W	ALMA STREET	FREMANTLE	6160																																												
PRIVATE	NSW	FRESENIUS LIVERPOOL PRIVATE DIALYSIS CLINIC	0027490J	"LEVEL 2, 26 CASTLEREAGH STREET"	LIVERPOOL	2170																																												
PRIVATE	QLD	FRIENDLY SOCIETY PRIVATE HOSPITAL	0055190K	19-23 BINGERA STREET	BUNDABERG	4670																																												
PRIVATE	NSW	GATEWAY DAY HOSPITAL	0027590F	"LEVEL 18, GATEWAY TOWER, 1 MACQUARIE PLACE"	SYDNEY	2000																																												
PUBLIC	QLD	GATTON HOSPITAL	0051530W	97-103 WILLIAM STREET	GATTON	4343																																												
PUBLIC	SA	GAWLER HEALTH SERVICE	0060200F	21 HUTCHINSON ROAD	GAWLER EAST	5118																																												
PUBLIC	QLD	GAYNDAH HOSPITAL	0050460A	69 WARTON STREET	GAYNDAH	4625																																												
PRIVATE	VIC	GEELONG DAY SURGERY	0044330W	21-29 PRINCESS HIGHWAY 	NORLANE	3214																																												
PRIVATE	ACT	GENEA CANBERRA	0095110H	SUITE 17B AND UNIT 28/2 KING STREET	DEAKIN	2600																																												
PRIVATE	NSW	GENEA DAY SURGERY	0747341X	"LEVEL 4, 321 KENT STREET"	SYDNEY	2000																																												
PRIVATE	NSW	GENEA LIVERPOOL	0026990X	173-175 BIGGE STREET	LIVERPOOL	2170																																												
PRIVATE	NSW	GENEA NORTHWEST	0017340W	"LEVEL 1, SUITE 101, 10 NORBRICK DRIVE"	BELLA VISTA	2153																																												
PRIVATE	WA	GENESIS CARE	0075680F	57 SHENTON AVENUE	JOONDALUP	6027																																												
PRIVATE	NSW	GENESIS CARE RADIATION ONCOLOGY CENTRE ALBURY WODONGA	0027500A	CORNER BORELLA RD AND EAST ST	ALBURY	2640																																												
PRIVATE	VIC	GENESIS CARE RADIATION ONCOLOGY CENTRE AT CABRINI	0044150Y	183 WATTLETREE ROAD	MALVERN	3144																																												
PRIVATE	VIC	GENESIS CARE RADIATION ONCOLOGY CENTRE ST VINCENT'S HOSPITAL MELBOURNE	0044120F	41 VICTORIA PARADE	FITZROY	3065																																												
PRIVATE 	NSW	GENESISCARE CAMPBELLTOWN	0017730B	38 CAMDEN ROAD 	CAMPBELLTOWN 	2560																																												
PRIVATE	NSW	GENESISCARE FRENCHS FOREST	0017350T	49 FRENCHS FOREST EAST	FRENCHS FOREST	2086																																												
PRIVATE	NSW	GENESISCARE HURSTVILLE	0027570J	"LEVEL B2 AND 6, 31 DORA STREET"	HURSTVILLE	2220																																												
PRIVATE	NSW	GENESISCARE KINGSWOOD	0017610K 	29-33 DERBY STREET AND 38 SOMERSET STREET 	KINGSWOOD	2747																																												
PRIVATE	NSW	GENESISCARE MAITLAND	0027630L	30 METFORD ROAD	EAST MAITLAND	2323																																												
PRIVATE	WA	GENESISCARE MANDURAH	0075740J	UNIT 3/35 MINILYA PARKWAY 	MANDURAH	6210																																												
PRIVATE	NSW	GENESISCARE NORTH SHORE	0027320F	7 WESTBOURNE STREET	ST LEONARDS	2065																																												
PRIVATE	VIC	GENESISCARE RADIATION ONCOLOGY CENTRE SHEPPARTON	0037040X	124 CORIO STREET	SHEPPARTON	3630																																												
PUBLIC	TAS	GEORGE TOWN HOSPITAL AND COMMUNITY CENTRE	0080450Y	47 ANNE STREET	GEORGE TOWN	7253																																												
PUBLIC	WA	GERALDTON HOSPITAL	0071130A	51-85 SHENTON STREET	GERALDTON	6530																																												
PRIVATE	WA	GI CLINIC PERTH	0899111T	UNIT 9/16 HULME COURT	MYAREE	6154																																												
PRIVATE	VIC	GIH ACCESS ENDOSCOPY	0037060T	"LEVEL 1, 445 PRINCES HIGHWAY"	OFFICER	3809																																												
PUBLIC	NSW	GILGANDRA MULTI PURPOSE SERVICE	0011230F	6 CHELMSFORD AVENUE	GILGANDRA	2827																																												
PUBLIC	QLD	GIN GIN HOSPITAL	0050480X	5 KING STREET	GIN GIN	4671																																												
PUBLIC	VIC	GIPPSLAND SOUTHERN HEALTH SERVICE - KORUMBURRA CAMPUS	0030580B	69-75 BRIDGE STREET	KORUMBURRA	3950																																												
PUBLIC	VIC	GIPPSLAND SOUTHERN HEALTH SERVICE - LEONGATHA CAMPUS	0031410L	66 KOONAWARRA ROAD	LEONGATHA	3953																																												
PUBLIC	QLD	GLADSTONE HOSPITAL	0050490W	PARK STREET	GLADSTONE	4680																																												
PRIVATE	VIC	GLEN EIRA DAY SURGERY	0043710L	544 HAWTHORN ROAD	CAULFIELD SOUTH	3162																																												
PUBLIC	NSW	GLEN INNES DISTRICT HOSPITAL	0011240B	94 TAYLOR STREET	GLEN INNES	2370																																												
PRIVATE	VIC	GLEN IRIS PRIVATE	0043970T	314 WARRIGAL ROAD	GLEN IRIS	3146																																												
PRIVATE	SA	GLEN OSMOND SURGICENTRE	0879791H	45 GLEN OSMOND ROAD	EASTWOOD	5063																																												
PRIVATE	SA	GLENELG COMMUNITY HOSPITAL INC	0065110K	5 FARRELL STREET	GLENELG SOUTH	5045																																												
PRIVATE	SA	GLENELG DAY SURGERY	0657221Y	24 GORDON STREET	GLENELG	5045																																												
PRIVATE	WA	GLENGARRY PRIVATE HOSPITAL	0075410F	53 ARNISDALE ROAD	DUNCRAIG	6023																																												
PUBLIC	SA	GLENSIDE CAMPUS	0060870K	2 KARRAYARTA DRIVE	GLENSIDE	5065																																												
PUBLIC	NSW	GLOUCESTER SOLDIERS MEMORIAL HOSPITAL	0011250A	166-182 CHURCH STREET	GLOUCESTER	2422																																												
PUBLIC	WA	GNOWANGERUP HOSPITAL	0070330A	YOUGENUP ROAD	GNOWANGERUP	6335																																												
PRIVATE	QLD	GOLD COAST EYE HOSPITAL	0057360T	"TENANCY 4110, LEVEL 3, ROBINA TOWN CENTRE DRIVE"	ROBINA TOWN CENTRE	4230																																												
PRIVATE	QLD	GOLD COAST PRIVATE HOSPITAL	0055730Y	14 HILL STREET	SOUTHPORT	4215																																												
PUBLIC	QLD	GOLD COAST UNIVERSITY HOSPITAL	0051930A	1 HOSPITAL BOULEVARD	SOUTHPORT	4215																																												
PUBLIC	VIC	GOLF LINKS ROAD REHABILITATION CENTRE	0032080H	125 GOLF LINKS ROAD	FRANKSTON	3199																																												
PUBLIC	NSW	GOODOOGA HOSPITAL	0011260Y	49 HAMMOND STREET	GOODOOGA	2831																																												
PUBLIC	WA	GOOMALLING HOSPITAL	0070320B	FORREST STREET	GOOMALLING	6460																																												
PRIVATE	VIC	GOONAWARRA DAY HOSPITAL	0036910X	1-11 DORNOCH DRIVE	SUNBURY	3429																																												
PUBLIC	QLD	GOONDIWINDI HOSPITAL	0050500J	BOWEN STREET	GOONDIWINDI	4390																																												
PRIVATE	NSW	GORDON PRIVATE HOSPITAL	0017580A	746-748 PACIFIC HIGHWAY	GORDON	2072																																												
PUBLIC	QLD	GORDONVALE HOSPITAL	0050510H	1-11 HIGHLEIGH ROAD	GORDONVALE	4865																																												
PUBLIC	NSW	GOSFORD HOSPITAL	0011270X	76 HOLDEN STREET	GOSFORD	2250																																												
PRIVATE	NSW	GOSFORD PRIVATE HOSPITAL	0016990L	BURRABIL AVENUE	GOSFORD	2250																																												
PUBLIC	NSW	GOULBURN BASE HOSPITAL	0011280W	130 GOLDSMITH STREET	GOULBURN	2580																																												
PUBLIC	VIC	GOULBURN VALLEY HEALTH - CENTRE FOR OLDER PERSONS	0032090F	CNR KNIGHT & ORR STREETS	SHEPPARTON	3630																																												
PUBLIC	VIC	GOULBURN VALLEY HEALTH - SHEPPARTON CAMPUS	0030710J	2 GRAHAM STREET	SHEPPARTON	3630																																												
PUBLIC	VIC	GOULBURN VALLEY HEALTH - TATURA CAMPUS	0030710J	64-68 PARK STREET	TATURA	3616																																												
PUBLIC	VIC	GOULBURN VALLEY HEALTH - WARANGA CAMPUS	0031260K	14 COYLE STREET	RUSHWORTH	3612																																												
PUBLIC	NT	GOVE DISTRICT HOSPITAL	0095050B	80 MATTHEW FLINDERS WAY	NHULUNBUY	0880																																												
PUBLIC	NSW	GOWER WILSON MULTI PURPOSE SERVICE	0011290T	LAGOON RD	LORD HOWE ISLAND	2398																																												
PUBLIC	NSW	GRAFTON BASE HOSPITAL	0011300H	174 ARTHUR STREET	GRAFTON	2460																																												
PUBLIC	WA	GRAYLANDS SELBY-LEMNOS & SPECIAL CARE HOSPITAL	0071590W	BROCKWAY ROAD & 6 LEMNOS STREET	MOUNT CLAREMONT	6010																																												
PUBLIC	VIC	GREAT OCEAN ROAD HEALTH - LORNE COMMUNITY HOSPITAL	0030620K	1 ALBERT STREET	LORNE	3232																																												
PUBLIC	VIC	GREAT OCEAN ROAD HEALTH - OTWAY HEALTH	0030040J	37-43 MCLACHLAN STREET	APOLLO BAY	3233																																												
PRIVATE	SA	GREENHILL DENTAL DAY SURGERY	0067210L	62 GREENHILL ROAD	WAYVILLE	5034																																												
PRIVATE	VIC	GREENSBOROUGH DAY SURGERY 	0044180T	9-13 FLINTOFF STREET	GREENSBOROUGH	3088																																												
PRIVATE	QLD	GREENSLOPES PRIVATE HOSPITAL	0055860K	NEWDEGATE STREET	GREENSLOPES	4120																																												
PUBLIC	NSW	GREENWICH HOSPITAL	0012510K	97-115 RIVER ROAD	GREENWICH	2065																																												
PRIVATE	NSW	GREGORY HILLS RENAL CARE CENTRE	0017630H	"UNIT 3 & 4, 31 LASSO ROAD "	GREGORY HILL	2557																																												
PUBLIC	NSW	GRENFELL MULTI PURPOSE SERVICE	0011320B	80-96 COWRA ROAD	GRENFELL	2810																																												
PUBLIC	NSW	GRIFFITH BASE HOSPITAL	0011340Y	1 NOOREBAR AVENUE	GRIFFITH	2680																																												
PRIVATE	SA	GRIFFITH REHABILITATION HOSPITAL	0065120J	13 DUNROBIN ROAD	HOVE	5048																																												
PUBLIC	NSW	GULARGAMBONE MULTI PURPOSE SERVICE	0011060H	47 BOURBAH STREET	GULARGAMBONE	2828																																												
PUBLIC	NSW	GULGONG HEALTH SERVICE	0011350X	112-114 MAYNE STREET	GULGONG	2852																																												
PUBLIC	SA	GUMERACHA HOSPITAL	0060210B	2 ALBERT STREET	GUMERACHA	5233																																												
PUBLIC	NSW	GUNDAGAI DISTRICT HOSPITAL	0011360W	56 TOR STREET	GUNDAGAI	2722																																												
PUBLIC	NSW	GUNNEDAH DISTRICT HOSPITAL	0011370T	2 MARQUIS STREET	GUNNEDAH	2380																																												
PUBLIC	NSW	GUYRA MULTI PURPOSE SERVICE	0011380L	44-48 SOLE STREET	GUYRA	2365																																												
PUBLIC	QLD	GYMPIE HOSPITAL	0050520F	12 HENRY STREET	GYMPIE	4570																																												
PRIVATE	VIC	HABITAT THERAPEUTICS	0037030Y	117 HELMS STREET	NEWCOMB	3219																																												
PRIVATE	QLD	HADER CLINIC QUEENSLAND PRIVATE 	0056230K	30 FRASER ROAD 	GYMPIE 	4570																																												
PUBLIC	WA	HALLS CREEK HOSPITAL	0070340Y	70 ROBERTA AVENUE	HALLS CREEK	6770																																												
PRIVATE	NSW	HAMILTON DAY SURGERY CENTRE	0027010X	76 JENNER PARADE	HAMILTON SOUTH	2303																																												
PRIVATE	SA	HAMILTON HOUSE DAY SURGERY	0657401W	470 GOODWOOD ROAD	CUMBERLAND PARK	5041																																												
PRIVATE	VIC	HAMPTON DAY HOSPITAL 	0044230Y	338 SOUTH ROAD	HAMPTON EAST	3188																																												
PRIVATE	VIC	HAMPTON PARK WOMEN'S HEALTH CLINIC	0043900H	2-4 WARANA DRIVE	HAMPTON PARK	3976																																												
PRIVATE	SA	HARLEY DAY SURGERY	0067320H	63 PALMER PLACE	NORTH ADELAIDE	5006																																												
PUBLIC	WA	HARVEY DISTRICT HOSPITAL	0070350X	45 HAYWARD STREET	HARVEY	6220																																												
PUBLIC	SA	HAWKER MEMORIAL HOSPITAL	0060220A	CRADOCK ROAD	HAWKER	5434																																												
PUBLIC	NSW	HAWKESBURY DISTRICT HOSPITAL	0012930L	2 DAY STREET	WINDSOR	2756																																												
PUBLIC	NSW	HAY DISTRICT HOSPITAL	0011410A	351 MURRAY STREET	HAY	2711																																												
PUBLIC	VIC	HEALESVILLE & DISTRICT HOSPITAL	0030500X	377 MAROONDAH HIGHWAY	HEALESVILLE	3777																																												
PRIVATE	WA	HEALTHE CARE MARIAN CENTRE	0075610X	187 CAMBRIDGE STREET	WEMBLEY	6014																																												
PRIVATE	NSW	HEALTHWOODS ENDOSCOPY CENTRE	0027110T	53 COWPER STREET	GRANVILLE	2142																																												
PUBLIC	VIC	HEATHCOTE HEALTH	0030510W	39 HOSPITAL STREET	HEATHCOTE	3523																																												
PUBLIC	WA	HEDLAND HEALTH CAMPUS	0071600J	2-24 COLEBATCH WAY	SOUTH HEDLAND	6722																																												
PRIVATE	VIC	HEIDELBERG ENDOSCOPY AND DAY SURGERY CENTRE	0899291W	177-179 NORTHERN ROAD	HEIDELBERG HEIGHTS	3081																																												
PUBLIC	NSW	HENTY MULTI PURPOSE SERVICE	0011430X	7 KEIGHRAN STREET	HENTY	2658																																												
PUBLIC	QLD	HERBERTON HOSPITAL	0050540A	23 GRACE STREET 	HERBERTON	4887																																												
PRIVATE	QLD	HERSTON PRIVATE HOSPITAL	 0056260F	7 WREN STREET	BOWEN HILLS	4006																																												
PUBLIC	QLD	HERVEY BAY HOSPITAL	0051440X	CNR NISSEN STREET AND  URAWEEN ROADS	PIALBA	4655																																												
PRIVATE	QLD	HERVEY BAY SURGICAL HOSPITAL	0056060L	CNR O'ROURKE STREET & BOAT HARBOUR DRIVE	PIALBA	4655																																												
PUBLIC	VIC	HESSE RURAL HEALTH SERVICE	0030100L	8 GOSNEY STREET	WINCHELSEA	3241																																												
PRIVATE	VIC	HEYFIELD HOSPITAL INC	0035330B	14 LICOLA ROAD	HEYFIELD	3858																																												
PUBLIC	VIC	HEYWOOD RURAL HEALTH	0030520T	21 BARCLAY STREET	HEYWOOD	3304																																												
PRIVATE	QLD	HILLCREST - ROCKHAMPTON PRIVATE HOSPITAL	0055750W	4 TALFORD STREET	ROCKHAMPTON	4700																																												
PUBLIC	NSW	HILLSTON DISTRICT HOSPITAL	0011440W	48C BURNS STREET	HILLSTON	2675																																												
PRIVATE	TAS	HOBART DAY SURGERY	0999271K	10 WARNEFORD STREET	HOBART	7000																																												
PRIVATE	TAS	HOBART EYE SURGEONS	0085260J	182 ARGYLE STREET	HOBART	7000																																												
PRIVATE	TAS	HOBART PRIVATE HOSPITAL	0085110A	CNR COLLINS & ARGYLE STREET	HOBART	7001																																												
PRIVATE	TAS	HOBART SPECIALIST DAY HOSPITAL	0087070Y	"1ST FLOOR, 2 MELVILLE STREET"	HOBART	7000																																												
PRIVATE	VIC	HOBSON BAY ENDOSCOPY	0043380T	CNR QUEEN & SARGOOD STREETS	ALTONA	3018																																												
PRIVATE	VIC	HOBSON HEALTHCARE SYDENHAM	0044030H	566 MELTON HIGHWAY	SYDENHAM	3037																																												
PRIVATE	VIC	HOBSON HEALTHCARE WERRIBEE	0043870X	179 PRINCES HIGHWAY	WERRIBEE	3030																																												
PUBLIC	NSW	HOLBROOK DISTRICT HOSPITAL	0011450T	22 BOWLER STREET	HOLBROOK	2644																																												
PRIVATE	WA	HOLLYWOOD PRIVATE HOSPITAL	0075490K	MONASH AVENUE	NEDLANDS	6009																																												
PRIVATE	VIC	HOLMESGLEN PRIVATE HOSPITAL	0036350L	490 SOUTH ROAD	MOORABBIN	3189																																												
PRIVATE	NSW	HOLROYD PRIVATE HOSPITAL	0015500K	123-129 CHETWYND ROAD	GUILDFORD	2161																																												
PUBLIC	QLD	HOME HILL HOSPITAL	0050550Y	EIGHTH AVENUE	HOME HILL	4806																																												
PRIVATE	NSW	HONEYSUCKLE DAY HOSPITAL	0027560K	"UNIT 2, 19 HONEYSUCKLE DRIVE"	NEWCASTLE	2300																																												
PRIVATE	QLD	HOPEWELL HOSPICE	0056050T	11 DUNKIRK CLOSE	ARUNDEL	4214																																												
PUBLIC	NSW	HORNSBY KU-RING-GAI HOSPITAL	0010140T	36-76 PALMERSTON ROAD	HORNSBY	2077																																												
PRIVATE	SA	HOVE DAY SURGERY	0067330F	387 - 389 BRIGHTON ROAD	HOVE	5048																																												
PUBLIC	QLD	HUGHENDEN HOSPITAL	0050560X	12 RICHMOND HILL DRIVE	HUGHENDEN	4821																																												
PRIVATE	QLD	HUMMINGBIRD HOUSE	0056190B	60 CURWEN TERRACE	CHERMSIDE	4032																																												
PUBLIC	NSW	HUNTER NEW ENGLAND MENTAL HEALTH SERVICE	0012890F	2-10 EDITH STREET	WARATAH	2298																																												
PRIVATE	NSW	HUNTER VALLEY PRIVATE HOSPITAL	0016490K	20 MAWSON STREET	SHORTLAND	2307																																												
PRIVATE	NSW	HUNTERS HILL PRIVATE HOSPITAL	0015560Y	9 MOUNT STREET	HUNTERS HILL	2110																																												
PUBLIC	TAS	HUON REGIONAL CARE	0085230T	3278 HUON HIGHWAY	FRANKLIN	7113																																												
PRIVATE	NSW	HURSTVILLE PRIVATE HOSPITAL	0015570X	37 GLOUCESTER ROAD	HURSTVILLE	2220																																												
PRIVATE	SA	ICON CANCER CENTRE ADELAIDE	0067150J	"SUITE 10, FIRST FLOOR, TENNYSON CENTRE, 520 SOUTH ROAD"	KURRALTA PARK	5037																																												
PRIVATE	ACT	ICON CANCER CENTRE CANBERRA	0097060H	UNIVERSITY OF CANBERRA MEDICAL CENTRE CORNER BROULA & ALLAWOONA STREETS	BRUCE	2617																																												
PRIVATE	QLD	ICON CANCER CENTRE CHERMSIDE	0056080J	"CHERMSIDE MEDICAL CENTRE, 930-956 GYMPIE ROAD"	CHERMSIDE	4032																																												
PRIVATE	VIC	ICON CANCER CENTRE GEELONG	0037050W	1 EPWORTH PLACE	WAURN PONDS	3216																																												
PRIVATE	TAS	ICON CANCER CENTRE HOBART	0087060A	"GROUND FLOOR, 2 MELVILLE STREET"	HOBART	7000																																												
PRIVATE	QLD	ICON CANCER CENTRE MACKAY	0057510W	148 SAMS ROAD	MACKAY	4740																																												
PRIVATE	WA	ICON CANCER CENTRE MIDLAND	0077210X	6 CENTENNIAL PLACE	MIDLAND	6056																																												
PRIVATE	VIC	ICON CANCER CENTRE MORELAND 	0044240X	275 MORELAND ROAD	COBURG	3058																																												
PRIVATE	QLD	ICON CANCER CENTRE NORTH LAKES	0057450L	9 MCLENNAN COURT	NORTH LAKES	4509																																												
PRIVATE	NSW	ICON CANCER CENTRE REVESBY	0027510Y	1-3 MACARTHUR STREET	REVESBY	2212																																												
PRIVATE	WA	ICON CANCER CENTRE ROCKINGHAM	0077270H	2 CIVIC BOULEVARD	ROCKINGHAM 	6168																																												
PRIVATE	QLD	ICON CANCER CENTRE SOUTH BRISBANE	0925691B	293 VULTURE STREET	SOUTH BRISBANE	4101																																												
PRIVATE	QLD	ICON CANCER CENTRE SOUTHPORT	0057340X	"LEVEL 9, PREMION PLACE, 39 WHITE STREET"	SOUTHPORT	4215																																												
PRIVATE	QLD	ICON CANCER CENTRE TOWNSVILLE	0057400A	9-13 BAYSWATER ROAD	HYDE PARK	4812																																												
PRIVATE	QLD	ICON CANCER CENTRE WESLEY	0895551A	"1ST FLOOR, WESLEY MEDICAL CENTRE, 40 CHASLEY STREET"	AUCHENFLOWER	4066																																												
PRIVATE	SA	ICON CANCER CENTRE WINDSOR GARDENS	0067250F	"TENANCY 1, LEVEL 1, 480 NORTH EAST ROAD"	WINDSOR GARDENS	5087																																												
PRIVATE	NSW	ILLAWARRA PRIVATE CANCER CARE & RESEARCH CENTRE	0026930J	35 DENISON STREET	WOLLONGONG	2500																																												
PRIVATE	VIC	IMAGING @ OLYMPIC PARK	0044000L	"AAMI PARK SUITE 2, 60 OLYMPIC BOULEVARD"	MELBOURNE	3000																																												
PRIVATE	ACT	IMH DEAKIN PRIVATE HOSPITAL	0095140A	CORNER OF STRICKLAND CRESCENT AND DENISON STREET	DEAKIN	2600																																												
PRIVATE	NSW	IMH HIRONDELLE PRIVATE HOSPITAL	0015550A	10 WYVERN AVENUE	CHATSWOOD	2067																																												
PUBLIC	QLD	INGHAM HOSPITAL	0050570W	2-16 MCILWRAITH STREET	INGHAM	4850																																												
PUBLIC	VIC	INGLEWOOD AND DISTRICT HEALTH SERVICE	0030530L	3 HOSPITAL STREET	INGLEWOOD	3517																																												
PUBLIC	QLD	INGLEWOOD MULTIPURPOSE HEALTH SERVICE	0050580T	CUNNINGHAM HIGHWAY	INGLEWOOD	4387																																												
PUBLIC	QLD	INJUNE HOSPITAL	0050590L	FIFTH AVENUE	INJUNE	4454																																												
PRIVATE	NSW	INNER WEST ENDOSCOPY CENTRE	0657041B	311 MARRICKVILLE ROAD	MARRICKVILLE	2204																																												
PUBLIC	QLD	INNISFAIL HOSPITAL	0050600F	87 RANKIN STREET	INNISFAIL	4860																																												
PRIVATE	NSW	INSIGHT PRIVATE HOSPITAL	0656151F	"LEVEL 5, 470 WODONGA PLACE"	ALBURY	2640																																												
PUBLIC	NSW	INVERELL DISTRICT HOSPITAL	0011460L	41 SWANBROOK ROAD	INVERELL	2360																																												
PRIVATE	QLD	IPSWICH DAY HOSPITAL	0999431K	10 CHURCHILL STREET	IPSWICH	4305																																												
PRIVATE	QLD	IPSWICH HOSPICE CARE	0055950J	"37 CHERMSIDE ROAD, EASTERN HEIGHTS"	IPSWICH	4305																																												
PUBLIC	QLD	IPSWICH HOSPITAL	0050610B	7 CHELMSFORD AVENUE	IPSWICH	4305																																												
PRIVATE	VIC	IVANHOE ENDOSCOPY CENTRE	0043400F	2/226 UPPER HEIDELBERG ROAD	IVANHOE	3079																																												
PUBLIC	NSW	IVANHOE HEALTH SERVICE	0011490H	11 COLUMBUS STREET	IVANHOE	2878																																												
PUBLIC	QLD	JACARANDA PLACE  QUEENSLAND ADOLESCENT EXTENDED TREATMENT CENTRE	0051970T	78 FARNELL STREET	CHERMSIDE	4032																																												
PUBLIC	SA	JAMESTOWN CAMPUS	0060230Y	43 SOUTH TERRACE	JAMESTOWN	5491																																												
PRIVATE	NSW	JAMISON STREET DAY SURGERY	0027540T	SUITE 151 - 1 JAMISON STREET	SYDNEY	2000																																												
PUBLIC	QLD	JANDOWAE HOSPITAL	0050630Y	13 DALBY STREET	JANDOWAE	4410																																												
PUBLIC	NSW	JERILDERIE MULTI PURPOSE SERVICE	0011500Y	33-39 SOUTHEY STREET	JERILDERIE	2716																																												
PRIVATE	VIC	JESSIE MCPHERSON PRIVATE HOSPITAL	0035000Y	246 CLAYTON ROAD	CLAYTON	3168																																												
PRIVATE	VIC	JOHN FAWKNER PRIVATE HOSPITAL	0035850A	275 MORELAND ROAD	COBURG	3058																																												
PRIVATE	QLD	JOHN FLYNN PRIVATE HOSPITAL	0055820X	42 INLAND DRIVE	TUGUN	4224																																												
PUBLIC	NSW	JOHN HUNTER HOSPITAL ROYAL NEWCASTLE CENTRE	0012790J	2 LOOKOUT ROAD	NEW LAMBTON	2305																																												
PRIVATE	VIC	JOLIMONT DAY HOSPITAL	0037130W	"LEVEL 2, 150 JOLIMONT ROAD"	EAST MELBOURNE	3002																																												
PRIVATE	WA	JOONDALUP HEALTH CAMPUS	0075530X	SHENTON AVENUE	JOONDALUP	6027																																												
PUBLIC	QLD	JOYCE PALMER HEALTH SERVICE	0051070H	BEACH ROAD	PALM ISLAND	4816																																												
PUBLIC	QLD	JULIA CREEK MULTI-PURPOSE HEATH SERVICE	0050640X	1 BURKE STREET	JULIA CREEK	4823																																												
PUBLIC	NSW	JUNEE MULTI PURPOSE SERVICE	0011510X	67 BROADWAY STREET	JUNEE	2663																																												
PUBLIC	WA	KALAMUNDA HOSPITAL	0071270K	ELIZABETH STREET	KALAMUNDA	6076																																												
PUBLIC	WA	KALBARRI HEALTH SERVICE	0071580X	KAIBER STREET	KALBARRI	6536																																												
PUBLIC	WA	KALEEYA HOSPITAL	0075390T	CNR STATON & WOLSELY RDS	EAST FREMANTLE	6158																																												
PUBLIC	WA	KALGOORLIE HEALTH CAMPUS	0070370T	PICCADILLY STREET	KALGOORLIE	6430																																												
PUBLIC	SA	KANGAROO ISLAND HEALTH SERVICE	0060270L	3-7 THE ESPLANADE	KINGSCOTE	5223																																												
PUBLIC	SA	KAPUNDA HOSPITAL	0060820Y	LOT 40 NASH STREET	KAPUNDA	5373																																												
PRIVATE	NSW	KAREENA PRIVATE HOSPITAL	0016510A	86 KAREENA ROAD	CARINGBAH	2229																																												
PUBLIC	NSW	KARITANE	0010150L	CNR BUTTON AVENUE & LYDIA STREET	CARRAMAR	2163																																												
PUBLIC	SA	KAROONDA AND DISTRICT SOLDIERS' MEMORIAL HOSPITAL	0060650A	13 STOKES ROAD	KAROONDA	5307																																												
PUBLIC	WA	KARRATHA HEALTH CAMPUS	0071540F	62 BALMORAL ROAD	KARRATHA	6714																																												
PUBLIC	WA	KATANNING HOSPITAL	0070380L	CLIVE STREET	KATANNING	6317																																												
PUBLIC	NT	KATHERINE HOSPITAL	0095030H	GORGE ROAD	KATHERINE	0850																																												
PRIVATE	QLD	KAWANA PRIVATE HOSPITAL	0056070K	"SUITE 14, LEVEL 1, 5 INNOVATION PARKWAY"	BIRTINYA	4575																																												
PRIVATE	VIC	KEILOR PRIVATE	0656671B	12A KENNEDY STREET	KEILOR	3036																																												
PUBLIC	WA	KELLERBERRIN MEMORIAL HOSPITAL	0070390K	51-63 GREGORY STREET	KELLERBERRIN	6410																																												
PUBLIC	NSW	KEMPSEY DISTRICT HOSPITAL	0011640J	119 RIVER STREET	KEMPSEY	2440																																												
PUBLIC	VIC	KERANG DISTRICT HEALTH	0030550J	13 BURGOYNE STREET	KERANG	3579																																												
PRIVATE	VIC	KEW ENDOSCOPY CENTRE	0043680B	"SUITE 5, 828 HIGH STREET"	KEW EAST	3102																																												
PUBLIC	QLD	KILCOY HOSPITAL	0050660T	19 BROWN STREET	KILCOY	4515																																												
PUBLIC	WA	KING EDWARD MEMORIAL HOSPITAL	0070030L	374 BAGOT ROAD	SUBIACO	6008																																												
PUBLIC	TAS	KING ISLAND DISTRICT HOSPITAL AND HEALTH CENTRE	0080130T	EDWARD STREET	CURRIE	7256																																												
PUBLIC	QLD	KINGAROY HOSPITAL & COMMUNITY HEALTH CENTRE	0050670L	166 YOUNGMAN STREET	KINGAROY	4610																																												
PRIVATE	WA	KINGS PARK DAY HOSPITAL	0077040Y	"SUITE 1, 1 WALKER AVENUE"	WEST PERTH	6005																																												
PRIVATE	NSW	KINGSGROVE DAY HOSPITAL	0658121W	"LEVEL 1, 322 KINGSGROVE ROAD"	KINGSGROVE	2208																																												
PUBLIC	VIC	KINGSTON CENTRE	0034170K	400 WARRIGAL ROAD	CHELTENHAM	3192																																												
PUBLIC	SA	KINGSTON SOLDIERS' MEMORIAL HOSPITAL	0060280K	CNR COOKE STREET AND YOUNG STREET	KINGSTON	5275																																												
PRIVATE	VIC	KNOX DAY HOSPITAL	0043650J	520 MOUNTAIN HIGHWAY	BAYSWATER	3153																																												
PRIVATE	VIC	KNOX PRIVATE HOSPITAL	0036610J	262 MOUNTAIN HIGHWAY	WANTIRNA	3152																																												
PRIVATE	NSW	KOGARAH PRIVATE HOSPITAL 	0027220J	"LEVEL 1, 1 DERBY STREET"	KOGARAH	2217																																												
PUBLIC	WA	KOJONUP HOSPITAL	0070400B	SPRING STREET	KOJONUP	6395																																												
PUBLIC	WA	KONDININ HOSPITAL	0070420Y	130 GRAHAM STREET	KONDININ	6367																																												
PUBLIC	VIC	KOOWEERUP REGIONAL HEALTH SERVICE	0031300X	215 ROSSITER ROAD	KOO WEE RUP	3981																																												
PUBLIC	WA	KUNUNOPPIN HOSPITAL	0070430X	LEAKE STREET	KUNUNOPPIN	6489																																												
PUBLIC	WA	KUNUNURRA HOSPITAL	0071050A	11 COOLIBAH DRIVE	KUNUNURRA	6743																																												
PUBLIC	NSW	KURRI KURRI DISTRICT HOSPITAL	0011540L	432 LANG STREET	KURRI KURRI	2327																																												
PUBLIC	VIC	KYABRAM & DISTRICT HEALTH SERVICES	0030590A	88 FENAUGHTY STREET	KYABRAM	3620																																												
PUBLIC	NSW	KYOGLE MEMORIAL MULTI PURPOSE SERVICE	0011550K	199 SUMMERLAND WAY	KYOGLE	2474																																												
PRIVATE	VIC	LA TROBE PRIVATE HOSPITAL	0036790K	CNR PLENTY ROAD AND KINGSBURY DRIVE	BUNDOORA	3083																																												
PRIVATE	QLD	LADY BJELKE-PETERSEN COMMUNITY HOSPITAL	0056020Y	31 MARKWELL STREET	KINGAROY	4610																																												
PRIVATE	NSW	LADY DAVIDSON PRIVATE HOSPITAL	0017160Y	434 BOBBIN HEAD ROAD	NORTH TURRAMURRA	2074																																												
PUBLIC	QLD	LAIDLEY HOSPITAL	0050680K	75 WILLIAM STREET	LAIDLEY	4341																																												
PUBLIC	NSW	LAKE CARGELLIGO MULTI PURPOSE SERVICE	0011560J	UABBA STREET	LAKE CARGELLIGO	2672																																												
PUBLIC	WA	LAKE GRACE HOSPITAL	0070440W	STUBBS STREET	LAKE GRACE	6353																																												
PRIVATE	NSW	LAKE MACQUARIE PRIVATE HOSPITAL	0016750H	3 SYDNEY STREET	GATESHEAD	2290																																												
PRIVATE	NSW	LAKEVIEW PRIVATE HOSPITAL 	0017510T	17-19 SOLENT CIRCUIT	NORWEST	2153																																												
PUBLIC	SA	LAMEROO HEALTH SERVICES	0060290J	1A VARDON TERRACE	LAMEROO	5302																																												
PUBLIC	VIC	LATROBE REGIONAL HOSPITAL	0031210Y	10 VILLAGE AVENUE	TRARALGON	3844																																												
PUBLIC	TAS	LAUNCESTON GENERAL HOSPITAL	0080070K	274-280 CHARLES STREET	LAUNCESTON	7250																																												
PRIVATE	TAS	LAUNCESTON HEALTH HUB DAY PROCEDURE UNIT	0085280F	247 WELLINGTON STREET	LAUNCESTON	7250																																												
PUBLIC	SA	LAURA CAMPUS	0060700H	MILL STREET	LAURA	5480																																												
PUBLIC	WA	LAVERTON HOSPITAL	0070450T	2 BERIA ROAD	LAVERTON	6440																																												
PUBLIC	NSW	LEETON DISTRICT HOSPITAL	0011570H	CNR PALM AND WADE AVENUE	LEETON	2705																																												
PUBLIC	SA	LEIGH CREEK HEALTH SERVICES	0060750X	12 BLACK OAK DRIVE	LEIGH CREEK	5731																																												
PUBLIC	WA	LEONORA HOSPITAL	0070460L	SADIE CANNING DRIVE	LEONORA	6438																																												
PRIVATE	ACT	LEVANT CLINIC CANBERRA	0097080B	"SUITE 3, LEVEL C, CANBERRA SPECIALIST MEDICAL CENTRE, 1 BROULA STREET"	BRUCE	2617																																												
PRIVATE	NSW	LEVANT COSMETIC DAY SURGERY RANDWICK	0027550L	"LEVEL 1, 164 BELMORE ROAD"	RANDWICK	2031																																												
PRIVATE	QLD	LEVANT GOLD COAST DAY HOSPITAL	0056280A	"LEVEL 2, 127 QUEEN STREET"	SOUTHPORT	4215																																												
PRIVATE	SA	LIFT CANCER CARE SERVICES	0067230J	7/506-520 SOUTH ROAD	KURRALTA PARK	5037																																												
PUBLIC	NSW	LIGHTNING RIDGE MULTIPURPOSE HEALTH SERVICE	0012850L	LOT 25 PANDORA STREET	LIGHTNING RIDGE	2834																																												
PRIVATE	VIC	LINACRE PRIVATE HOSPITAL	0036410W	12 LINACRE ROAD	HAMPTON	3188																																												
PRIVATE	NSW	LINDFIELD RENAL CARE CENTRE 	0027070H	280 PACIFIC HIGHWAY	LINDFIELD	2070																																												
PRIVATE	NSW	LINGARD PRIVATE HOSPITAL	0016780A	23 MEREWETHER STREET	MEREWETHER	2291																																												
PRIVATE	WA	LIONS EYE INSTITUTE DAY SURGERY CENTRE	0926581A	2 VERDUN STREET	NEDLANDS	6009																																												
PUBLIC	NSW	LISMORE BASE HOSPITAL	0011590B	60 URALBA STREET	LISMORE	2480																																												
PUBLIC	NSW	LISMORE BASE HOSPITAL - RIVERLANDS DRUG & ALCOHOL SERVICE	0011590B	76 HUNTER STREET	LISMORE	2480																																												
PRIVATE	NSW	LITHGOW COMMUNITY PRIVATE HOSPITAL	0017210F	2 COL DREWE DRIVE	LITHGOW	2790																																												
PUBLIC	NSW	LITHGOW HOSPITAL	0011600W	CNR COL DREWE DRIVE AND GREAT WESTERN HIGHWAY	LITHGOW	2790																																												
PRIVATE	NSW	LIVERPOOL DAY SURGERY	0657411T	105-119 LONGSTAFF AVENUE	MOOREBANK	2170																																												
PRIVATE	NSW	LIVERPOOL EYE SURGERY	0027300J	"GROUND FLOOR, 1-7 MOORE STREET"	LIVERPOOL	2170																																												
PUBLIC	NSW	LIVERPOOL HOSPITAL	0010200X	LOT 2 ELIZABETH STREET	LIVERPOOL	2170																																												
PUBLIC	NSW	LOCKHART & DISTRICT HOSPITAL	0011610T	53-55 HEBDEN STREET	LOCKHART	2656																																												
PRIVATE	QLD	LOGAN ENDOSCOPY SERVICES	0057190W	UNIT 2/3276 BEAUDESERT ROAD	BROWNS PLAINS	4118																																												
PUBLIC	QLD	LOGAN HOSPITAL	0051740H	8 ARMSTRONG STREET	MEADOWBROOK	4131																																												
PUBLIC	NSW	LONG JETTY HEALTH CARE FACILITY	0012680T	68 WYONG ROAD	KILLARNEY VALE	2261																																												
PUBLIC	QLD	LONGREACH HOSPITAL	0050690J	JABIRU STREET	LONGREACH	4730																																												
PRIVATE	NSW	LONGUEVILLE PRIVATE HOSPITAL	0016830H	45-47 KENNETH STREET	LONGUEVILLE	2066																																												
PUBLIC	NSW	LOURDES HOSPITAL & COMMUNITY SERVICES	0012840T	80-110 COBBORA ROAD	DUBBO	2830																																												
PUBLIC	SA	LOXTON HOSPITAL COMPLEX	0060300A	41 DRABSCH STREET	LOXTON	5333																																												
PUBLIC	SA	LYELL MCEWIN HOSPITAL	0060680W	120-130 HAYDOWN ROAD	ELIZABETH VALE	5112																																												
PUBLIC	QLD	MACKAY BASE HOSPITAL	0050700A	475 BRIDGE ROAD	MACKAY	4740																																												
PRIVATE	QLD	MACKAY PRIVATE HOSPITAL	0056120W	57 NORRIS ROAD	MOUNT PLEASANT	4740																																												
PRIVATE	QLD	MACKAY SPECIALIST DAY HOSPITAL	0057120J	85-87 WILLETTS ROAD	NORTH MACKAY	4740																																												
PUBLIC	NSW	MACKSVILLE DISTRICT HOSPITAL	0011820F	100 DARRUYA ROAD	NORTH MACKSVILLE	2447																																												
PUBLIC	NSW	MACLEAN DISTRICT HOSPITAL	0011630K	21 UNION STREET	MACLEAN	2463																																												
PUBLIC	NSW	MACQUARIE HOSPITAL	0012910W	CNR WICKS RD & COXS RD	NORTH RYDE	2113																																												
PRIVATE	NSW	MACQUARIE ST DAY SURGERY	0027280X	"LEVEL 11, 187 MACQUARIE ST"	SYDNEY	2000																																												
PRIVATE	NSW	MACQUARIE UNIVERSITY HOSPITAL	0017360L	3 TECHNOLOGY PLACE	MACQUARIE PARK	2109																																												
PRIVATE	NSW	MADISON DAY SURGERY	0027150H	"SUITE 3, 25-29 HUNTER STREET"	HORNSBY	2077																																												
PUBLIC	NSW	MAITLAND HOSPITAL (NSW)	0011650H	51 METFORD ROAD	METFORD	2323																																												
PUBLIC	SA	MAITLAND HOSPITAL (SA)	0060310Y	65 ROBERT STREET	MAITLAND	5573																																												
PRIVATE	NSW	MAITLAND PRIVATE HOSPITAL	0017250X	173 CHISHOLM ROAD	EAST MAITLAND	2323																																												
PUBLIC	VIC	MALDON HOSPITAL	0034840K	CHAPEL STREET	MALDON	3463																																												
PUBLIC	QLD	MALENY HOSPITAL	0050710Y	17 BEAN STREET	MALENY	4552																																												
PUBLIC	VIC	MALLEE TRACK HEALTH AND COMMUNITY SERVICE	0030880L	28 BRITT STREET	OUYEN	3490																																												
PRIVATE	VIC	MALVERN DIALYSIS CLINIC	0043760B	1133 MALVERN ROAD	MALVERN	3144																																												
PRIVATE	VIC	MALVERN PRIVATE HOSPITAL	0035480K	3-9 WILTON VALE CRESCENT	MALVERN EAST	3145																																												
PUBLIC	NSW	MANILLA HEALTH SERVICE	0011670B	143 COURT STREET	MANILLA	2346																																												
PRIVATE	NSW	MANLY WATERS PRIVATE HOSPITAL	0016690B	17 COVE AVENUE	MANLY	2095																																												
PUBLIC	NSW	MANNING RURAL REFERRAL HOSPITAL (TAREE)	0011680A	26 YORK STREET	TAREE	2430																																												
PRIVATE	VIC	MANNINGHAM PRIVATE HOSPITAL	0043820H	"SUITE 304, LEVEL 3, 200 HIGH STREET"	TEMPLESTOWE LOWER	3107																																												
PUBLIC	SA	MANNUM DISTRICT HOSPITAL	0060320X	PARKER STREET	MANNUM	5238																																												
PUBLIC	VIC	MANSFIELD DISTRICT HOSPITAL	0030670A	53 HIGHETT STREET	MANSFIELD	3722																																												
PUBLIC	QLD	MAREEBA HOSPITAL	0050730W	21 LLOYD STREET	MAREEBA	4880																																												
PUBLIC	WA	MARGARET RIVER HOSPITAL	0070490H	FARRELLY STREET	MARGARET RIVER	6285																																												
PUBLIC	VIC	MAROONDAH HOSPITAL	0031650X	1-15 MT DANDENONG ROAD	RINGWOOD EAST	3135																																												
PRIVATE	NSW	MARSDEN EYE SURGERY CENTRE	0838221B	152 MARSDEN STREET	PARRAMATTA	2150																																												
PUBLIC	VIC	MARYBOROUGH DISTRICT HEALTH SERVICE (DUNOLLY)	0030370L	20 HAVELOCK STREET	DUNOLLY	3472																																												
PUBLIC	VIC	MARYBOROUGH DISTRICT HEALTH SERVICE (MARYBOROUGH)	0030680Y	75-87 CLARENDON STREET	MARYBOROUGH	3465																																												
PUBLIC	QLD	MARYBOROUGH HOSPITAL	0050740T	185 WALKER STREET	MARYBOROUGH	4650																																												
PRIVATE	VIC	MARYVALE PRIVATE HOSPITAL	0036630F	286 MARYVALE ROAD	MORWELL	3840																																												
PRIVATE	VIC	MASADA PRIVATE HOSPITAL	0036390F	26 BALACLAVA ROAD	EAST ST KILDA	3183																																												
PUBLIC	QLD	MATER ADULT HOSPITAL	0050750L	RAYMOND TERRACE	SOUTH BRISBANE	4101																																												
PRIVATE	NSW	MATER HOSPITAL SYDNEY	0015790H	25 ROCKLANDS ROAD	NORTH SYDNEY	2060																																												
PUBLIC	QLD	MATER MOTHER'S HOSPITAL	0050790F	RAYMOND TERRACE	SOUTH BRISBANE	4101																																												
PRIVATE	QLD	MATER PRIVATE DAY HOSPITAL BROOKWATER	0057490F	CNR OF AUGUSTA PARKWAY & TOURNAMENT DRIVE	BROOKWATER	4300																																												
PRIVATE	QLD	MATER PRIVATE HOSPITAL (SOUTH BRISBANE)	0055850L	301 VULTURE ST	SOUTH BRISBANE	4101																																												
PRIVATE	QLD	MATER PRIVATE HOSPITAL BUNDABERG	0055330T	313 BOURBONG STREET	BUNDABERG	4670																																												
PRIVATE	QLD	MATER PRIVATE HOSPITAL MACKAY	0055340L	76 WILLETTS ROAD	NORTH MACKAY	4740																																												
PRIVATE	QLD	MATER PRIVATE HOSPITAL MACKAY (WELLINGTON STREET CAMPUS)	0881091W	1 WELLINGTON STREET	MACKAY	4740																																												
PRIVATE	QLD	MATER PRIVATE HOSPITAL REDLAND	0055970F	WEIPPIN STREET	CLEVELAND	4163																																												
PRIVATE	QLD	MATER PRIVATE HOSPITAL ROCKHAMPTON	0055350K	CNR WARD & JESSIE STREETS	ROCKHAMPTON	4700																																												
PRIVATE	QLD	MATER PRIVATE HOSPITAL SPRINGFIELD	0056160J	30 HEALTH CARE DRIVE	SPRINGFIELD CENTRAL	4300																																												
PRIVATE	QLD	MATER PRIVATE HOSPITAL TOWNSVILLE	0055360J	25 FULHAM ROAD	PIMLICO	4810																																												
PRIVATE	QLD	MATER PRIVATE HOSPITAL TOWNSVILLE (HYDE PARK CAMPUS)	0055400W	12-14 OXFORD STREET	HYDE PARK	4812																																												
PRIVATE	QLD	MATER WOMEN'S & CHILDREN'S PRIVATE HEALTH SERVICES	0055110F	RAYMOND TERRACE	SOUTH BRISBANE	4101																																												
PRIVATE	NSW	MATILDA NEPEAN PRIVATE HOSPITAL	0017680X	39 ORTH STREET	KINGSWOOD	2747																																												
PUBLIC	TAS	MAY SHAW HEALTH CENTRE	0085190H	37 WELLINGTON STREET	SWANSEA	7190																																												
PRIVATE	NSW	MAYO PRIVATE HOSPITAL	0015810X	LOT 1 POTOROO DRIVE	TAREE	2430																																												
PRIVATE	WA	MCCOURT STREET DAY SURGERY	0077000H	28 MCCOURT STREET	WEST LEEDERVILLE	6007																																												
PUBLIC	WA	MEEKATHARRA HOSPITAL	0070500Y	SAVAGE STREET	MEEKATHARRA	6642																																												
PRIVATE	VIC	MELBOURNE DAY SURGERY CENTRE	0930981W	"LEVEL 1, 961 GLENHUNTLY ROAD"	CAULFIELD SOUTH	3162																																												
PRIVATE	VIC	MELBOURNE ENDOSCOPY MONASH DAY PROCEDURE CENTRE	0656392Y	277 CLAYTON ROAD	CLAYTON	3168																																												
PRIVATE	VIC	MELBOURNE PRIVATE HOSPITAL	0036700H	ROYAL PARADE	PARKVILLE	3052																																												
PRIVATE	SA	MEMORIAL HOSPITAL	0065240A	SIR EDWIN SMITH AVENUE	NORTH ADELAIDE	5006																																												
PUBLIC	SA	MENINGIE HOSPITAL	0060660Y	2 SOUTH TERRACE	MENINGIE	5264																																												
PUBLIC	NSW	MERCY CARE HOSPITAL - YOUNG	0011710K	69 DEMONDRILLE STREET	YOUNG	2594																																												
PUBLIC	VIC	MERCY HEALTH - O'CONNELL FAMILY CENTRE CAMPUS	0031550A	6 MONT ALBERT ROAD	CANTERBURY	3126																																												
PUBLIC	NSW	MERCY HEALTH SERVICE	0011690Y	550 POOLE STREET	ALBURY	2640																																												
PUBLIC	VIC	MERCY HOSPITAL FOR WOMEN	0031610F	163 STUDLEY ROAD	HEIDELBERG	3084																																												
PUBLIC	WA	MERREDIN HOSPITAL	0070510X	KITCHENER ROAD	MERREDIN	6415																																												
PUBLIC	NSW	MERRIWA MULTI PURPOSE SERVICE	0011720J	60 MACKENZIE STREET	MERRIWA	2329																																												
PUBLIC	TAS	MERSEY COMMUNITY HOSPITAL	0085170K	BASS HIGHWAY	LATROBE	7307																																												
PRIVATE	NSW	METWEST SURGICAL	0656411A	17 HEREWARD HIGHWAY	BLACKTOWN	2148																																												
PRIVATE	QLD	MIAMI PRIVATE HOSPITAL	0057440T	24 HILLCREST PARADE	MIAMI	4220																																												
PUBLIC	TAS	MIDLANDS MULTI PURPOSE HEALTH CENTRE	0085180J	13 CHURCH STREET	OATLANDS	7120																																												
PUBLIC	VIC	MILDURA BASE PUBLIC HOSPITAL	0036820Y	220-228 THIRTEENTH STREET	MILDURA	3500																																												
PRIVATE	VIC	MILDURA HEALTH PRIVATE HOSPITAL	0036600K	220-228 THIRTEENTH STREET	MILDURA	3500																																												
PUBLIC	QLD	MILES HOSPITAL	0050870F	5-11 COLAMBA STREET	MILES	4415																																												
PUBLIC	SA	MILLICENT AND DISTRICT HOSPITAL AND HEALTH SERVICES	0060340T	33 MT GAMBIER ROAD	MILLICENT	5280																																												
PUBLIC	QLD	MILLMERRAN HOSPITAL	0050880B	50 COMMENS STREET	MILLMERRAN	4357																																												
PUBLIC	NSW	MILTON ULLADULLA HOSPITAL	0011740F	104-106 PRINCES HIGHWAY	MILTON	2538																																												
PRIVATE	NSW	MINCHINBURY COMMUNITY PRIVATE HOSPITAL	0017000T	120 RUPERTSWOOD ROAD	MOUNT DRUITT	2040																																												
PRIVATE	QLD	MINIMALLY INVASIVE SURGERY CENTRE	0056270B	"LEVEL 4, 1 LAWSON STREET"	SOUTHPORT	4215																																												
PRIVATE	NSW	MIRANDA DAY SURGERY	0027290W	25/20-24 GIBBS ST	MIRANDA	2228																																												
PRIVATE	NSW	MIRANDA EYE SURGICAL CENTRE	0990491F	"SUITE 4, 16-22 WILLOCK AVENUE"	MIRANDA	2228																																												
PRIVATE	VIC	MITCHAM PRIVATE HOSPITAL	0036090W	27 AND 36 DONCASTER EAST ROAD	MITCHAM	3132																																												
PUBLIC	QLD	MITCHELL HOSPITAL	0050890A	95 ANN STREET	MITCHELL	4465																																												
PUBLIC	SA	MODBURY HOSPITAL	0060690T	41-69 SMART ROAD	MODBURY	5092																																												
PRIVATE	NSW	MOGO DAY SURGERY	0017420W	2-4 CHARLES STREET	MOGO	2536																																												
PUBLIC	NSW	MOLONG HEALTH SERVICE	0011750B	KING STREET	MOLONG	2866																																												
PUBLIC	NSW	MONA VALE HOSPITAL	0012470B	81 CORONATION STREET	MONA VALE	2103																																												
PUBLIC	VIC	MONASH HEALTH COMMUNITY	0032150J	122 THOMAS STREET	DANDENONG	3175																																												
PUBLIC	VIC	MONASH HEALTH WOMEN'S SANDRINGHAM	0032210L	193 BLUFF ROAD	SANDRINGHAM	3191																																												
PRIVATE	VIC	MONASH HEART PRIVATE OPERATED BY JESSIE MCPHERSON PRIVATE HOSPITAL	0037100A	631 BLACKBURN ROAD	CLAYTON	3168																																												
PRIVATE	VIC	MONASH HOUSE PRIVATE HOSPITAL	0036960J	"LEVEL 1, 271 CLAYTON ROAD"	CLAYTON	3168																																												
PRIVATE	NSW	MONASH IVF SYDNEY CBD	0027600X	"LEVEL 10, 207 KENT STREET"	SYDNEY	2000																																												
PUBLIC	VIC	MONASH MEDICAL CENTRE - CLAYTON CAMPUS	0030970K	246 CLAYTON ROAD	CLAYTON	3168																																												
PUBLIC	VIC	MONASH MEDICAL CENTRE - MOORABBIN CAMPUS	0030970K	823-865 CENTRE ROAD	BENTLEIGH EAST	3165																																												
PRIVATE	VIC	MONASH SURGICAL PRIVATE HOSPITAL	0036670X	252-256 CLAYTON ROAD	CLAYTON	3168																																												
PUBLIC	QLD	MONTO HOSPITAL	0050900T	35 FLINDERS STREET	MONTO	4630																																												
PUBLIC	WA	MOORA HOSPITAL	0070540L	DANDARAGAN ROAD	MOORA	6510																																												
PUBLIC	QLD	MORANBAH HOSPITAL	0051580H	CNR ELLIOTT STREET AND MILLS AVENUE	MORANBAH	4744																																												
PUBLIC	WA	MORAWA HOSPITAL	0070560J	CAULFIELD ROAD	MORAWA	6623																																												
PUBLIC	NSW	MOREE DISTRICT HOSPITAL	0011760A	35 ALICE STREET	MOREE	2400																																												
PRIVATE	QLD	MORETON DAY HOSPITAL	0057000W	"SPECIALIST MEDICAL CENTRE, LEVEL 2, SUITE 201, 6 NORTH LAKES DRIVE"	NORTH LAKES	4509																																												
PRIVATE	VIC	MORNINGTON ENDOSCOPY	0044060A	350 MAIN STREET	MORNINGTON	3931																																												
PUBLIC	QLD	MORNINGTON ISLAND HOSPITAL	0051620T	306 LARDYL STREET	MORNINGTON ISLAND	4871																																												
PUBLIC	NSW	MORUYA DISTRICT HOSPITAL	0011780X	2-10 RIVER STREET	MORUYA	2537																																												
PUBLIC	QLD	MOSSMAN HOSPITAL (DOUGLAS SHIRE MULTI PURPOSE HEALTH SERVICE)	0050910L	9 HOSPITAL STREET	MOSSMAN	4873																																												
PUBLIC	SA	MOUNT BARKER DISTRICT SOLDIERS MEMORIAL HOSPITAL	0060360K	87 WELLINGTON ROAD	MOUNT BARKER	5251																																												
PUBLIC	NSW	MOUNT DRUITT HOSPITAL	0012780K	63 RAILWAY STREET	MOUNT DRUITT	2770																																												
PUBLIC	VIC	MOUNT ELIZA CENTRE	0031700B	33 JACKSONS ROAD	MOUNT ELIZA	3930																																												
PUBLIC	SA	MOUNT GAMBIER AND DISTRICTS HEALTH SERVICE	0060370J	276-300 WEHL STREET NORTH	MOUNT GAMBIER	5290																																												
PRIVATE	WA	MOUNT HOSPITAL	0075420B	150 MOUNTS BAY ROAD	PERTH	6000																																												
PUBLIC	QLD	MOUNT ISA  HOSPITAL	0050930J	30 CAMOOWEAL STREET	MOUNT ISA	4825																																												
PUBLIC	QLD	MOUNT MORGAN HOSPITAL	0050950F	BLACK STREET	MOUNT MORGAN	4714																																												
PUBLIC	SA	MOUNT PLEASANT HOSPITAL	0060380H	28 HOSPITAL ROAD	MOUNT PLEASANT	5235																																												
PUBLIC	QLD	MOURA HOSPITAL	0051560K	14 NOTT STREET	MOURA	4718																																												
PUBLIC	VIC	MOYNE HEALTH SERVICES	0030900B	30-36 VILLIERS STREET	PORT FAIRY	3284																																												
PRIVATE	QLD	MSI BRISBANE	0057170Y	8 CAMPBELL STREET	BOWEN HILLS	4006																																												
PRIVATE	ACT	MSI CANBERRA	0097020T	"LEVEL 1 ACT HEALTH BUILDING, MOORE & ALINGA STREETS"	CANBERRA CITY	2601																																												
PRIVATE	VIC	MSI MELBOURNE	0043490J	26B DICKENS STREET	ELWOOD	3184																																												
PRIVATE	WA	MSI PERTH	0077050X	8 SAYER STREET	MIDLAND	6056																																												
PRIVATE	NSW	MSI SYDNEY WEST	0657961H	27 RAILWAY PARADE	WESTMEAD	2145																																												
PRIVATE	NSW	MT WILGA PRIVATE HOSPITAL	0015020F	66 ROSAMOND STREET	HORNSBY	2077																																												
PUBLIC	NSW	MUDGEE HEALTH SERVICE	0011790W	MEARES STREET	MUDGEE	2850																																												
PRIVATE	ACT	MUGGA WARA ENDOSCOPY CENTRE	0657101H	1/70 KENT STREET	DEAKIN	2600																																												
PRIVATE	VIC	MULGRAVE PRIVATE HOSPITAL	0036580Y	BLANTON DRIVE	MULGRAVE	3170																																												
PUBLIC	WA	MULLEWA HOSPITAL	0070570H	ELDER STREET	MULLEWA	6630																																												
PUBLIC	QLD	MUNDUBBERA MULTIPURPOSE HEALTH SERVICE 	0050980Y	96 LEICHHARDT STREET	MUNDUBBERA	4626																																												
PUBLIC	QLD	MUNGINDI HOSPITAL	0050990X	80 -84 BARWON STREET	MUNGINDI	2406																																												
PRIVATE	WA	MURDOCH SURGICENTRE	0077020B	100 MURDOCH DRIVE	MURDOCH	6150																																												
PUBLIC	QLD	MURGON HOSPITAL	0051000Y	CORONATION DRIVE	MURGON	4605																																												
PUBLIC	SA	MURRAY BRIDGE SOLDIERS MEMORIAL HOSPITAL	0060390F	CNR SWANPORT ROAD & MONASH TERRACE	MURRAY BRIDGE	5253																																												
PUBLIC	WA	MURRAY DISTRICT HOSPITAL	0070670B	MCKAY STREET	PINJARRA	6208																																												
PRIVATE	VIC	MURRAY VALLEY PRIVATE HOSPITAL	0036780L	NORDSVAN DRIVE	WODONGA	3690																																												
PUBLIC	NSW	MURRUMBAH-HARDEN HOSPITAL	0011810H	54 SWIFT STREET	HARDEN	2587																																												
PUBLIC	NSW	MURWILLUMBAH DISTRICT HOSPITAL	0012210A	8 EWING STREET	MURWILLUMBAH	2484																																												
PUBLIC	NSW	MUSWELLBROOK HOSPITAL	0010800W	36 BRENTWOOD STREET	MUSWELLBROOK	2333																																												
PRIVATE	QLD	NAMBOUR DAY SURGERY	0057250Y	115 HOWARD STREET	NAMBOUR	4560																																												
PUBLIC	QLD	NAMBOUR GENERAL HOSPITAL	0051020W	HOSPITAL ROAD	NAMBOUR	4560																																												
PRIVATE	QLD	NAMBOUR SELANGOR PRIVATE HOSPITAL	0055470B	62 NETHERTON STREET	NAMBOUR	4560																																												
PUBLIC	QLD	NANANGO HOSPITAL	0051030T	135 BRISBANE STREET	NANANGO	4615																																												
PUBLIC	WA	NANNUP HOSPITAL	0070630K	CAREY STREET	NANNUP	6275																																												
PUBLIC	SA	NARACOORTE HEALTH SERVICE	0060400X	101 JENKINS TERRACE	NARACOORTE	5271																																												
PUBLIC	WA	NAREMBEEN HOSPITAL	0070590B	ADA STREET	NAREMBEEN	6369																																												
PUBLIC	NSW	NARRABRI DISTRICT HOSPITAL	0011830B	11 CAMERON STREET	NARRABRI	2390																																												
PUBLIC	NSW	NARRANDERA HOSPITAL	0011840A	54 ADAMS STREET	NARRANDERA	2700																																												
PUBLIC	WA	NARROGIN HOSPITAL	0070600W	WILLIAMS ROAD	NARROGIN	6312																																												
PUBLIC	NSW	NARROMINE HOSPITAL & COMMUNITY HEALTH	0011850Y	128 CATHUNDRAL STREET	NARROMINE	2821																																												
PUBLIC	VIC	NATHALIA DISTRICT HOSPITAL	0030800H	36-44 MCDONNELL STREET	NATHALIA	3638																																												
PRIVATE	ACT	NATIONAL CAPITAL PRIVATE HOSPITAL	0095100J	GILMORE CRESCENT & HOSPITAL ROAD	GARRAN	2605																																												
PRIVATE	VIC	NEERIM HEALTH	0035660H	29-39 MAIN NEERIM ROAD	NEERIM SOUTH	3831																																												
PUBLIC	NSW	NEPEAN HOSPITAL	0011860X	DERBY STREET	KINGSWOOD	2747																																												
PRIVATE	NSW	NEPEAN PRIVATE HOSPITAL	0016580J	BARBER AVENUE	KINGSWOOD	2747																																												
PRIVATE	WA	NEPHROCARE MIDLAND DIALYSIS CLINIC	0077260J	11 THE AVENUE 	MIDLAND	6056																																												
PRIVATE	NSW	NEPHROCARE NEWCASTLE DIALYSIS CLINIC	0017380J	"SUITE 402, LEVEL 4, 670 HUNTER STREET"	NEWCASTLE	2300																																												
PUBLIC	NSW	NERINGAH HOSPITAL	0010130W	4-12 NERINGAH AVENUE SOUTH	WAHROONGA	2076																																												
PRIVATE	VIC	NEW AGE DENTAL	0044190L	"SUITE 5 TO 7, LEVEL 1/20 SCHOLAR DRIVE"	BUNDOORA	3083																																												
PUBLIC	TAS	NEW NORFOLK DISTRICT HOSPITAL	0080160J	3 RICHMOND STREET	NEW NORFOLK	7140																																												
PRIVATE	NSW	NEWCASTLE ENDOSCOPY CENTRE	0027360X	"SUITE 15, 20-22 SMITH STREET"	CHARLESTOWN	2290																																												
PRIVATE	NSW	NEWCASTLE EYE HOSPITAL	0874031Y	182 CHRISTO ROAD	WARATAH	2298																																												
PRIVATE	NSW	NEWCASTLE PRIVATE HOSPITAL	0017050F	14 LOOKOUT ROAD	NEW LAMBTON HEIGHTS	2305																																												
PUBLIC	WA	NEWMAN HOSPITAL	0071180L	54 MINDARRA DRIVE	NEWMAN	6753																																												
PRIVATE	WA	NGALA FAMILY SERVICES	0075140K	9 GEORGE STREET	KENSINGTON	6151																																												
PUBLIC	NSW	NIMBIN MULTI PURPOSE SERVICE	0011890L	35 CULLEN STREET	NIMBIN	2480																																												
PUBLIC	SA	NOARLUNGA HEALTH SERVICE	0060850T	ALEXANDER KELLY DRIVE	NOARLUNGA CENTRE	5168																																												
PRIVATE	VIC	NOBLE PARK ENDOSCOPY CENTRE	0893841H	1304 HEATHERTON ROAD	NOBLE PARK	3174																																												
PRIVATE	QLD	NOOSA HOSPITAL	0055930L	111 GOODCHAP STREET	NOOSAVILLE	4566																																												
PRIVATE	QLD	NOOSA SURGICAL & ENDOSCOPY CENTRE	0057100L	22 MARY STREET	NOOSAVILLE	4566																																												
PUBLIC	QLD	NORMANTON HOSPITAL	0051040L	LOT 199 BROWN STREET	NORMANTON	4890																																												
PUBLIC	WA	NORSEMAN HOSPITAL	0070610T	TALBOT STREET	NORSEMAN	6443																																												
PRIVATE	SA	NORTH ADELAIDE DAY SURGERY CENTRE	0873741Y	174 WARD STREET	NORTH ADELAIDE	5006																																												
PUBLIC	ACT	NORTH CANBERRA HOSPITAL	0090040A	HAYDON DRIVE	BRUCE	2617																																												
PRIVATE	SA	NORTH EASTERN COMMUNITY HOSPITAL	0065770X	580 LOWER NORTH EAST ROAD	CAMPBELLTOWN	5074																																												
PRIVATE	VIC	NORTH EASTERN REHABILITATION CENTRE	0035050K	134-144 FORD STREET	IVANHOE	3079																																												
PUBLIC	TAS	NORTH EASTERN SOLDIERS MEMORIAL HOSPITAL	0080190B	CAMERON STREET	SCOTTSDALE	7260																																												
PRIVATE	QLD	NORTH LAKES DAY HOSPITAL	0057380K	7 ENDEAVOUR BOULEVARD	NORTH LAKES	4509																																												
PRIVATE	VIC	NORTH MELBOURNE RENAL CARE CENTRE	0036880J	"LEVEL 1, 185 - 187 BOUNDARY ROAD"	NORTH MELBOURNE	3051																																												
PUBLIC	WA	NORTH MIDLANDS HOSPITAL	0070730H	THOMAS STREET	THREE SPRINGS	6519																																												
PRIVATE	QLD	NORTH QUEENSLAND DAY SURGICAL CENTRE	0999721A	119 KINGS ROAD	PIMLICO	4812																																												
PRIVATE	NSW	NORTH SHORE PRIVATE HOSPITAL	0017200H	WESTBOURNE STREET	ST LEONARDS	2065																																												
PRIVATE	NSW	NORTH SHORE SPECIALIST DAY HOSPITAL	0027230H	"LEVEL 3, 176 PACIFIC HIGHWAY"	GREENWICH	2065																																												
PRIVATE	TAS	NORTH TAS DAY HOSPITAL	0085240L	23-27 CANNING STREET	LAUNCESTON	7250																																												
PRIVATE	VIC	NORTH WEST DAY HOSPITAL	0894521T	221 MARIBYRNONG ROAD	ASCOT VALE	3032																																												
PRIVATE	QLD	NORTH WEST PRIVATE HOSPITAL (QLD)	0055800A	137 FLOCKTON STREET	EVERTON PARK	4053																																												
PRIVATE	TAS	NORTH WEST PRIVATE HOSPITAL (TAS)	0085000H	21 BRICKPORT ROAD	BURNIE	7320																																												
PUBLIC	TAS	NORTH WEST REGIONAL HOSPITAL	0080400J	23 BRICKPORT ROAD	BURNIE	7320																																												
PUBLIC	WA	NORTHAM HOSPITAL	0071190K	ROBINSON STREET	NORTHAM	6401																																												
PUBLIC	WA	NORTHAMPTON HOSPITAL	0070640J	STEPHEN STREET	NORTHAMPTON	6535																																												
PUBLIC	VIC	NORTHEAST HEALTH WANGARATTA	0031250L	35-47 GREEN STREET	WANGARATTA	3677																																												
PRIVATE	NSW	NORTHERN BEACHES HOSPITAL	0017590Y	105 FRENCHS FOREST ROAD	FRENCHS FOREST	2086																																												
PRIVATE	SA	NORTHERN ENDOSCOPY CENTRE	0834441A	127 FROST ROAD	SALISBURY SOUTH	5106																																												
PRIVATE	VIC	NORTHERN PRIVATE HOSPITAL	0037120X	12 OSBURN PLACE	EPPING	3076																																												
PRIVATE	VIC	NORTHPARK PRIVATE HOSPITAL	0036530J	CNR PLENTY AND GREENHILLS ROAD	BUNDOORA	3083																																												
PRIVATE	NSW	NORWEST PRIVATE HOSPITAL	0016870Y	"11  NORBRIK DRIVE, NORWEST BUSINESS PARK"	BELLA VISTA	2153																																												
PRIVATE	SA	NORWOOD DAY SURGERY	0067280Y	42 NELSON STREET	STEPNEY	5069																																												
PRIVATE	VIC	NOTTING HILL CITY HEALTH DAY HOSPITAL	0044270L	33-37 DUERDIN STREET	NOTTING HILL	3168																																												
PRIVATE	NSW	NOWRA PRIVATE HOSPITAL	0016970W	WEEROONA PLACE	NOWRA	2541																																												
PRIVATE	NT	NT MEDICAL SPECIALIST	0096000F	21 VANDERLIN DRIVE	WANGURI	0810																																												
PUBLIC	VIC	NUMURKAH DISTRICT HEALTH SERVICE	0030830A	2 KATAMATITE ROAD	NUMURKAH	3636																																												
PUBLIC	NSW	NYNGAN MULTI PURPOSE SERVICE	0011900F	HOSPITAL ROAD	NYNGAN	2825																																												
PUBLIC	QLD	OAKEY HOSPITAL	0051050K	5 BEALE STREET	OAKEY	4401																																												
PUBLIC	NSW	OBERON MULTI PURPOSE SERVICE	0011910B	67-73 NORTH STREET	OBERON	2787																																												
PUBLIC	VIC	OMEO DISTRICT HEALTH	0030850X	12 EASTON STREET	OMEO	3898																																												
PUBLIC	WA	ONSLOW HEALTH SERVICE	0070650H	SECOND AVENUE	ONSLOW	6710																																												
PRIVATE	NSW	ORANGE EYE CENTRE	0657451H	267-277 LORDS PLACE	ORANGE	2800																																												
PUBLIC	NSW	ORANGE HEALTH SERVICE	0011920A	1530 FOREST ROAD	ORANGE	2800																																												
PUBLIC	VIC	ORBOST REGIONAL HEALTH	0030860W	104 BOUNDARY ROAD	ORBOST	3888																																												
PRIVATE	SA	OROMAX DAY SURGERY	0067140K	"LEVEL 2, 66 RUNDLE STREET"	KENT TOWN	5067																																												
PUBLIC	SA	ORROROO CAMPUS	0060410W	PEKINA ROAD	ORROROO	5431																																												
PUBLIC	WA	OSBORNE PARK HOSPITAL	0071030F	OSBORNE PLACE	STIRLING	6021																																												
PRIVATE	WA	OXFORD DAY SURGERY	0077110A	"SUITE 4, 1st FLOOR 416-418 OXFORD STREET"	MOUNT HAWTHORN	6016																																												
PRIVATE	QLD	PACIFIC DAY SURGERY CENTRE	0057070B	38 MISTERTON STREET	FORTITUDE VALLEY	4006																																												
PRIVATE	QLD	PACIFIC PRIVATE HOSPITAL	0055980B	119-123 NERANG STREET	SOUTHPORT	4215																																												
PUBLIC	VIC	PAKENHAM HEALTH CENTRE	0032160H	HENTY WAY	PAKENHAM	3810																																												
PUBLIC	NT	PALMERSTON REGIONAL HOSPITAL	0092000T	LINCO ROAD	HOLTZE	0829																																												
PUBLIC	NSW	PAMBULA DISTRICT HOSPITAL	0011930Y	MERIMBOLA STREET	PAMBULA	2549																																												
PRIVATE	VIC	PANCH DAY SURGERY CENTRE	0044100J	"LEVEL 4, 84 HOTHAM STREET"	PRESTON	3073																																												
PUBLIC	VIC	PANCH HEALTH SERVICE	0032100X	300 BELL STREET	PRESTON	3072																																												
PUBLIC	WA	PARABURDOO HOSPITAL	0071240W	LOT 608 ROCKLEA ROAD	PARABURDOO	6754																																												
PRIVATE	VIC	PARAS CLINIC 	0044220A	"SUITE 10, 45 COLLINS STREET"	MELBOURNE	3000																																												
PUBLIC	NSW	PARKES DISTRICT HOSPITAL	0011940X	18 COLEMAN ROAD	PARKES	2870																																												
PRIVATE	SA	PARKVIEW DAY SURGERY	0067000A	215 GREENHILL ROAD	EASTWOOD	5063																																												
PUBLIC	VIC	PARKVILLE YOUTH MENTAL HEALTH AND WELLBEING SERVICE	0032240H	35 POPLAR ROAD	PARKVILLE	3052																																												
PRIVATE	NSW	PARRAMATTA EYE CENTRE	0027430Y	"SUITE 19, 34 CHARLES STREET"	PARRAMATTA	2150																																												
PRIVATE	VIC	PASO INFUSION CENTRE	0044300A	5 SUSONO WAY 	FRANKSTON	3199																																												
PRIVATE	SA	PAYNEHAM DIALYSIS CLINIC	0067040T	2 PORTRUSH ROAD	PAYNEHAM	5070																																												
PUBLIC	NSW	PEAK HILL HEALTH SERVICE	0011950W	111 NEWELL HIGHWAY	PEAK HILL	2869																																												
PRIVATE	WA	PEEL HEALTH CAMPUS - PRIVATE	0075560L	110 LAKES ROAD	MANDURAH	6210																																												
PUBLIC	WA	PEEL HEALTH CAMPUS - PUBLIC	0070100T	110 LAKES ROAD	MANDURAH	6210																																												
PUBLIC	WA	PEMBERTON HOSPITAL	0070660F	RAILWAY CRESENT	PEMBERTON	6260																																												
PRIVATE	QLD	PENINSULA PRIVATE HOSPITAL (QLD)	0055790J	CNR GEORGE AND FLORENCE STREETS	KIPPA-RING	4021																																												
PRIVATE	VIC	PENINSULA PRIVATE HOSPITAL (VIC)	0036510L	525 MCCLELLAND DRIVE	FRANKSTON	3199																																												
PRIVATE	NSW	PENINSULA SLEEP CLINIC	0017230A	"LEVEL 2, BUILDING 1, 49 FRENCHS FOREST ROAD"	FRENCHS FOREST	2086																																												
PRIVATE	NSW	PENNANT HILLS DAY SURGERY	0657211A	361 - 363 PENNANT HILLS ROAD	PENNANT HILLS	2120																																												
PUBLIC	SA	PENOLA WAR MEMORIAL HOSPITAL	0060420T	18 CHURCH STREET	PENOLA	5277																																												
PUBLIC	WA	PERTH CHILDRENS HOSPITAL 	0071620F	15 HOSPITAL AVENUE	NEDLANDS	6009																																												
PRIVATE	WA	PERTH CLINIC	0075550T	29 HAVELOCK STREET	WEST PERTH	6005																																												
PRIVATE	WA	PERTH DAY SURGERY CENTRE	0077060W	166-168 CAMBRIDGE STREET	LEEDERVILLE	6007																																												
PRIVATE	WA	PERTH DERMATOLOGY CLINIC	0077180J	5-7 ROBINSON AVENUE	PERTH	6000																																												
PRIVATE	WA	PERTH EYE HOSPITAL	0656511X	42 ORD STREET	WEST PERTH	6005																																												
PUBLIC	VIC	PETER JAMES CENTRE	0031750T	321-345 BURWOOD HIGHWAY	FOREST HILL	3131																																												
PUBLIC	VIC	PETER MACCALLUM CANCER CENTRE	0030190W	2 ST ANDREWS PLACE	EAST MELBOURNE	3002																																												
PUBLIC	SA	PETERBOROUGH CAMPUS	0060430L	23 HURLSTONE STREET	PETERBOROUGH	5422																																												
PRIVATE	QLD	PINDARA DAY PROCEDURE CENTRE	0925491K	13 CARRARA STREET	BENOWA	4217																																												
PRIVATE	QLD	PINDARA PRIVATE HOSPITAL	0055600J	ALLCHURCH AVENUE	BENOWA	4217																																												
PRIVATE	QLD	PINE RIVERS PRIVATE HOSPITAL	0055830W	34 DIXON STREET	STRATHPINE	4500																																												
PUBLIC	WA	PINGELLY HEALTH CENTRE	0070680A	32 BROWN STREET	PINGELLY	6308																																												
PUBLIC	SA	PINNAROO SOLDIERS' MEMORIAL HOSPITAL	0060440K	BUNDEY TERRACE	PINNAROO	5304																																												
PRIVATE	NSW	PITTWATER DAY SURGERY	0027020W	202/20 BUNGAN STREET	MONA VALE	2103																																												
PUBLIC	WA	PLANTAGENET HOSPITAL	0070550K	LANGTON ROAD	MOUNT BARKER	6324																																												
PUBLIC	SA	PORT AUGUSTA HOSPITAL	0060450J	71 HOSPITAL ROAD	PORT AUGUSTA	5700																																												
PUBLIC	SA	PORT BROUGHTON DISTRICT HOSPITAL AND HEALTH SERVICES	0060720B	BAY STREET	PORT BROUGHTON	5522																																												
PUBLIC	NSW	PORT KEMBLA HOSPITAL	0012480A	89-91 COWPER STREET	WARRAWONG	2502																																												
PUBLIC	SA	PORT LINCOLN HEALTH SERVICES	0060460H	39 OXFORD TERRACE	PORT LINCOLN	5606																																												
PUBLIC	NSW	PORT MACQUARIE BASE HOSPITAL	0017070A	1-31 WRIGHTS ROAD	PORT MACQUARIE	2444																																												
PRIVATE	NSW	PORT MACQUARIE OPHTHALMIC SURGERY	0027400F	35 ACKROYD STREET	PORT MACQUARIE	2444																																												
PRIVATE	NSW	PORT MACQUARIE PRIVATE HOSPITAL	0016940A	LAKE ROAD	PORT MACQUARIE	2444																																												
PUBLIC	SA	PORT PIRIE HOSPITAL	0060470F	ALEXANDER STREET	PORT PIRIE	5540																																												
PUBLIC	VIC	PORTLAND DISTRICT HEALTH	0030910A	141-151 BENTINCK STREET	PORTLAND	3305																																												
PUBLIC	NSW	PORTLAND TABULAM HEALTH CENTRE	0011960T	29 GREEN STREET	PORTLAND	2847																																												
PRIVATE	VIC	PRECISION ASCEND REHABILITATION CENTRE	0044140A	73 KOOYONG ROAD	CAULFIELD SOUTH	3161																																												
PRIVATE	NSW	PRESIDENT PRIVATE HOSPITAL	0016840F	369-381 PRESIDENT AVENUE	KIRRAWEE	2232																																												
PUBLIC	NSW	PRINCE ALBERT TENTERFIELD	0011970L	1-5 NAAS ST	TENTERFIELD	2372																																												
PUBLIC	NSW	PRINCE OF WALES HOSPITAL	0010260H	320-346 BARKER STREET	RANDWICK	2031																																												
PRIVATE	NSW	PRINCE OF WALES PRIVATE HOSPITAL	0017170X	"LEVELS 5-7, AMBULATORY CARE SERVICES CENTRE BUILDING, PRINCE OF WALES CAMPUS, BARKER STREET"	RANDWICK	2031																																												
PUBLIC	QLD	PRINCESS ALEXANDRA HOSPITAL	0051080F	199 IPSWICH ROAD	WOOLLOONGABBA	4102																																												
PUBLIC	QLD	PROSERPINE HOSPITAL	0051090B	26-32 TAYLOR STREET	PROSERPINE	4800																																												
PUBLIC	WA	QUAIRADING HOSPITAL	0070700L	HARRIS STREET	QUAIRADING	6383																																												
PUBLIC	NSW	QUEANBEYAN DISTRICT HOSPITAL	0011980K	12 ERIN STREET	QUEANBEYAN	2620																																												
PUBLIC	ACT	QUEEN ELIZABETH II FAMILY CENTRE	0090020F	129 CARRUTHERS STREET	CURTIN	2605																																												
PUBLIC	QLD	QUEEN ELIZABETH II JUBILEE HOSPITAL	0051630L	CNR KESSELS & TROUGHON ROADS	COOPERS PLAINS	4108																																												
PUBLIC	QLD	QUEENSLAND CHILDREN'S HOSPITAL 	0056130T	501 STANLEY STREET	SOUTH BRISBANE	4101																																												
PRIVATE	QLD	QUEENSLAND DAY HOSPITAL	0057570F	11 HAYLING STREET	SALISBURY	4107																																												
PUBLIC	QLD	QUILPIE HOSPITAL	0051100W	30 GYRICA STREET	QUILPIE	4480																																												
PUBLIC	NSW	QUIRINDI COMMUNITY HOSPITAL	0011990J	NOWLAND STREET	QUIRINDI	2343																																												
PUBLIC	SA	QUORN HEALTH SERVICES	0060480B	HOSPITAL ROAD	QUORN	5433																																												
PRIVATE	SA	RAMSAY CLINIC ADELAIDE	0065030K	33 PARK TERRACE	GILBERTON	5081																																												
PRIVATE	VIC	RAMSAY CLINIC ALBERT ROAD	0036710F	31 ALBERT ROAD	MELBOURNE	3004																																												
PRIVATE	QLD	RAMSAY CLINIC CAIRNS	0056100Y	253 SHERIDAN STREET	NORTH CAIRNS	4870																																												
PRIVATE	QLD	RAMSAY CLINIC CALOUNDRA	0055810Y	96 BEERBURRUM STREET	CALOUNDRA	4551																																												
PRIVATE	NSW	RAMSAY CLINIC CREMORNE	0016570K	3 HARRISON STREET	CREMORNE	2090																																												
PRIVATE	NSW	RAMSAY CLINIC MACARTHUR	0017480F	92-96 DUMARESQ STREET	CAMPBELLTOWN	2560																																												
PRIVATE	QLD	RAMSAY CLINIC NEW FARM	0055620F	22 SARGENT STREET	NEW FARM	4005																																												
PRIVATE	NSW	RAMSAY CLINIC NORTHSIDE	0016770B	2 FREDERICK STREET	ST LEONARDS	2065																																												
PRIVATE	NSW	RAMSAY CLINIC THIRROUL	0016410F	72 PHILLIP STREET	THIRROUL	2515																																												
PRIVATE	NSW	RAMSAY CLINIC WENTWORTHVILLE 	0016050L	23-27 LYTTON STREET	WENTWORTHVILLE	2145																																												
PRIVATE	SA	RAMSAY DAY CLINIC KAHLYN	0065680Y	40 BRIANT ROAD	MAGILL	5072																																												
PRIVATE	QLD	RAMSAY SURGICAL CENTRE CAIRNS	0887521H	156-160 GRAFTON STREET	CAIRNS	4870																																												
PRIVATE	NSW	RAMSAY SURGICAL CENTRE COFFS HARBOUR	0017670Y	69 ALBANY STREET	COFFS HARBOUR	2450																																												
PRIVATE	VIC	RAMSAY SURGICAL CENTRE GLENFERRIE 	0036840W	29 HILDA CRESCENT	HAWTHORN	3122																																												
PRIVATE	NSW	RAMSAY SURGICAL CENTRE MIRANDA	0027450W	"LEVEL 3, 533 KINGSWAY"	MIRANDA	2228																																												
PRIVATE	NSW	RAMSAY SURGICAL CENTRE ORANGE	0017640F	"LEVEL 3 & 4, 1521 FOREST ROAD "	ORANGE	2800																																												
PUBLIC	WA	RAVENSTHORPE HOSPITAL	0070980K	MARTIN STREET	RAVENSTHORPE	6346																																												
PUBLIC	QLD	REDCLIFFE HOSPITAL	0051110T	ANZAC AVENUE	REDCLIFFE	4020																																												
PUBLIC	QLD	REDLAND HOSPITAL	0051720K	21 WEIPPIN STREET	CLEVELAND	4163																																												
PRIVATE	NSW	REGIONAL IMAGING CARDIOVASCULAR CENTRE	0999251T	"CALVARY HOSPITAL, 36, HARDY AVENUE"	WAGGA WAGGA	2650																																												
PUBLIC	SA	RENMARK PARINGA DISTRICT HOSPITAL	0060490A	RAL RAL AVENUE	RENMARK	5341																																												
PRIVATE	SA	REPROMED DAY SURGERY	0067080H	180 FULLARTON ROAD	DULWICH	5065																																												
PRIVATE	VIC	RESERVOIR PRIVATE HOSPITAL DAY PROCEDURE CENTRE	0036460H	73-75 PINE STREET	RESERVOIR	3073																																												
PUBLIC	QLD	RICHMOND HOSPITAL	0051120L	GALLAGHER DRIVE	RICHMOND	4822																																												
PRIVATE	VIC	RINGWOOD PRIVATE HOSPITAL	0036430L	36 MOUNT DANDENONG ROAD	EAST RINGWOOD	3135																																												
PRIVATE	QLD	RIVERCITY PRIVATE HOSPITAL	0056040W	"FLOOR 2, 401 MILTON ROAD"	AUCHENFLOWER	4066																																												
PRIVATE	NSW	RIVERINA CANCER CARE CENTRE	0027060J	31 MEURANT AVENUE	WAGGA WAGGA	2650																																												
PRIVATE	NSW	RIVERINA DAY SURGERY	0027410B	2-6 MEURANT AVENUE	WAGGA WAGGA	2650																																												
PUBLIC	SA	RIVERLAND GENERAL HOSPITAL	0060080X	24 MADDERN STREET	BERRI	5343																																												
PUBLIC	SA	RIVERTON HOSPITAL	0060500T	23 MOORHOUSE TERRACE	RIVERTON	5412																																												
PUBLIC	QLD	ROBINA HOSPITAL	0051940Y	2 BAYBERRY LANE	ROBINA	4226																																												
PRIVATE	QLD	ROBINA PRIVATE HOSPITAL	0056170H	1 BAYBERRY LANE	ROBINA	4226																																												
PUBLIC	VIC	ROBINVALE DISTRICT HEALTH SERVICES - MANANGATANG CAMPUS	0030660B	37 PIONEER STREET	MANANGATANG	3546																																												
PUBLIC	VIC	ROBINVALE DISTRICT HEALTH SERVICES - ROBINVALE CAMPUS	0031000J	128-132 LATJE ROAD	ROBINVALE	3549																																												
PUBLIC	VIC	ROCHESTER AND ELMORE DISTRICT HEALTH SERVICE	0031010H	1 PASCOE STREET	ROCHESTER	3561																																												
PUBLIC	QLD	ROCKHAMPTON BASE HOSPITAL	0051130K	8 CANNING STREET 	ROCKHAMPTON	4700																																												
PRIVATE	WA	ROCKINGHAM DIALYSIS CLINIC	0077250K	LEVEL 1/35 MCNICHOLL STREET	ROCKINGHAM 	6168																																												
PUBLIC	WA	ROCKINGHAM GENERAL HOSPITAL	0071490Y	ELANORA DRIVE	COOLOONGUP	6168																																												
PRIVATE	QLD	RODERICK STREET DAY SURGERY	0999941K	23 RODERICK STREET	IPSWICH	4305																																												
PUBLIC	WA	ROEBOURNE HOSPITAL	0070710K	42-44 HAMPTON STREET	ROEBOURNE	6718																																												
PUBLIC	QLD	ROMA HOSPITAL	0051140J	197-234 MCDOWALL STREET	ROMA	4455																																												
PRIVATE	NSW	ROSEBERY DAY SURGERY	0658011A	308 GARDENERS ROAD	ROSEBERY	2018																																												
PRIVATE	VIC	ROSEBUD DAY HOSPITAL	0044170W	29-31 BONEO ROAD	ROSEBUD	3939																																												
PRIVATE	VIC	ROSEBUD ENDOSCOPY	0044160X	20 BONEO ROAD	ROSEBUD  	3939																																												
PUBLIC	VIC	ROSEBUD HOSPITAL	0030360T	1527 POINT NEPEAN ROAD	ROSEBUD	3939																																												
PRIVATE	NSW	ROSEMONT ENDOSCOPY CENTRE	0656281W	56 ROSEMONT STREET	WOLLONGONG	2500																																												
PUBLIC	SA	ROXBY DOWNS HOSPITAL	0060860L	16-28 BURGOYNE STREET	ROXBY DOWNS	5725																																												
PUBLIC	QLD	ROYAL BRISBANE & WOMENS HOSPITAL	0050180J	BUTTERFIELD STREET	HERSTON	4029																																												
PUBLIC	NT	ROYAL DARWIN HOSPITAL	0095070Y	ROCKLANDS DRIVE	TIWI	0810																																												
PUBLIC	TAS	ROYAL HOBART HOSPITAL	0080060L	48 LIVERPOOL STREET	HOBART	7000																																												
PUBLIC	NSW	ROYAL HOSPITAL FOR WOMEN	0010070L	BARKER STREET	RANDWICK	2031																																												
PUBLIC	VIC	ROYAL MELBOURNE HOSPITAL - CITY CAMPUS	0031030B	300 GRATTAN STREET	PARKVILLE	3050																																												
PUBLIC	VIC	ROYAL MELBOURNE HOSPITAL - ROYAL PARK CAMPUS	0031860J	34-54 POPLAR ROAD	PARKVILLE	3052																																												
PUBLIC	NSW	ROYAL NORTH SHORE HOSPITAL	0010310L	1 RESERVE ROAD	ST LEONARDS	2065																																												
PUBLIC	WA	ROYAL PERTH HOSPITAL	0070000X	WELLINGTON STREET	PERTH	6000																																												
PUBLIC	NSW	ROYAL PRINCE ALFRED HOSPITAL	0010320K	50 MISSENDEN ROAD	CAMPERDOWN	2050																																												
PRIVATE	NSW	ROYAL REHAB PRIVATE PETERSHAM	0015310W	275 ADDISON ROAD	PETERSHAM	2049																																												
PRIVATE	NSW	ROYAL REHAB PRIVATE RYDE	0017490B	235 MORRISON ROAD	RYDE	2112																																												
PUBLIC	NSW	ROYAL REHABILITATION HOSPITAL - COORABEL/MOORONG	0012600J	227-259 MORRISON ROAD	RYDE	2112																																												
PUBLIC	VIC	ROYAL TALBOT REHABILITATION CENTRE	0031600H	1 YARRA BOULEVARD	KEW	3101																																												
PUBLIC	VIC	RURAL NORTHWEST HEALTH - HOPETOUN CAMPUS	0035360X	12 MITCHELL PLACE	HOPETOUN	3396																																												
PUBLIC	VIC	RURAL NORTHWEST HEALTH - WARRACKNABEAL CAMPUS	0031270J	18 DIMBOOLA ROAD	WARRACKNABEAL	3393																																												
PUBLIC	NSW	RYDE HOSPITAL	0010390X	DENISTONE ROAD	EASTWOOD	2122																																												
PUBLIC	NSW	RYLSTONE DISTRICT HOSPITAL	0012010J	24 FITZGERALD STREET	RYLSTONE	2849																																												
PUBLIC	NSW	SACRED HEART HEALTH SERVICE	0010400K	170 DARLINGHURST ROAD	DARLINGHURST	2010																																												
PRIVATE	QLD	SAMFORD ROAD DAY HOSPITAL	0057230B	383-391 SAMFORD ROAD	GAYTHORNE	4051																																												
PUBLIC	VIC	SANDRINGHAM HOSPITAL	0031470A	193 BLUFF ROAD	SANDRINGHAM	3191																																												
PUBLIC	QLD	SARINA HOSPITAL	0051410B	1 HOSPITAL STREET	SARINA	4737																																												
PUBLIC	NSW	"SCOTT MEMORIAL HOSPITAL, SCONE"	0012050A	STAFFORD STREET	SCONE	2337																																												
PRIVATE	SA	SEAFORD DAY SURGERY 	0067260B	4 VISTA PARADE	SEAFORD HEIGHTS	5169																																												
PUBLIC	VIC	SEYMOUR HEALTH	0031070W	1 BRETTONEAUX STREET	SEYMOUR	3660																																												
PUBLIC	NSW	SHELLHARBOUR HOSPITAL	0010060T	15-17 MADIGAN BOULEVARDE	MOUNT WARRIGAL	2528																																												
PRIVATE	NSW	SHELLHARBOUR PRIVATE HOSPITAL	0016800L	27 CAPTAIN COOK DRIVE	BARRACK HEIGHTS	2528																																												
PRIVATE	VIC	SHEPPARTON PRIVATE HOSPITAL	0036550F	20 FITZGERALD STREET	SHEPPARTON	3630																																												
PUBLIC	NSW	SHOALHAVEN DISTRICT MEMORIAL HOSPITAL	0012060Y	2 SHOALHAVEN STREET	NOWRA	2541																																												
PRIVATE	QLD	SHORT STREET DAY SURGERY	0057010T	2 SHORT STREET	SOUTHPORT	4215																																												
PRIVATE	NSW	SIGHT FOUNDATION THEATRE	0027240F	"SYDNEY EYE HOSPITAL, LEVEL 3 CLINICAL BUILDING, 8 MACQUARIE STREET"	SYDNEY	2000																																												
PUBLIC	NSW	SINGLETON DISTRICT HOSPITAL	0012070X	LOT 20 DANGAR ROAD	SINGLETON	2330																																												
PUBLIC	WA	SIR CHARLES GAIRDNER HOSPITAL	0070990J	HOSPITAL AVENUE	NEDLANDS	6009																																												
PRIVATE	VIC	SIR JOHN MONASH PRIVATE HOSPITAL	0036730A	"1ST FLOOR, 212-220 CLAYTON ROAD"	CLAYTON	3168																																												
PRIVATE	VIC	SKIN CANCER DAY SURGERY	0036870K	19 CLEVELAND ROAD	ASHWOOD	3147																																												
PRIVATE	VIC	SKIN HEALTH INSTITUTE	0044050B	"LEVEL 1, 80 DRUMMOND STREET"	CARLTON	3053																																												
PRIVATE	WA	SLEEPMED HEALTHCARE	0077200Y	78 FARRINGTON ROAD	LEEMING	6149																																												
PRIVATE	NSW	SMITHFIELD ENDOSCOPY CENTRE	0027670F	888 THE HORSLEY DRIVE	SMITHFIELD	2164																																												
PUBLIC	TAS	SMITHTON DISTRICT HOSPITAL	0080200W	74 BRITTONS ROAD	SMITHTON	7330																																												
PUBLIC	SA	SNOWTOWN HOSPITAL	0060510L	8 SOUTH TERRACE	SNOWTOWN	5520																																												
PRIVATE	ACT	SOLE VITA SURGERY	0097010W	7 PHIPPS CLOSE	DEAKIN	2600																																												
PRIVATE	NSW	SOMERSET PRIVATE HOSPITAL	0017660A	"LEVEL 1, 38 SOMERSET STREET"	KINGSWOOD	2747																																												
PRIVATE	QLD	SOUTH BRISBANE DAY HOSPITAL	0057410Y	87 IPSWICH ROAD	WOOLLOONGABBA	4102																																												
PRIVATE	QLD	SOUTH COAST DIGESTIVE DISEASES CENTRE	0057210H	86 ASHMORE ROAD	BUNDALL	4217																																												
PUBLIC	SA	SOUTH COAST DISTRICT HOSPITAL	0060550F	56-82 BAY ROAD	VICTOR HARBOR	5211																																												
PRIVATE	NSW	SOUTH COAST PRIVATE	0017460J	112 BURELLI STREET	WOLLONGONG	2500																																												
PUBLIC	NSW	SOUTH EAST REGIONAL HOSPITAL	0010670K	4 VIRGINIA DRIVE	BEGA	2550																																												
PRIVATE	VIC	SOUTH EASTERN PRIVATE HOSPITAL	0036280K	CNR PRINCES HIGHWAY & HEATHERTON ROAD	NOBLE PARK	3174																																												
PUBLIC	VIC	SOUTH GIPPSLAND HOSPITAL	0031090L	87 STATION ROAD	FOSTER	3960																																												
PRIVATE	NSW	SOUTH PACIFIC PRIVATE HOSPITAL	0015930K	24 BEACH STREET	CURL CURL	2096																																												
PRIVATE	WA	SOUTH PERTH HOSPITAL	0075260B	76 SOUTH TERRACE	SOUTH PERTH	6151																																												
PUBLIC	VIC	SOUTH WEST HEALTHCARE - CAMPERDOWN	0030180X	9 ROBINSON STREET	CAMPERDOWN	3260																																												
PUBLIC	VIC	SOUTH WEST HEALTHCARE - WARRNAMBOOL CAMPUS	0031280H	RYOT STREET	WARRNAMBOOL	3280																																												
PRIVATE	NSW	SOUTH WESTERN ENDOSCOPY CENTRE	0889011L	20-22 BIGGE STREET	LIVERPOOL	2170																																												
PRIVATE	VIC	SOUTH YARRA DAY SURGERY	0044250W	"LEVEL 11, 9 YARRA ST"	SOUTH YARRA	3141																																												
PRIVATE	WA	SOUTHBANK DAY SURGERY	0075510A	38 MEADOWVALE AVENUE	SOUTH PERTH	6151																																												
PUBLIC	WA	SOUTHERN CROSS HOSPITAL	0070720J	COOLGARDIE ROAD (GREAT EASTERN HIGHWAY)	SOUTHERN CROSS	6426																																												
PRIVATE	SA	SOUTHERN ENDOSCOPY CENTRE	0067200T	271 BRIGHTON ROAD	SOMERTON PARK	5144																																												
PRIVATE	VIC	SOUTHERN EYE CENTRE DAY SURGERY	0925661J	44 CRANBOURNE ROAD	FRANKSTON	3199																																												
PRIVATE	NSW	SOUTHERN HIGHLANDS PRIVATE HOSPITAL	0017130F	93-95 BOWRAL STREET	BOWRAL	2576																																												
PRIVATE	NSW	SOUTHERN SUBURBS DAY PROCEDURE CENTRE	0026940H	47 REGENT STREET	KOGARAH	2217																																												
PUBLIC	SA	SOUTHERN YORKE PENINSULA HEALTH SERVICES	0060590X	19 WATERLOO BAY ROAD	YORKETOWN	5576																																												
PRIVATE	QLD	SOUTHPORT DAY HOSPITAL	0057370L	98A MARINE PARADE	SOUTHPORT	4215																																												
PRIVATE	NSW	SOUTHSIDE CANCER CARE CENTRE	0027420A	"LEVEL 3, 531-533 THE KINGSWAY"	MIRANDA	2228																																												
PRIVATE	QLD	SOUTHSIDE ENDOSCOPY CENTRE	0999411T	66 BRYANTS ROAD	LOGANHOLME	4129																																												
PRIVATE 	QLD	SOUTHSIDE PROCEDURE CENTRE	0057540K	"SUITE 33, LEVEL 2, 245 McCULLOUGH STREET "	SUNNYBANK	4109																																												
PRIVATE	WA	SPEARWOOD HAEMODIALYSIS UNIT	0075670H	2-6 LANCASTER STREET	SPEARWOOD	6163																																												
PRIVATE	TAS	SPECIALIST CARE AUSTRALIA - CAMPBELL TOWN	0085270H	101 HIGH STREET	CAMPBELL TOWN	7210																																												
PRIVATE	TAS	SPECIALIST CARE AUSTRALIA LAUNCESTON	0087050B	129 WELLINGTON STREET	LAUNCESTON	7250																																												
PRIVATE	TAS	SPECIALIST CARE AUSTRALIA ULVERSTONE	0085250K	35A QUEEN ST 	ULVERSTONE	7315																																												
PRIVATE	VIC	SPECIALIST SURGICENTRE DOCKLANDS	0043770A	"TENANCY 2, 22 RAKAIA WAY"	DOCKLANDS	3008																																												
PRIVATE	VIC	SPECIALIST SURGICENTRE GEELONG	0043840B	200 MALOP STREET	GEELONG	3220																																												
PRIVATE	QLD	SPENDELOVE PRIVATE HOSPITAL	0055990A	24 SPENDELOVE AVENUE	SOUTHPORT	4215																																												
PRIVATE	QLD	SPRING HILL SPECIALIST DAY HOSPITAL	0656641J	"1ST AND 4TH FLOOR, ST ANDREWS PLACE, NORTH STREET"	SPRING HILL	4000																																												
PUBLIC	QLD	SPRINGSURE HOSPITAL	0051190Y	21 WOODBINE STREET	SPRINGSURE	4722																																												
PRIVATE	VIC	SPRINGVALE ENDOSCOPY CENTRE AND DAY HOSPITAL	0894531L	20 BALMORAL AVENUE	SPRINGVALE	3171																																												
PRIVATE 	QLD	SPRINGWOOD DAY SURGERY 	0057620K	52 CINDERELLA DRIVE 	SPRINGWOOD	4127																																												
PUBLIC	NSW	SPRINGWOOD HOSPITAL	0012730Y	7 HUNTLEY GRANGE ROAD	SPRINGWOOD	2777																																												
PRIVATE	VIC	ST ALBANS ENDOSCOPY CENTRE	0043520X	328-330 STATION ROAD	ST ALBANS	3021																																												
PRIVATE	SA	ST ANDREW'S HOSPITAL INC	0065310B	350 SOUTH TERRACE & 321 SOUTH TERRACE 	ADELAIDE	5000																																												
PRIVATE	QLD	ST ANDREW'S IPSWICH PRIVATE HOSPITAL	0055420L	CNR RODERICK AND PRING STREET	IPSWICH	4305																																												
PRIVATE	QLD	ST ANDREW'S TOOWOOMBA HOSPITAL	0055530H	280 NORTH STREET	TOOWOOMBA	4350																																												
PRIVATE	QLD	ST ANDREW'S WAR MEMORIAL HOSPITAL	0055130A	457 WICKHAM TERRACE	BRISBANE	4000																																												
PUBLIC	NSW	ST GEORGE HOSPITAL	0010410J	30 GRAY STREET	KOGARAH	2217																																												
PUBLIC	QLD	ST GEORGE HOSPITAL (QLD)	0051160F	VICTORIA STREET	ST GEORGE	4487																																												
PRIVATE	NSW	ST GEORGE PRIVATE HOSPITAL	0017090X	1 SOUTH STREET	KOGARAH	2217																																												
PUBLIC	VIC	ST GEORGE'S HEALTH SERVICE	0031130Y	283 COTHAM ROAD	KEW	3101																																												
PUBLIC	TAS	ST HELENS DISTRICT HOSPITAL	0080440A	CIRCASSION STREET	ST HELENS	7216																																												
PRIVATE	VIC	ST JOHN OF GOD BALLARAT HOSPITAL	0035800K	101 DRUMMOND STREET NORTH	BALLARAT	3350																																												
PRIVATE	VIC	ST JOHN OF GOD BENDIGO HOSPITAL	0036320X	133-145 LILY STREET	BENDIGO	3550																																												
PRIVATE	VIC	ST JOHN OF GOD BERWICK DAY ONCOLOGY CENTRE	0044070Y	"LEVEL 1, 55 KANGAN DRIVE"	BERWICK	3806																																												
PRIVATE	VIC	ST JOHN OF GOD BERWICK HOSPITAL	0035080F	75 KANGAN DRIVE	BERWICK	3806																																												
PRIVATE	WA	ST JOHN OF GOD BUNBURY HOSPITAL	0075200T	CNR ROBERTSON DRIVE & BUSSELL HIGHWAY	BUNBURY	6230																																												
PRIVATE	NSW	ST JOHN OF GOD BURWOOD HOSPITAL	0016070J	13-21 GRANTHAM STREET	BURWOOD	2134																																												
PRIVATE	VIC	ST JOHN OF GOD FRANKSTON REHABILITATION HOSPITAL	0036810A	255-265 CRANBOURNE ROAD	FRANKSTON	3199																																												
PRIVATE	VIC	ST JOHN OF GOD GEELONG HOSPITAL	0035340A	80 - 83 MYERS STREET	GEELONG	3220																																												
PRIVATE	WA	ST JOHN OF GOD GERALDTON HOSPITAL	0075210L	12 HERMITAGE STREET	GERALDTON	6530																																												
PRIVATE	WA	"ST JOHN OF GOD HOSPITAL, SUBIACO"	0075240H	12 SALVADO ROAD	SUBIACO	6008																																												
PRIVATE	VIC	ST JOHN OF GOD LANGMORE CENTRE 	0036560B	3 GIBB STREET	BERWICK	3806																																												
PRIVATE	WA	ST JOHN OF GOD MIDLAND HEALTH CAMPUS	0075700W	1 CLAYTON STREET	MIDLAND	6056																																												
PRIVATE	WA	ST JOHN OF GOD MT LAWLEY HOSPITAL	0075160H	THIRLMERE ROAD	MOUNT LAWLEY	6050																																												
PRIVATE	WA	ST JOHN OF GOD MURDOCH HOSPITAL	0075480L	100 MURDOCH DRIVE	MURDOCH	6150																																												
PRIVATE	NSW	ST JOHN OF GOD RICHMOND HOSPITAL	0016080H	177 GROSE VALE ROAD	NORTH RICHMOND	2754																																												
PRIVATE	WA	ST JOHN OF GOD SUBIACO EYE HOSPITAL 	0077190H	190 CAMBRIDGE STREET	WEMBLEY	6014																																												
PRIVATE	VIC	ST JOHN OF GOD WARRNAMBOOL HOSPITAL	0035820H	136 BOTANIC ROAD	WARRNAMBOOL	3280																																												
PUBLIC	NSW	ST JOSEPH'S HOSPITAL	0010430F	1 NORMANBY ROAD	AUBURN	2144																																												
PRIVATE	VIC	ST KILDA DAY HOSPITAL	0043810J	26A DICKENS STREET	ELWOOD	3184																																												
PRIVATE	NSW	ST LUKE'S HOSPITAL	0017010L	18 ROSLYN STREET	POTTS POINT	2011																																												
PUBLIC	SA	ST MARGARETS REHABILITATION CENTRE	0060040F	65 MILITARY ROAD	SEMAPHORE	5019																																												
PUBLIC	TAS	ST MARYS COMMUNITY HEALTH CENTRE	0080180F	GARDINERS CREEK ROAD	ST MARYS	7215																																												
PRIVATE	QLD	ST STEPHEN'S HOSPITAL HERVEY BAY	0057320A	1 MEDICAL PLACE	URRAWEEN	4655																																												
PUBLIC	NSW	ST VINCENT'S HOSPITAL (DARLINGHURST)	0010460Y	390 VICTORIA STREET	DARLINGHURST	2010																																												
PUBLIC	NSW	ST VINCENT'S HOSPITAL (LISMORE)	0012040B	DALLEY STREET	LISMORE	2480																																												
PUBLIC	VIC	ST VINCENT'S HOSPITAL (MELBOURNE) LTD	0031140X	41 VICTORIA PARADE	FITZROY	3065																																												
PRIVATE	NSW	ST VINCENT'S PRIVATE COMMUNITY HOSPITAL GRIFFITH	0017550H	41-45 ANIMOO AVENUE	GRIFFITH	2680																																												
PRIVATE	NSW	ST VINCENT'S PRIVATE HOSPITAL (DARLINGHURST)	0016150J	406 VICTORIA STREET	DARLINGHURST	2010																																												
PRIVATE	NSW	ST VINCENT'S PRIVATE HOSPITAL (LISMORE)	0017030J	DALLEY STREET	LISMORE	2480																																												
PRIVATE	QLD	ST VINCENT'S PRIVATE HOSPITAL BRISBANE	0055570Y	411 MAIN STREET	KANGAROO POINT	4169																																												
PRIVATE	VIC	ST VINCENT'S PRIVATE HOSPITAL EAST MELBOURNE	0035500A	159 GREY STREET	EAST MELBOURNE	3002																																												
PRIVATE	VIC	ST VINCENT'S PRIVATE HOSPITAL FITZROY	0036340T	59-61 VICTORIA PARADE	FITZROY	3065																																												
PRIVATE	VIC	ST VINCENT'S PRIVATE HOSPITAL KEW	0036470F	5 STUDLEY AVENUE	KEW	3101																																												
PRIVATE	QLD	ST VINCENT'S PRIVATE HOSPITAL NORTHSIDE	0056000B	627 RODE ROAD	CHERMSIDE	4032																																												
PRIVATE	QLD	ST VINCENT'S PRIVATE HOSPITAL TOOWOOMBA	0055460F	22-36 SCOTT STREET	TOOWOOMBA	4350																																												
PRIVATE	VIC	ST VINCENTS PRIVATE HOSPITAL WERRIBEE	0036980F	240 HOPPERS LANE	WERRIBEE	3030																																												
PUBLIC	QLD	STANTHORPE HOSPITAL	0051200L	8 MCGREGOR TERRACE	STANTHORPE	4380																																												
PUBLIC	VIC	STAWELL REGIONAL HEALTH	0031110B	27-29 SLOANE STREET	STAWELL	3380																																												
PRIVATE	TAS	STEELE STREET CLINIC	0087010K	166 STEELE STREET	DEVONPORT	7310																																												
PRIVATE	WA	STIRLING DIALYSIS CLINIC	0077230T	1 PUCCINI COURT	STIRLING	6021																																												
PRIVATE	SA	STIRLING HOSPITAL INC	0065340X	20 MILAN TERRACE	STIRLING	5152																																												
PRIVATE	VIC	STONNINGTON DAY SURGERY	0043560K	LEVEL 1; 253 WATTLETREE ROAD	MALVERN	3144																																												
PUBLIC	SA	STRATHALBYN AND DISTRICT HEALTH SERVICES	0060520K	14 ALFRED PLACE	STRATHALBYN	5255																																												
PRIVATE	NSW	STRATHFIELD PRIVATE HOSPITAL	0015070W	3 EVERTON ROAD	STRATHFIELD	2135																																												
PUBLIC	SA	STREAKY BAY HOSPITAL	0060530J	1 FLINDERS DRIVE	STREAKY BAY	5680																																												
PRIVATE	WA	SUBIACO PRIVATE HOSPITAL	0075660J	"SUITE 9, 1 SALVADO ROAD"	SUBIACO	6008																																												
PUBLIC	VIC	SUNBURY DAY HOSPITAL	0044020J	7 MACEDON STREET	SUNBURY	3429																																												
PRIVATE	WA	SUNDEW DAY SURGERY	0075720L	24 SUNDEW RISE	JOONDALUP	6027																																												
PRIVATE	QLD	SUNNYBANK PRIVATE HOSPITAL	0055720A	245 MCCULLOUGH STREET	SUNNYBANK	4109																																												
PRIVATE	QLD	SUNSHINE COAST DAY SURGERY	0657801A	CNR MEMORIAL & SECOND AVENUES	MAROOCHYDORE	4558																																												
PRIVATE	QLD	SUNSHINE COAST HAEMATOLOGY AND ONCOLOGY CLINIC	0926591Y	8-10 KING STREET	BUDERIM	4556																																												
PUBLIC	QLD	SUNSHINE COAST UNIVERSITY HOSPITAL	0051960W	6 DOHERTY STREET	BIRTINYA	4575																																												
PRIVATE	QLD	SUNSHINE COAST UNIVERSITY PRIVATE HOSPITAL	0056110X	3 DOHERTY STREET	BIRTINYA	4575																																												
PRIVATE	VIC	SUNSHINE DIALYSIS CLINIC	0044130B	"LEVEL 1, 147-149 FURLONG ROAD"	ST ALBANS	3021																																												
PUBLIC	VIC	SUNSHINE HOSPITAL	0031910T	176 FURLONG ROAD	ST ALBANS	3021																																												
PRIVATE	VIC	SUNSHINE PRIVATE DAY SURGERY	0043530W	145 FURLONG ROAD	ST ALBANS	3021																																												
PRIVATE	VIC	SUNSHINE PRIVATE HOSPITAL	0037090J	145 FURLONG ROAD	ST ALBANS	3021																																												
PUBLIC	QLD	SURAT HOSPITAL	0051210K	LOT 73 IVAN STREET	SURAT	4417																																												
PUBLIC	QLD	SURGICAL TREATMENT AND REHABILITATION SERVICE (STARS)	0051980L	296 HERSTON ROAD 	HERSTON	4029																																												
PRIVATE	NSW	SURRY HILLS DAY HOSPITAL	0027040L	573 CROWN STREET	SURRY HILLS	2010																																												
PRIVATE	NSW	SUTHERLAND HEART CLINIC	0017280L	"LEVEL 2, THE SUTHERLAND HOSPITAL, THE KINGSWAY"	CARINGBAH	2229																																												
PRIVATE	NSW	SWAN CLINIC FOR PLASTIC SURGERY	0027620T	331 THE BOULEVARDE	GYMEA	2227																																												
PUBLIC	WA	SWAN DISTRICTS HOSPITAL	0070950W	EVELINE ROAD	MIDDLE SWAN	6056																																												
PUBLIC	VIC	SWAN HILL DISTRICT HEALTH [SWAN HILL]	0031160T	48 SPLATT STREET	SWAN HILL	3585																																												
PRIVATE	NSW	SYDNEY ADVENTIST HOSPITAL	0016260B	185 FOX VALLEY ROAD	WAHROONGA	2076																																												
PUBLIC	NSW	SYDNEY CHILDREN'S HOSPITAL	0012870J	HIGH STREET	RANDWICK	2031																																												
PRIVATE	NSW	SYDNEY CLINIC FOR GASTROINTESTINAL DISEASES	0657501L	"LEVEL 10, 1 NEWLAND STREET"	BONDI JUNCTION	2022																																												
PRIVATE	NSW	SYDNEY DAY HOSPITAL	0027470L	"LEVEL 1, PARK HOUSE , 187 MACQUARIE STREET"	SYDNEY	2000																																												
PRIVATE	NSW	SYDNEY DAY SURGERY	0027030T	213-219 DARLINGHURST ROAD	DARLINGHURST	2010																																												
PRIVATE	NSW	SYDNEY DAY SURGERY - PRINCE ALFRED	0666411H	"RPAH MEDICAL CENTRE SUITE 106, 100 CARILLON AVENUE"	NEWTOWN	2042																																												
PUBLIC	NSW	SYDNEY HOSPITAL AND SYDNEY EYE HOSPITAL	0010500H	8 MACQUARIE STREET	SYDNEY	2000																																												
PRIVATE	NSW	SYDNEY OCULOPLASTIC SURGERY	0027200L	"LEVEL 7, 229 MACQUARIE STREET"	SYDNEY	2000																																												
PRIVATE	NSW	SYDNEY PAIN DAY SURGERY	0027640K	"SUITE 3, 44-46 OXFORD STREET"	EPPING	2121																																												
PRIVATE	NSW	SYDNEY RETINA CLINIC & DAY SURGERY	0027140J	"LEVEL 13, 187 MACQUARIE STREET"	SYDNEY	2000																																												
PRIVATE	NSW	SYDNEY SOUTHWEST PRIVATE HOSPITAL	0016910H	32-40 BIGGE STREET	LIVERPOOL	2170																																												
PRIVATE	NSW	SYDNEY SPECIALIST DAY HOSPITAL	0656931Y	"SUITE 501, 7 HELP STREET"	CHATSWOOD	2067																																												
PRIVATE	NSW	SYDNEY SURGICAL CENTRE	0027460T	LEVEL 1 166-168 BELMORE ROAD	RANDWICK	2031																																												
PUBLIC	SA	TAILEM BEND HOSPITAL	0060600K	PRINCES HIGHWAY	TAILEM BEND	5260																																												
PUBLIC	VIC	TALLANGATTA HEALTH SERVICE	0031170L	25 BARREE STREET	TALLANGATTA	3700																																												
PRIVATE	NSW	TAMARA PRIVATE HOSPITAL	0016700W	2-6 DEAN STREET	TAMWORTH	2340																																												
PUBLIC	NSW	TAMWORTH RURAL REFERRAL HOSPITAL	0012090T	31 DEAN STREET	TAMWORTH	2340																																												
PUBLIC	SA	TANUNDA HOSPITAL	0060830X	15 MILL STREET	TANUNDA	5352																																												
PUBLIC	QLD	TARA HOSPITAL	0051230H	15 BILTON STREET	TARA	4421																																												
PUBLIC	QLD	TAROOM HOSPITAL	0051240F	MILLER STREET	TAROOM	4420																																												
PRIVATE	QLD	TASMAN HEALTH CARE DAY INFUSION UNIT	0057480H	"SUITE 3B & 8, LEVEL 3, 123 NERANG STREET"	SOUTHPORT	4215																																												
PUBLIC	TAS	TASMAN MULTI-PURPOSE CENTRE	0085200Y	MAIN ROAD	NUBEENA	7184																																												
PUBLIC	NSW	TEMORA HOSPITAL	0012100H	168-182 LOFTUS STREET 	TEMORA	2666																																												
PRIVATE	VIC	TEMPLESTOWE DAY SURGERY	0044280K	2/114 JAMES STREET	TEMPLESTOWE	3106																																												
PUBLIC	NT	TENNANT CREEK HOSPITAL	0095040F	41 SCHMIDT STREET	TENNANT CREEK	0860																																												
PUBLIC	VIC	TERANG & MORTLAKE HEALTH SERVICE	0030820B	13 AUSTIN AVENUE	TERANG	3264																																												
PUBLIC	QLD	TEXAS HOSPITAL MULTIPURPOSE HEALTH SERVICE	0051250B	MINGOOLA ROAD	TEXAS	4385																																												
PUBLIC	VIC	THE ALFRED	0030020L	55 COMMERCIAL ROAD	PRAHRAN	3004																																												
PRIVATE	VIC	THE AVENUE PRIVATE HOSPITAL	0036440K	40 THE AVENUE	WINDSOR	3181																																												
PRIVATE	VIC	THE BAYS HOSPITAL	0035400F	"VALE STREET (MAIN CAMPUS) & 
86 VICTORIA STREET, HASTINGS "	MORNINGTON	3931																																												
PRIVATE	NSW	THE BORDER CANCER HOSPITAL	0017540J	201-239 BORELLA ROAD	ALBURY	2640																																												
PUBLIC	ACT	THE CANBERRA HOSPITAL	0090030B	77 YAMBA DRIVE	GARRAN	2605																																												
PRIVATE	NSW	THE CATARACT CLINIC (AUST)	0026900T	1 MCCLAREN STREET	NORTH SYDNEY	2060																																												
PUBLIC	NSW	THE CHILDREN'S HOSPITAL AT WESTMEAD	0010300T	178 HAWKESBURY ROAD	WESTMEAD	2145																																												
PRIVATE	VIC	THE DIGESTIVE HEALTH CENTRE	0656701L	90 DAVID STREET	DANDENONG	3175																																												
PRIVATE	TAS	THE EYE HOSPITAL	0834321J	262 CHARLES STREET	LAUNCESTON	7250																																												
PUBLIC	NSW	THE FORENSIC HOSPITAL	0012860K	1300 ANZAC PARADE	MALABAR	2036																																												
PRIVATE	VIC	THE GEELONG CLINIC	0036590X	98 TOWNSEND ROAD	ST ALBANS PARK	3219																																												
PRIVATE	NSW	THE GEORGE CENTRE	0017700J	1A & 1B THE HERMITAGE WAY	GLEDSWOOD HILLS	2557																																												
PRIVATE	VIC	THE GLEN ENDOSCOPY CENTRE	0043580H	302 SPRINGVALE ROAD	GLEN WAVERLEY	3150																																												
PRIVATE	VIC	THE HADER CLINIC	0037020A	6-8 TOWNSEND ROAD	ST ALBANS PARK	3219																																												
PRIVATE	NSW	THE HILLS CLINIC	0017410X	3 MCCAUSLAND PLACE	KELLYVILLE	2155																																												
PRIVATE	NSW	THE HILLS PRIVATE HOSPITAL	0017320Y	499 WINDSOR ROAD	BAULKHAM HILLS	2153																																												
PRIVATE	TAS	THE HOBART CLINIC	0085130X	31 CHIPMANS ROAD	ROKEBY	7019																																												
PUBLIC	VIC	THE KILMORE AND DISTRICT HOSPITAL	0030560H	RUTLEDGE STREET	KILMORE	3764																																												
PRIVATE	VIC	THE MELBOURNE CLINIC	0036520K	130 CHURCH STREET	RICHMOND	3121																																												
PRIVATE	VIC	THE MELBOURNE EASTERN PRIVATE HOSPITAL	0036570A	157 SCORESBY ROAD	BORONIA	3155																																												
PUBLIC	VIC	THE MORNINGTON CENTRE	0032110W	CNR TYALLA GROVE & SEPARATION STREET	MORNINGTON	3931																																												
PUBLIC	VIC	THE NORTHERN HOSPITAL	0030940W	185 COOPER STREET	EPPING	3076																																												
PUBLIC	QLD	THE PARK - CENTRE FOR MENTAL HEALTH	0051850A	CRN ELLERTON DRIVE & WOLSTON PARK ROAD	WACOL	4076																																												
PRIVATE	WA	THE PARK PRIVATE HOSPITAL	0075110W	14 ALVAN STREET	MOUNT LAWLEY	6050																																												
PUBLIC	QLD	THE PRINCE CHARLES HOSPITAL	0051400F	627 RODE ROAD	CHERMSIDE	4032																																												
PUBLIC	VIC	THE QUEEN ELIZABETH CENTRE	0030960L	53 THOMAS STREET	NOBLE PARK	3174																																												
PUBLIC	SA	THE QUEEN ELIZABETH HOSPITAL	0060010K	28 WOODVILLE ROAD	WOODVILLE	5011																																												
PUBLIC	SA	THE ROYAL ADELAIDE HOSPITAL	0060030H	"PORT ROAD, ADELAIDE SA 5000 & 207-235 HAMPSTEAD ROAD, LIGHTSVIEW SA 5085 & 237 HAMPSTEAD ROAD, NORTHFIELD SA 5085 & 216 DAWS ROAD, DAW PARK  SA 5041"	ADELAIDE	5000																																												
PUBLIC	VIC	THE ROYAL CHILDRENS HOSPITAL	0031020F	50 FLEMINGTON ROAD	PARKVILLE	3052																																												
PUBLIC	VIC	THE ROYAL VICTORIAN EYE AND EAR HOSPITAL	0031240T	32 GISBORNE STREET	EAST MELBOURNE	3002																																												
PUBLIC	VIC	THE ROYAL WOMEN'S HOSPITAL	0031040A	20 FLEMINGTON ROAD	PARKVILLE	3052																																												
PRIVATE	NSW	THE SAN DAY SURGERY	0017150A	1A NORTHCOTE ROAD	HORNSBY	2077																																												
PRIVATE	NSW	THE SKIN HOSPITAL	0834361A	7 ASHLEY LANE	WESTMEAD	2145																																												
PRIVATE	NSW	THE SKIN HOSPITAL (DARLINGHURST)	0027380T	121 CROWN STREET	DARLINGHURST	2010																																												
PRIVATE	QLD	THE SOUTHPORT PRIVATE HOSPITAL	0056180F	21 SPENDELOVE AVENUE	SOUTHPORT	4215																																												
PUBLIC	NSW	THE SUTHERLAND HOSPITAL	0010480W	430 KINGSWAY	CARINGBAH	2229																																												
PRIVATE	NSW	THE SYDNEY CLINIC	0016630T	22-24 MURRAY STREET	BRONTE	2024																																												
PRIVATE	NSW	THE SYDNEY PRIVATE HOSPITAL	0015770K	63 VICTORIA STREET	ASHFIELD	2131																																												
PRIVATE	SA	THE TENNYSON CENTRE DAY HOSPITAL	0067130L	"TENANCY 18, LEVEL 1, 520 SOUTH ROAD"	KURRALTA PARK	5037																																												
PRIVATE	QLD	THE TOOWOOMBA CLINIC	0056210T	18 PECHEY STREET	SOUTH TOOWOOMBA	4350																																												
PRIVATE	VIC	THE VICTORIA CLINIC	0036170W	324 MALVERN ROAD	PRAHRAN	3181																																												
PRIVATE	VIC	THE VICTORIAN REHABILITATION CENTRE	0036640B	499 SPRINGVALE ROAD	GLEN WAVERLEY	3150																																												
PRIVATE	QLD	THE WESLEY HOSPITAL	0055690L	451 CORONATION DRIVE	AUCHENFLOWER	4066																																												
PUBLIC	QLD	THEODORE HOSPITAL	0051270Y	85 THE BOULEVARD	THEODORE	4719																																												
PUBLIC	VIC	THOMAS EMBLING HOSPITAL	0032010Y	YARRA BEND ROAD	FAIRFIELD	3078																																												
PUBLIC	QLD	THURSDAY ISLAND HOSPITAL	0051280X	93 VICTORIA PARADE	THURSDAY ISLAND	4875																																												
PUBLIC	NSW	TIBOOBURRA HEALTH SERVICE	0012120B	STURT STREET	TIBOOBURRA	2880																																												
PUBLIC	VIC	TIMBOON & DISTRICT HEALTHCARE SERVICE	0031200A	21 HOSPITAL ROAD	TIMBOON	3268																																												
PUBLIC	NSW	TINGHA MULTIPURPOSE SERVICE	0012130A	INVERELL ROAD	TINGHA	2369																																												
PUBLIC	NSW	TOCUMWAL HOSPITAL	0012140Y	ADAMS STREET	TOCUMWAL	2714																																												
PUBLIC	WA	TOM PRICE HOSPITAL	0071140Y	862 MINE ROAD	TOM PRICE	6751																																												
PUBLIC	NSW	TOMAREE COMMUNITY HOSPITAL	0010000F	2 TREVALLY STREET	NELSON BAY	2315																																												
PUBLIC	TAS	TOOSEY AGED AND COMMUNITY CARE	0080150K	10 ARCHER STREET	LONGFORD	7301																																												
PRIVATE	QLD	TOOWONG PRIVATE HOSPITAL	0055670W	496 MILTON ROAD	TOOWONG	4066																																												
PRIVATE	QLD	TOOWOOMBA HOSPICE	0056030X	57B O'QUINN STREET	TOOWOOMBA	4350																																												
PUBLIC	QLD	TOOWOOMBA HOSPITAL	0051290W	PECHEY STREET	TOOWOOMBA	4350																																												
PRIVATE	QLD	TOOWOOMBA PRIVATE DAY HOSPITAL	0057560H	20 GOGGS STREET	TOOWOOMBA	4350																																												
PRIVATE	QLD	TOOWOOMBA SURGICENTRE	0656571H	18 SCOTT STREET	TOOWOOMBA	4350																																												
PRIVATE	NSW	TORONTO PRIVATE HOSPITAL	0016480L	CARY STREET	TORONTO	2283																																												
PUBLIC	NSW	TOTTENHAM HOSPITAL	0012150X	LOT 10 MOONDANA STREET	TOTTENHAM	2873																																												
PRIVATE	QLD	TOWNSVILLE DAY SURGERY	0057240A	"1 MARTINEZ AVENUE, WEST END"	TOWNSVILLE	4810																																												
PRIVATE	QLD	TOWNSVILLE PRIVATE CLINIC	0056140L	136-146 WILLS STREET	TOWNSVILLE CITY	4810																																												
PUBLIC	QLD	TOWNSVILLE UNIVERSITY HOSPITAL	0051840B	100 ANGUS SMITH DRIVE	DOUGLAS	4814																																												
PUBLIC	NSW	TRANGIE MULTI PURPOSE HEALTH SERVICE	0012160W	1 HARRIS STREET	TRANGIE	2823																																												
PUBLIC	NSW	TRESILLIAN FAMILY CARE CENTRE - BELMORE	0010350F	11 MCKENZIE STREET	BELMORE	2192																																												
PUBLIC	NSW	TRESILLIAN FAMILY CARE CENTRE - WILLOUGHBY	0010370A	2 SECOND AVENUE	WILLOUGHBY	2068																																												
PUBLIC	NSW	TRESILLIAN FAMILY CARE CENTRE - WOLLSTONECRAFT	0012810Y	25 SHIRLEY ROAD	WOLLSTONECRAFT	2065																																												
PUBLIC	NSW	TRUNDLE MULTI PURPOSE SERVICE	0012580X	44 BROOKVIEW STREET	TRUNDLE	2875																																												
PRIVATE	NSW	TUGGERAH LAKES PRIVATE HOSPITAL	0017600L	645 PACIFIC HIGHWAY	KANWAL	2259																																												
PUBLIC	NSW	TULLAMORE MULTI PURPOSE HEALTH SERVICE	0012170T	1 HINKLER STREET	TULLAMORE	2874																																												
PUBLIC	QLD	TULLY HOSPITAL	0051310H	17 BRYANT STREET	TULLY	4854																																												
PUBLIC	NSW	TUMBARUMBA MULTI PURPOSE SERVICE	0012180L	4 MITCHELL STREET	TUMBARUMBA	2653																																												
PUBLIC	SA	TUMBY BAY HOSPITAL	0060540H	8-11 ESPLANADE	TUMBY BAY	5605																																												
PUBLIC	NSW	TUMUT DISTRICT HOSPITAL	0012190K	105 SIMPSON STREET	TUMUT	2720																																												
PUBLIC	VIC	TWEDDLE CHILD AND FAMILY HEALTH SERVICE	0031220X	53 ADELAIDE STREET	FOOTSCRAY	3011																																												
PRIVATE	NSW	TWEED DAY SURGERY	0999441J	"SUITE 4, 38-44 BOYD STREET"	TWEED HEADS	2485																																												
PUBLIC	NSW	TWEED VALLEY HOSPITAL	0012690L	771 CUDGEN ROAD	CUDGEN	2487																																												
PRIVATE	NSW	ULLADULLA ENDOSCOPY & MEDICAL CENTRE	0027260A	111 PRINCES HIGHWAY	ULLADULLA	2539																																												
PUBLIC	ACT	UNIVERSITY OF CANBERRA HOSPITAL	0090050Y	20 GURAGUMA STREET 	BRUCE	2617																																												
PUBLIC	VIC	UPPER MURRAY HEALTH AND COMMUNITY SERVICES	0030290L	20 KIELL STREET	CORRYONG	3707																																												
PUBLIC	NSW	URANA HEALTH SERVICE	0011620L	127-129 PRINCESS ST	URANA	2645																																												
PUBLIC	NSW	URBENVILLE HEALTH SERVICE	0012230X	45 BEAURY STREET	URBENVILLE	2475																																												
PRIVATE	VIC	VERMONT PRIVATE HOSPITAL	0036970H	LEVEL 2/645-647 BURWOOD HIGHWAY	VERMONT SOUTH	3133																																												
PRIVATE	SA	VICTOR HARBOR PRIVATE HOSPITAL	0065860W	56-74 BAY ROAD	VICTOR HARBOR	5211																																												
PRIVATE	VIC	VICTORIA PARADE SURGERY CENTRE	0043860Y	"LEVEL 1, 100 VICTORIA PARADE"	EAST MELBOURNE	3002																																												
PRIVATE	NSW	VICTORIA STREET PRIVATE HOSPITAL 	0017720F	"LEVEL 1, 2 VICTORIA STREET "	WOLLONGONG 	2500																																												
PRIVATE	VIC	VICTORIAN CENTRE FOR MENTAL HEALTH	0044200F	112-116/445 PRINCES HWY	OFFICER	3809																																												
PRIVATE	VIC	VICTORIAN GUT CENTRE BUNDOORA	0043920B	119 PLENTY ROAD	BUNDOORA	3083																																												
PUBLIC	VIC	VICTORIAN HEART HOSPITAL	0032180B	631 BLACKBURN ROAD	CLAYTON	3168																																												
PRIVATE	QLD	VISION CENTRE DAY SURGERY	0057090Y	95 NERANG STREET	SOUTHPORT	4215																																												
PRIVATE	SA	VISTA DAY SURGERY	0067160H	57 GREENHILL ROAD	WAYVILLE	5034																																												
PRIVATE	VIC	VSC DAY SURGERY	0044260T	"LEVEL 1, 268 MANNINGHAM ROAD"	TEMPLESTOWE LOWER	3107																																												
PUBLIC	NSW	WAGGA WAGGA RURAL REFERRAL HOSPITAL	0012250T	260-280 EDWARD STREET	WAGGA WAGGA	2650																																												
PUBLIC	WA	WAGIN HOSPITAL	0070740F	WARWICK STREET	WAGIN	6315																																												
PUBLIC	SA	WAIKERIE HEALTH SERVICES	0060560B	1 LAWRIE TERRACE	WAIKERIE	5330																																												
PRIVATE	WA	WAIKIKI PRIVATE HOSPITAL	0075500B	221 WILLMOT DRIVE	WAIKIKI	6169																																												
PUBLIC	NSW	WALCHA MULTIPURPOSE SERVICE	0012270K	11 MIDDLE STREET	WALCHA	2354																																												
PRIVATE	WA	WALCOTT STREET SURGICAL CENTRE	0077150T	41 WALCOTT STREET	MOUNT LAWLEY	6050																																												
PUBLIC	NSW	WALGETT HEALTH SERVICE	0012280J	141 FOX STREET	WALGETT	2832																																												
PUBLIC	SA	WALLAROO HOSPITAL	0060570A	1 ERNEST TERRACE	WALLAROO	5556																																												
PRIVATE 	QLD	WANDI NERIDA	0056240J	228 OLD GYMPIE ROAD 	MOOLOOLAH VALLEY	4553																																												
PRIVATE	VIC	WANGARATTA PRIVATE HOSPITAL	0036690T	134-150 TEMPLETON STREET	WANGARATTA	3677																																												
PUBLIC	VIC	WANTIRNA HEALTH	0032000A	251 MOUNTAIN HIGHWAY	WANTIRNA	3152																																												
PUBLIC	NSW	WAR MEMORIAL HOSPITAL	0012590W	125 BIRRELL STREET	WAVERLEY	2024																																												
PRIVATE	NSW	WARATAH PRIVATE HOSPITAL	0017390H	"LEVEL 1, 31 DORA STREET"	HURSTVILLE	2220																																												
PUBLIC	NSW	WARIALDA MULTIPURPOSE SERVICE	0012300Y	LONG STREET	WARIALDA	2402																																												
PRIVATE	NSW	WARNERS BAY PRIVATE HOSPITAL	0016880X	FAIRFAX ROAD	WARNERS BAY	2282																																												
PUBLIC	WA	WARREN HOSPITAL	0070470K	HOSPITAL AVENUE	MANJIMUP	6258																																												
PUBLIC	NSW	WARREN MULTI PURPOSE HEALTH SERVICE	0012310X	LOT 176 DR KATER DRIVE	WARREN	2824																																												
PRIVATE	NSW	WARRINGAH DAY SURGERY	0656991J	10 DALE STREET	BROOKVALE	2100																																												
PRIVATE	VIC	WARRINGAL PRIVATE HOSPITAL	0036490A	216 BURGUNDY STREET; LEVEL 2/10 MARTIN STREET; & LEVEL 1/8 MARTIN STREET	HEIDELBERG	3084																																												
PUBLIC	QLD	WARWICK HOSPITAL	0051340A	56 LOCKE STREET	WARWICK	4370																																												
PUBLIC	NSW	WAUCHOPE DISTRICT MEMORIAL HOSPITAL	0012320W	69 HIGH STREET	WAUCHOPE	2446																																												
PRIVATE	VIC	WAVERLEY ENDOSCOPY	0657311X	301 BLACKBURN ROAD	MOUNT WAVERLEY	3149																																												
PRIVATE	VIC	WAVERLEY PRIVATE HOSPITAL	0036360K	343-357 BLACKBURN ROAD	MOUNT WAVERLEY	3149																																												
PUBLIC	NSW	WEE WAA COMMUNITY HOSPITAL	0012330T	60 ALMA STREET	WEE WAA	2388																																												
PUBLIC	QLD	WEIPA HOSPITAL	0051520X	LOT 407 JOHN EVANS DRIVE	WEIPA	4874																																												
PUBLIC	NSW	WELLINGTON HEALTH SERVICE	0012350K	30 THORNTON STREET	WELLINGTON	2820																																												
PUBLIC	NSW	WENTWORTH DISTRICT HOSPITAL	0012360J	SILVER CITY HIGHWAY	WENTWORTH	2648																																												
PUBLIC	VIC	WERRIBEE MERCY HOSPITAL	0031870H	300 PRINCES HIGHWAY	WERRIBEE	3030																																												
PUBLIC	VIC	WERRIBEE MERCY MENTAL HEALTH PROGRAM	0032120T	298 PRINCES HIGHWAY	WERRIBEE	3030																																												
PUBLIC	NSW	WERRIS CREEK COMMUNITY HOSPITAL	0012370H	22-34 NORTH STREET	WERRIS CREEK	2341																																												
PRIVATE	NSW	WESLEY HOSPITAL ASHFIELD	0016210L	91 MILTON STREET	ASHFIELD	2131																																												
PRIVATE	NSW	WESLEY HOSPITAL KOGARAH	0016230J	7 BLAKE STREET	KOGARAH	2217																																												
PRIVATE	QLD	WESLEY HYPERBARIC	0928171B	"GROUND FLOOR, SANDFORD JACKSON BUILDING,  CHASELY STREET"	AUCHENFLOWER	4066																																												
PUBLIC	TAS	WEST COAST DISTRICT HOSPITAL	0080170H	ORR STREET	QUEENSTOWN	7467																																												
PRIVATE	WA	WEST COAST ENDOSCOPY CENTRE	0075640L	1/32 PIMLICO PLACE	JOONDALUP	6027																																												
PRIVATE	WA	WEST COAST SURGICAL INSTITUTE 	0077300W	"SUITE 1, 1140 ALBANY HIGHWAY"	BENTLEY	6102																																												
PRIVATE	VIC	WEST GIPPSLAND ENDOSCOPY CENTRE	0044340T	41 LANDSBOROUGH STREET	WARRAGUL	3820																																												
PUBLIC	VIC	WEST GIPPSLAND HEALTHCARE GROUP	0031310W	41 LANDSBOROUGH STREET	WARRAGUL	3820																																												
PRIVATE	WA	WEST LEEDERVILLE PRIVATE HOSPITAL	0075710T	"LEVEL 3, 2 MCCOURT STREET"	WEST LEEDERVILLE	6007																																												
PUBLIC	VIC	WEST WIMMERA HEALTH SERVICE - JEPARIT	0031370F	2 CHARLES STREET	JEPARIT	3423																																												
PUBLIC	VIC	WEST WIMMERA HEALTH SERVICE - KANIVA	0031900W	9 FARMERS STREET	KANIVA	3419																																												
PUBLIC	VIC	WEST WIMMERA HEALTH SERVICE - NHILL	0031900W	45 NELSON STREET	NHILL	3418																																												
PUBLIC	VIC	WEST WIMMERA HEALTH SERVICE - RAINBOW	0031900W	2 SWINBOURNE AVENUE	RAINBOW	3424																																												
PUBLIC	VIC	WESTERN DISTRICT HEALTH SERVICE - COLERAINE	0030280T	119 MCKEBERY STREET	COLERAINE	3315																																												
PUBLIC	VIC	WESTERN DISTRICT HEALTH SERVICE - HAMILTON	0030490F	20 FOSTER STREET	HAMILTON	3300																																												
PUBLIC	VIC	WESTERN DISTRICT HEALTH SERVICE - PENSHURST	0030890K	146 COBB STREET	PENSHURST	3289																																												
PRIVATE	VIC	WESTERN GASTROENTEROLOGY SERVICES	0656761A	30 ELEANOR STREET	FOOTSCRAY	3011																																												
PRIVATE	WA	WESTERN HAEMATOLOGY AND ONCOLOGY CLINICS	0077280F	18 PROWSE STREET	WEST PERTH	6005																																												
PUBLIC	VIC	WESTERN HEALTH - BACCHUS MARSH	0030070B	29-35 GRANT STREET	BACCHUS MARSH	3340																																												
PUBLIC	VIC	WESTERN HEALTH - MELTON HEALTH	0031970B	195-209 BARRIES ROAD	MELTON WEST	3337																																												
PRIVATE	SA	WESTERN HOSPITAL	0065780W	168 CUDMORE TERRACE	HENLEY BEACH	5022																																												
PUBLIC	VIC	WESTERN HOSPITAL	0031850K	160 GORDON STREET	FOOTSCRAY	3011																																												
PRIVATE	VIC	WESTERN PRIVATE HOSPITAL	0036770T	1-9 MARION STREET	FOOTSCRAY	3011																																												
PRIVATE	NSW	WESTERN SYDNEY PRIVATE ONCOLOGY & INFUSION CENTRE	0027370W	"LEVEL 2, WESTMEAD SPECIALIST CENTRE, 16-18 MONS ROAD"	WESTMEAD	2145																																												
PUBLIC	NSW	WESTMEAD HOSPITAL	0012760T	166-174 DARCY ROAD	WESTMEAD	2145																																												
PRIVATE	NSW	WESTMEAD PRIVATE HOSPITAL	0017240Y	CNR MONS & DARCY ROADS	WESTMEAD	2145																																												
PRIVATE	NSW	WESTMEAD REHABILITATION HOSPITAL	0027210K	7 COLEMAN STREET	MERRYLANDS	2160																																												
PRIVATE	VIC	WESTPOINT ENDOSCOPY DAY HOSPITAL	0043910F	243 HEATHS ROAD	WERRIBEE	3030																																												
PRIVATE	QLD	WESTSIDE PRIVATE HOSPITAL	0056200W	"LEVELS GROUND, 1 & 3, 32 MORROW STREET"	TARINGA	4068																																												
PRIVATE	VIC	WHITEHORSE DAY SURGERY	0834421F	852-856 WHITEHORSE ROAD	BOX HILL	3128																																												
PUBLIC	SA	WHYALLA HOSPITAL	0060610J	20 WOOD TERRACE	WHYALLA	5600																																												
PRIVATE	QLD	WIDE BAY PRIVATE DAY HOSPITAL	0057610L	125 WOONGARRA STREET 	BUNDABERG WEST	4670																																												
PUBLIC	NSW	WILCANNIA HEALTH SERVICE	0012380F	14 ROSS STREET	WILCANNIA	2836																																												
PUBLIC	VIC	WILLIAMSTOWN HOSPITAL	0031340K	77B RAILWAY CRESCENT	WILLIAMSTOWN	3016																																												
PUBLIC	NSW	WILSON MEMORIAL COMMUNITY HOSPITAL	0012390B	59 O'CONNELL STREET	MURRURUNDI	2338																																												
PUBLIC	VIC	WIMMERA HEALTH CARE GROUP - DIMBOOLA	0030330Y	32-36 ANDERSON STREET	DIMBOOLA	3414																																												
PUBLIC	VIC	WIMMERA HEALTH CARE GROUP - HORSHAM	0034650W	83 BAILLIE STREET	HORSHAM	3400																																												
PRIVATE	SA	WINDSOR GARDENS DAY SURGERY	0067270A	"SUITE 1, LEVEL 1, 480 NORTH EAST ROAD"	WINDSOR GARDENS	5087																																												
PRIVATE	VIC	WINDSOR PRIVATE HOSPITAL	0657421L	20 THE AVENUE	WINDSOR	3181																																												
PUBLIC	NSW	WINGHAM COMMUNITY HOSPITAL	0012610H	32 BUNGAY ROAD	WINGHAM	2429																																												
PUBLIC	QLD	WINTON HOSPITAL	0051350Y	BLOOMFIELD STREET	WINTON	4735																																												
PRIVATE	NSW	WOLLONGONG DAY SURGERY	0657841T	354-358 CROWN STREET	WOLLONGONG	2500																																												
PUBLIC	NSW	WOLLONGONG HOSPITAL	0012400W	348 CROWN STREET	WOLLONGONG	2500																																												
PRIVATE	NSW	WOLLONGONG PRIVATE HOSPITAL	0017530K	360 CROWN STREET	WOLLONGONG	2500																																												
PRIVATE	NSW	WOLPER JEWISH HOSPITAL	0016320H	8 TRELAWNEY STREET	WOOLLAHRA	2025																																												
PUBLIC	SA	WOMENS AND CHILDRENS HOSPITAL	0060000L	72 KING WILLIAM ROAD	NORTH ADELAIDE	5006																																												
PUBLIC	QLD	WONDAI HOSPITAL	0051360X	BRAMSTON STREET	WONDAI	4606																																												
PUBLIC	WA	WONGAN HILLS HOSPITAL	0070810H	ACKLAND STREET	WONGAN HILLS	6603																																												
PUBLIC	SA	WOOMERA HOSPITAL	0060450J	15 DEWRANG AVENUE	WOOMERA	5720																																												
PUBLIC	QLD	WOORABINDA HOSPITAL	0051370W	1 MUNNS DRIVE	WOORABINDA	4702																																												
PUBLIC	NSW	WOY WOY PUBLIC HOSPITAL	0012650Y	7 KATHLEEN STREET	WOY WOY	2256																																												
PUBLIC	SA	WUDINNA HOSPITAL	0060620H	16-24 RICHARDS AVENUE	WUDINNA	5652																																												
PUBLIC	WA	WYALKATCHEM HOSPITAL	0070790W	HONOUR AVENUE	WYALKATCHEM	6485																																												
PUBLIC	NSW	WYALONG HOSPITAL	0012410T	70 UNGARIE ROAD	WEST WYALONG	2671																																												
PRIVATE	VIC	WYNDHAM CLINIC	0036930T	242A HOPPERS LANE & SUITE 21/242 HOPPERS LANE 	WERRIBEE	3030																																												
PUBLIC	WA	WYNDHAM HOSPITAL	0071200B	MINDEROO STREET	WYNDHAM	6740																																												
PUBLIC	NSW	WYONG PUBLIC HOSPITAL	0012770L	664 PACIFIC HIGHWAY	HAMLYN TERRACE	2259																																												
PUBLIC	VIC	YARRA RANGES HEALTH	0031990Y	25 MARKET STREET	LILYDALE	3140																																												
PUBLIC	VIC	YARRAM & DISTRICT HEALTH SERVICE	0031430J	85-91 COMMERCIAL ROAD	YARRAM	3971																																												
PUBLIC	VIC	YARRAWONGA HEALTH	0031440H	33 PIPER STREET	YARRAWONGA	3730																																												
PUBLIC	NSW	YASS DISTRICT HOSPITAL	0012420L	145-147 MEEHAN STREET	YASS	2582																																												
PUBLIC	VIC	YEA AND DISTRICT MEMORIAL HOSPITAL	0031450F	45 STATION STREET	YEA	3717																																												
PUBLIC	WA	YORK HOSPITAL	0070830B	TREWS ROAD	YORK	6302																																												
PUBLIC	NSW	YOUNG DISTRICT HOSPITAL	0012430K	68 ALLANAN STREET	YOUNG	2594																																												
PUBLIC	VIC	YOUTH PREVENTION AND RECOVERY CARE (Y-PARC)	0032130L	21 YUILLE STREET	FRANKSTON	3199																																												
